{
"type": "FeatureCollection",
"name": "torres",
"crs": { "type": "name", "properties": { "name": "urn:ogc:def:crs:OGC:1.3:CRS84" } },
"features": [
{ "type": "Feature", "properties": { "apoyo": "M79", "mast_typ": "Abspannmast", "descripcion": "Comentario:\n\t\t\t\tFamiliaTorreA-SCimentacionPeso Verstäkerung (kg)Vol Cimen (m3)Super. Trabajo (m2)\n\t\t" }, "geometry": { "type": "Point", "coordinates": [ 9.423184877191209, 54.441434083971288, 0.0 ] } },
{ "type": "Feature", "properties": { "apoyo": "M80", "mast_typ": "Tragmast", "descripcion": "Comentario:\n\t\t\t\tFamiliaTorreA-SCimentacionPeso Verstäkerung (kg)Vol Cimen (m3)Super. Trabajo (m2)\n\t\t" }, "geometry": { "type": "Point", "coordinates": [ 9.42344656357891, 54.445038345218009, 0.0 ] } },
{ "type": "Feature", "properties": { "apoyo": "M81", "mast_typ": "Tragmast", "descripcion": "Comentario:\n\t\t\t\tFamiliaTorreA-SCimentacionPeso Verstäkerung (kg)Vol Cimen (m3)Super. Trabajo (m2)\n\t\t" }, "geometry": { "type": "Point", "coordinates": [ 9.42364737127401, 54.447805108814592, 0.0 ] } },
{ "type": "Feature", "properties": { "apoyo": "M82", "mast_typ": "Tragmast", "descripcion": "Comentario:\n\t\t\t\tFamiliaTorreA-SCimentacionPeso Verstäkerung (kg)Vol Cimen (m3)Super. Trabajo (m2)\n\t\t" }, "geometry": { "type": "Point", "coordinates": [ 9.423958988709121, 54.452098966943097, 0.0 ] } },
{ "type": "Feature", "properties": { "apoyo": "M83", "mast_typ": "Tragmast", "descripcion": "Comentario:\n\t\t\t\tFamiliaTorreA-SCimentacionPeso Verstäkerung (kg)Vol Cimen (m3)Super. Trabajo (m2)\n\t\t" }, "geometry": { "type": "Point", "coordinates": [ 9.42423018961733, 54.455834042254601, 0.0 ] } },
{ "type": "Feature", "properties": { "apoyo": "M84", "mast_typ": "Tragmast", "descripcion": "Comentario:\n\t\t\t\tFamiliaTorreA-SCimentacionPeso Verstäkerung (kg)Vol Cimen (m3)Super. Trabajo (m2)\n\t\t" }, "geometry": { "type": "Point", "coordinates": [ 9.42454226059494, 54.460129689246799, 0.0 ] } },
{ "type": "Feature", "properties": { "apoyo": "M85", "mast_typ": "Tragmast", "descripcion": "Comentario:\n\t\t\t\tFamiliaTorreA-SCimentacionPeso Verstäkerung (kg)Vol Cimen (m3)Super. Trabajo (m2)\n\t\t" }, "geometry": { "type": "Point", "coordinates": [ 9.42480889683037, 54.463800695050892, 0.0 ] } },
{ "type": "Feature", "properties": { "apoyo": "M86", "mast_typ": "Tragmast", "descripcion": "Comentario:\n\t\t\t\tFamiliaTorreA-SCimentacionPeso Verstäkerung (kg)Vol Cimen (m3)Super. Trabajo (m2)\n\t\t" }, "geometry": { "type": "Point", "coordinates": [ 9.425112840991209, 54.467984921215702, 0.0 ] } },
{ "type": "Feature", "properties": { "apoyo": "M87", "mast_typ": "Tragmast", "descripcion": "Comentario:\n\t\t\t\tFamiliaTorreA-SCimentacionPeso Verstäkerung (kg)Vol Cimen (m3)Super. Trabajo (m2)\n\t\t" }, "geometry": { "type": "Point", "coordinates": [ 9.425376523650151, 54.47161387103931, 0.0 ] } },
{ "type": "Feature", "properties": { "apoyo": "M88", "mast_typ": "Tragmast", "descripcion": "Comentario:\n\t\t\t\tFamiliaTorreA-SCimentacionPeso Verstäkerung (kg)Vol Cimen (m3)Super. Trabajo (m2)\n\t\t" }, "geometry": { "type": "Point", "coordinates": [ 9.425680399034549, 54.475794765509299, 0.0 ] } },
{ "type": "Feature", "properties": { "apoyo": "M89", "mast_typ": "Tragmast", "descripcion": "Comentario:\n\t\t\t\tFamiliaTorreA-SCimentacionPeso Verstäkerung (kg)Vol Cimen (m3)Super. Trabajo (m2)\n\t\t" }, "geometry": { "type": "Point", "coordinates": [ 9.42590887981337, 54.4789370825942, 0.0 ] } },
{ "type": "Feature", "properties": { "apoyo": "M90", "mast_typ": "Tragmast", "descripcion": "Comentario:\n\t\t\t\tFamiliaTorreA-SCimentacionPeso Verstäkerung (kg)Vol Cimen (m3)Super. Trabajo (m2)\n\t\t" }, "geometry": { "type": "Point", "coordinates": [ 9.426167498136399, 54.482495402224302, 0.0 ] } },
{ "type": "Feature", "properties": { "apoyo": "M91", "mast_typ": "Abspannmast", "descripcion": "Comentario:\n\t\t\t\tFamiliaTorreA-SCimentacionPeso Verstäkerung (kg)Vol Cimen (m3)Super. Trabajo (m2)\n\t\t" }, "geometry": { "type": "Point", "coordinates": [ 9.426408471235799, 54.485807260737303, 0.0 ] } },
{ "type": "Feature", "properties": { "apoyo": "M92", "mast_typ": "Tragmast", "descripcion": "Comentario:\n\t\t\t\tFamiliaTorreA-SCimentacionPeso Verstäkerung (kg)Vol Cimen (m3)Super. Trabajo (m2)\n\t\t" }, "geometry": { "type": "Point", "coordinates": [ 9.42690587615297, 54.489635608550387, 0.0 ] } },
{ "type": "Feature", "properties": { "apoyo": "M93", "mast_typ": "Tragmast", "descripcion": "Comentario:\n\t\t\t\tFamiliaTorreA-SCimentacionPeso Verstäkerung (kg)Vol Cimen (m3)Super. Trabajo (m2)\n\t\t" }, "geometry": { "type": "Point", "coordinates": [ 9.427457248060421, 54.493877354857908, 0.0 ] } },
{ "type": "Feature", "properties": { "apoyo": "M94", "mast_typ": "Tragmast", "descripcion": "Comentario:\n\t\t\t\tFamiliaTorreA-SCimentacionPeso Verstäkerung (kg)Vol Cimen (m3)Super. Trabajo (m2)\n\t\t" }, "geometry": { "type": "Point", "coordinates": [ 9.42795585258593, 54.497712699390298, 0.0 ] } },
{ "type": "Feature", "properties": { "apoyo": "M95", "mast_typ": "Tragmast", "descripcion": "Comentario:\n\t\t\t\tFamiliaTorreA-SCimentacionPeso Verstäkerung (kg)Vol Cimen (m3)Super. Trabajo (m2)\n\t\t" }, "geometry": { "type": "Point", "coordinates": [ 9.428507287261001, 54.501953986029498, 0.0 ] } },
{ "type": "Feature", "properties": { "apoyo": "M96", "mast_typ": "Tragmast", "descripcion": "Comentario:\n\t\t\t\tFamiliaTorreA-SCimentacionPeso Verstäkerung (kg)Vol Cimen (m3)Super. Trabajo (m2)\n\t\t" }, "geometry": { "type": "Point", "coordinates": [ 9.429003237431919, 54.50576740199601, 0.0 ] } },
{ "type": "Feature", "properties": { "apoyo": "M097A", "mast_typ": "Abspannmast", "descripcion": "Comentario:\n\t\t\t\tFamiliaTorreA-SCimentacionPeso Verstäkerung (kg)Vol Cimen (m3)Super. Trabajo (m2)\n\t\t" }, "geometry": { "type": "Point", "coordinates": [ 9.42947878628323, 54.509423250040498, 0.0 ] } },
{ "type": "Feature", "properties": { "apoyo": "M098A", "mast_typ": "Tragmast", "descripcion": "Comentario:\n\t\t\t\tFamiliaTorreA-SCimentacionPeso Verstäkerung (kg)Vol Cimen (m3)Super. Trabajo (m2)\n\t\t" }, "geometry": { "type": "Point", "coordinates": [ 9.432499073793551, 54.512218479493797, 0.0 ] } },
{ "type": "Feature", "properties": { "apoyo": "M099A", "mast_typ": "Abspannmast", "descripcion": "Comentario:\n\t\t\t\tFamiliaTorreA-SCimentacionPeso Verstäkerung (kg)Vol Cimen (m3)Super. Trabajo (m2)\n\t\t" }, "geometry": { "type": "Point", "coordinates": [ 9.434586407871659, 54.514149991243713, 0.0 ] } },
{ "type": "Feature", "properties": { "apoyo": "M099B", "mast_typ": "Abspannmast", "descripcion": "Comentario:\n\t\t\t\tFamiliaTorreA-SCimentacionPeso Verstäkerung (kg)Vol Cimen (m3)Super. Trabajo (m2)\n\t\t" }, "geometry": { "type": "Point", "coordinates": [ 9.43362971874725, 54.5180076876144, 0.0 ] } },
{ "type": "Feature", "properties": { "apoyo": "M100N", "mast_typ": "Abspannmast", "descripcion": "Comentario:\n\t\t\t\tFamiliaTorreA-SCimentacionPeso Verstäkerung (kg)Vol Cimen (m3)Super. Trabajo (m2)\n\t\t" }, "geometry": { "type": "Point", "coordinates": [ 9.43091946433343, 54.5209697670888, 0.0 ] } },
{ "type": "Feature", "properties": { "apoyo": "M101", "mast_typ": "Tragmast", "descripcion": "Comentario:\n\t\t\t\tFamiliaTorreA-SCimentacionPeso Verstäkerung (kg)Vol Cimen (m3)Super. Trabajo (m2)\n\t\t" }, "geometry": { "type": "Point", "coordinates": [ 9.430249431342091, 54.525408421655008, 0.0 ] } },
{ "type": "Feature", "properties": { "apoyo": "M102", "mast_typ": "Tragmast", "descripcion": "Comentario:\n\t\t\t\tFamiliaTorreA-SCimentacionPeso Verstäkerung (kg)Vol Cimen (m3)Super. Trabajo (m2)\n\t\t" }, "geometry": { "type": "Point", "coordinates": [ 9.429656159816711, 54.529003526856989, 0.0 ] } },
{ "type": "Feature", "properties": { "apoyo": "M103", "mast_typ": "Tragmast", "descripcion": "Comentario:\n\t\t\t\tFamiliaTorreA-SCimentacionPeso Verstäkerung (kg)Vol Cimen (m3)Super. Trabajo (m2)\n\t\t" }, "geometry": { "type": "Point", "coordinates": [ 9.42893288954297, 54.533386456473004, 0.0 ] } },
{ "type": "Feature", "properties": { "apoyo": "M104", "mast_typ": "Tragmast", "descripcion": "Comentario:\n\t\t\t\tFamiliaTorreA-SCimentacionPeso Verstäkerung (kg)Vol Cimen (m3)Super. Trabajo (m2)\n\t\t" }, "geometry": { "type": "Point", "coordinates": [ 9.42832864074126, 54.537047195451699, 0.0 ] } },
{ "type": "Feature", "properties": { "apoyo": "M105", "mast_typ": "Tragmast", "descripcion": "Comentario:\n\t\t\t\tFamiliaTorreA-SCimentacionPeso Verstäkerung (kg)Vol Cimen (m3)Super. Trabajo (m2)\n\t\t" }, "geometry": { "type": "Point", "coordinates": [ 9.42770422750621, 54.540829596953301, 0.0 ] } },
{ "type": "Feature", "properties": { "apoyo": "M106", "mast_typ": "Tragmast", "descripcion": "Comentario:\n\t\t\t\tFamiliaTorreA-SCimentacionPeso Verstäkerung (kg)Vol Cimen (m3)Super. Trabajo (m2)\n\t\t" }, "geometry": { "type": "Point", "coordinates": [ 9.427025177495359, 54.544941925229402, 0.0 ] } },
{ "type": "Feature", "properties": { "apoyo": "M107", "mast_typ": "Tragmast", "descripcion": "Comentario:\n\t\t\t\tFamiliaTorreA-SCimentacionPeso Verstäkerung (kg)Vol Cimen (m3)Super. Trabajo (m2)\n\t\t" }, "geometry": { "type": "Point", "coordinates": [ 9.426425835487359, 54.548571713905801, 0.0 ] } },
{ "type": "Feature", "properties": { "apoyo": "M108", "mast_typ": "Abspannmast", "descripcion": "Comentario:\n\t\t\t\tFamiliaTorreA-SCimentacionPeso Verstäkerung (kg)Vol Cimen (m3)Super. Trabajo (m2)\n\t\t" }, "geometry": { "type": "Point", "coordinates": [ 9.42571060443588, 54.552901196741402, 0.0 ] } },
{ "type": "Feature", "properties": { "apoyo": "M109", "mast_typ": "Tragmast", "descripcion": "Comentario:\n\t\t\t\tFamiliaTorreA-SCimentacionPeso Verstäkerung (kg)Vol Cimen (m3)Super. Trabajo (m2)\n\t\t" }, "geometry": { "type": "Point", "coordinates": [ 9.423562840013149, 54.5557341201716, 0.0 ] } },
{ "type": "Feature", "properties": { "apoyo": "M110", "mast_typ": "Tragmast", "descripcion": "Comentario:\n\t\t\t\tFamiliaTorreA-SCimentacionPeso Verstäkerung (kg)Vol Cimen (m3)Super. Trabajo (m2)\n\t\t" }, "geometry": { "type": "Point", "coordinates": [ 9.42057734757633, 54.559671114895998, 0.0 ] } },
{ "type": "Feature", "properties": { "apoyo": "M111", "mast_typ": "Tragmast", "descripcion": "Comentario:\n\t\t\t\tFamiliaTorreA-SCimentacionPeso Verstäkerung (kg)Vol Cimen (m3)Super. Trabajo (m2)\n\t\t" }, "geometry": { "type": "Point", "coordinates": [ 9.417949883415821, 54.5631352404951, 0.0 ] } },
{ "type": "Feature", "properties": { "apoyo": "M112", "mast_typ": "Tragmast", "descripcion": "Comentario:\n\t\t\t\tFamiliaTorreA-SCimentacionPeso Verstäkerung (kg)Vol Cimen (m3)Super. Trabajo (m2)\n\t\t" }, "geometry": { "type": "Point", "coordinates": [ 9.414963158692199, 54.5670721841391, 0.0 ] } },
{ "type": "Feature", "properties": { "apoyo": "M113", "mast_typ": "Tragmast", "descripcion": "Comentario:\n\t\t\t\tFamiliaTorreA-SCimentacionPeso Verstäkerung (kg)Vol Cimen (m3)Super. Trabajo (m2)\n\t\t" }, "geometry": { "type": "Point", "coordinates": [ 9.41239931730491, 54.570451216449399, 0.0 ] } },
{ "type": "Feature", "properties": { "apoyo": "M114", "mast_typ": "Abspannmast", "descripcion": "Comentario:\n\t\t\t\tFamiliaTorreA-SCimentacionPeso Verstäkerung (kg)Vol Cimen (m3)Super. Trabajo (m2)\n\t\t" }, "geometry": { "type": "Point", "coordinates": [ 9.409438702862969, 54.574352249266099, 0.0 ] } },
{ "type": "Feature", "properties": { "apoyo": "M115", "mast_typ": "Tragmast", "descripcion": "Comentario:\n\t\t\t\tFamiliaTorreA-SCimentacionPeso Verstäkerung (kg)Vol Cimen (m3)Super. Trabajo (m2)\n\t\t" }, "geometry": { "type": "Point", "coordinates": [ 9.408484070406709, 54.577754407124402, 0.0 ] } },
{ "type": "Feature", "properties": { "apoyo": "M116", "mast_typ": "Tragmast", "descripcion": "Comentario:\n\t\t\t\tFamiliaTorreA-SCimentacionPeso Verstäkerung (kg)Vol Cimen (m3)Super. Trabajo (m2)\n\t\t" }, "geometry": { "type": "Point", "coordinates": [ 9.40757111265847, 54.581007318611597, 0.0 ] } },
{ "type": "Feature", "properties": { "apoyo": "M117", "mast_typ": "Tragmast", "descripcion": "Comentario:\n\t\t\t\tFamiliaTorreA-SCimentacionPeso Verstäkerung (kg)Vol Cimen (m3)Super. Trabajo (m2)\n\t\t" }, "geometry": { "type": "Point", "coordinates": [ 9.406640826571349, 54.584321481693202, 0.0 ] } },
{ "type": "Feature", "properties": { "apoyo": "M118", "mast_typ": "Tragmast", "descripcion": "Comentario:\n\t\t\t\tFamiliaTorreA-SCimentacionPeso Verstäkerung (kg)Vol Cimen (m3)Super. Trabajo (m2)\n\t\t" }, "geometry": { "type": "Point", "coordinates": [ 9.40594876964812, 54.586786813043602, 0.0 ] } },
{ "type": "Feature", "properties": { "apoyo": "M119", "mast_typ": "Abspannmast", "descripcion": "Comentario:\n\t\t\t\tFamiliaTorreA-SCimentacionPeso Verstäkerung (kg)Vol Cimen (m3)Super. Trabajo (m2)\n\t\t" }, "geometry": { "type": "Point", "coordinates": [ 9.4048999871007, 54.590521953032798, 0.0 ] } },
{ "type": "Feature", "properties": { "apoyo": "M120", "mast_typ": "Tragmast", "descripcion": "Comentario:\n\t\t\t\tFamiliaTorreA-SCimentacionPeso Verstäkerung (kg)Vol Cimen (m3)Super. Trabajo (m2)\n\t\t" }, "geometry": { "type": "Point", "coordinates": [ 9.406311633565229, 54.592974746338697, 0.0 ] } },
{ "type": "Feature", "properties": { "apoyo": "M121", "mast_typ": "Tragmast", "descripcion": "Comentario:\n\t\t\t\tFamiliaTorreA-SCimentacionPeso Verstäkerung (kg)Vol Cimen (m3)Super. Trabajo (m2)\n\t\t" }, "geometry": { "type": "Point", "coordinates": [ 9.408323571727941, 54.596470069536899, 0.0 ] } },
{ "type": "Feature", "properties": { "apoyo": "M122", "mast_typ": "Abspannmast", "descripcion": "Comentario:\n\t\t\t\tFamiliaTorreA-SCimentacionPeso Verstäkerung (kg)Vol Cimen (m3)Super. Trabajo (m2)\n\t\t" }, "geometry": { "type": "Point", "coordinates": [ 9.41072609760527, 54.600643187893709, 0.0 ] } },
{ "type": "Feature", "properties": { "apoyo": "M123", "mast_typ": "Tragmast", "descripcion": "Comentario:\n\t\t\t\tFamiliaTorreA-SCimentacionPeso Verstäkerung (kg)Vol Cimen (m3)Super. Trabajo (m2)\n\t\t" }, "geometry": { "type": "Point", "coordinates": [ 9.41285792066183, 54.604345088268403, 0.0 ] } },
{ "type": "Feature", "properties": { "apoyo": "M124", "mast_typ": "Tragmast", "descripcion": "Comentario:\n\t\t\t\tFamiliaTorreA-SCimentacionPeso Verstäkerung (kg)Vol Cimen (m3)Super. Trabajo (m2)\n\t\t" }, "geometry": { "type": "Point", "coordinates": [ 9.414657426920069, 54.607468960462903, 0.0 ] } },
{ "type": "Feature", "properties": { "apoyo": "M125", "mast_typ": "Tragmast", "descripcion": "Comentario:\n\t\t\t\tFamiliaTorreA-SCimentacionPeso Verstäkerung (kg)Vol Cimen (m3)Super. Trabajo (m2)\n\t\t" }, "geometry": { "type": "Point", "coordinates": [ 9.41633143110373, 54.610375030086097, 0.0 ] } },
{ "type": "Feature", "properties": { "apoyo": "M126", "mast_typ": "Tragmast", "descripcion": "Comentario:\n\t\t\t\tFamiliaTorreA-SCimentacionPeso Verstäkerung (kg)Vol Cimen (m3)Super. Trabajo (m2)\n\t\t" }, "geometry": { "type": "Point", "coordinates": [ 9.41856249027577, 54.614246969311502, 0.0 ] } },
{ "type": "Feature", "properties": { "apoyo": "M127", "mast_typ": "Tragmast", "descripcion": "Comentario:\n\t\t\t\tFamiliaTorreA-SCimentacionPeso Verstäkerung (kg)Vol Cimen (m3)Super. Trabajo (m2)\n\t\t" }, "geometry": { "type": "Point", "coordinates": [ 9.420774263643271, 54.618084602077801, 0.0 ] } },
{ "type": "Feature", "properties": { "apoyo": "M128", "mast_typ": "Abspannmast", "descripcion": "Comentario:\n\t\t\t\tFamiliaTorreA-SCimentacionPeso Verstäkerung (kg)Vol Cimen (m3)Super. Trabajo (m2)\n\t\t" }, "geometry": { "type": "Point", "coordinates": [ 9.42298519644657, 54.621920308370001, 0.0 ] } },
{ "type": "Feature", "properties": { "apoyo": "M129", "mast_typ": "Tragmast", "descripcion": "Comentario:\n\t\t\t\tFamiliaTorreA-SCimentacionPeso Verstäkerung (kg)Vol Cimen (m3)Super. Trabajo (m2)\n\t\t" }, "geometry": { "type": "Point", "coordinates": [ 9.42271875109234, 54.625843552321697, 0.0 ] } },
{ "type": "Feature", "properties": { "apoyo": "M130", "mast_typ": "Tragmast", "descripcion": "Comentario:\n\t\t\t\tFamiliaTorreA-SCimentacionPeso Verstäkerung (kg)Vol Cimen (m3)Super. Trabajo (m2)\n\t\t" }, "geometry": { "type": "Point", "coordinates": [ 9.42244728043643, 54.629839695588402, 0.0 ] } },
{ "type": "Feature", "properties": { "apoyo": "M131", "mast_typ": "Tragmast", "descripcion": "Comentario:\n\t\t\t\tFamiliaTorreA-SCimentacionPeso Verstäkerung (kg)Vol Cimen (m3)Super. Trabajo (m2)\n\t\t" }, "geometry": { "type": "Point", "coordinates": [ 9.42225535202048, 54.632665983742399, 0.0 ] } },
{ "type": "Feature", "properties": { "apoyo": "M132", "mast_typ": "Tragmast", "descripcion": "Comentario:\n\t\t\t\tFamiliaTorreA-SCimentacionPeso Verstäkerung (kg)Vol Cimen (m3)Super. Trabajo (m2)\n\t\t" }, "geometry": { "type": "Point", "coordinates": [ 9.42195247138087, 54.6371234457783, 0.0 ] } },
{ "type": "Feature", "properties": { "apoyo": "M133", "mast_typ": "Tragmast", "descripcion": "Comentario:\n\t\t\t\tFamiliaTorreA-SCimentacionPeso Verstäkerung (kg)Vol Cimen (m3)Super. Trabajo (m2)\n\t\t" }, "geometry": { "type": "Point", "coordinates": [ 9.42171165052741, 54.640666526252602, 0.0 ] } },
{ "type": "Feature", "properties": { "apoyo": "M134", "mast_typ": "Tragmast", "descripcion": "Comentario:\n\t\t\t\tFamiliaTorreA-SCimentacionPeso Verstäkerung (kg)Vol Cimen (m3)Super. Trabajo (m2)\n\t\t" }, "geometry": { "type": "Point", "coordinates": [ 9.421470927618261, 54.6442079860945, 0.0 ] } },
{ "type": "Feature", "properties": { "apoyo": "M135", "mast_typ": "Tragmast", "descripcion": "Comentario:\n\t\t\t\tFamiliaTorreA-SCimentacionPeso Verstäkerung (kg)Vol Cimen (m3)Super. Trabajo (m2)\n\t\t" }, "geometry": { "type": "Point", "coordinates": [ 9.4211686770323, 54.648652403992493, 0.0 ] } },
{ "type": "Feature", "properties": { "apoyo": "M136", "mast_typ": "Tragmast", "descripcion": "Comentario:\n\t\t\t\tFamiliaTorreA-SCimentacionPeso Verstäkerung (kg)Vol Cimen (m3)Super. Trabajo (m2)\n\t\t" }, "geometry": { "type": "Point", "coordinates": [ 9.4209227642508, 54.6522703554893, 0.0 ] } },
{ "type": "Feature", "properties": { "apoyo": "M137", "mast_typ": "Tragmast", "descripcion": "Comentario:\n\t\t\t\tFamiliaTorreA-SCimentacionPeso Verstäkerung (kg)Vol Cimen (m3)Super. Trabajo (m2)\n\t\t" }, "geometry": { "type": "Point", "coordinates": [ 9.42062121721761, 54.656703979033509, 0.0 ] } },
{ "type": "Feature", "properties": { "apoyo": "M138", "mast_typ": "Tragmast", "descripcion": "Comentario:\n\t\t\t\tFamiliaTorreA-SCimentacionPeso Verstäkerung (kg)Vol Cimen (m3)Super. Trabajo (m2)\n\t\t" }, "geometry": { "type": "Point", "coordinates": [ 9.42037827895947, 54.6602737437562, 0.0 ] } },
{ "type": "Feature", "properties": { "apoyo": "M139", "mast_typ": "Tragmast", "descripcion": "Comentario:\n\t\t\t\tFamiliaTorreA-SCimentacionPeso Verstäkerung (kg)Vol Cimen (m3)Super. Trabajo (m2)\n\t\t" }, "geometry": { "type": "Point", "coordinates": [ 9.420079842570409, 54.664659268637401, 0.0 ] } },
{ "type": "Feature", "properties": { "apoyo": "M140", "mast_typ": "Tragmast", "descripcion": "Comentario:\n\t\t\t\tFamiliaTorreA-SCimentacionPeso Verstäkerung (kg)Vol Cimen (m3)Super. Trabajo (m2)\n\t\t" }, "geometry": { "type": "Point", "coordinates": [ 9.41982970128927, 54.668336267232597, 0.0 ] } },
{ "type": "Feature", "properties": { "apoyo": "M141", "mast_typ": "Abspannmast", "descripcion": "Comentario:\n\t\t\t\tFamiliaTorreA-SCimentacionPeso Verstäkerung (kg)Vol Cimen (m3)Super. Trabajo (m2)\n\t\t" }, "geometry": { "type": "Point", "coordinates": [ 9.41963741246636, 54.671161455442103, 0.0 ] } },
{ "type": "Feature", "properties": { "apoyo": "M142", "mast_typ": "Tragmast", "descripcion": "Comentario:\n\t\t\t\tFamiliaTorreA-SCimentacionPeso Verstäkerung (kg)Vol Cimen (m3)Super. Trabajo (m2)\n\t\t" }, "geometry": { "type": "Point", "coordinates": [ 9.418143390071259, 54.673320442376003, 0.0 ] } },
{ "type": "Feature", "properties": { "apoyo": "M143", "mast_typ": "Tragmast", "descripcion": "Comentario:\n\t\t\t\tFamiliaTorreA-SCimentacionPeso Verstäkerung (kg)Vol Cimen (m3)Super. Trabajo (m2)\n\t\t" }, "geometry": { "type": "Point", "coordinates": [ 9.415585552708389, 54.677016152404597, 0.0 ] } },
{ "type": "Feature", "properties": { "apoyo": "M144", "mast_typ": "Tragmast", "descripcion": "Comentario:\n\t\t\t\tFamiliaTorreA-SCimentacionPeso Verstäkerung (kg)Vol Cimen (m3)Super. Trabajo (m2)\n\t\t" }, "geometry": { "type": "Point", "coordinates": [ 9.412995456975411, 54.680757659029098, 0.0 ] } },
{ "type": "Feature", "properties": { "apoyo": "M145", "mast_typ": "Tragmast", "descripcion": "Comentario:\n\t\t\t\tFamiliaTorreA-SCimentacionPeso Verstäkerung (kg)Vol Cimen (m3)Super. Trabajo (m2)\n\t\t" }, "geometry": { "type": "Point", "coordinates": [ 9.411148963312851, 54.683424531062599, 0.0 ] } },
{ "type": "Feature", "properties": { "apoyo": "M146", "mast_typ": "Abspannmast", "descripcion": "Comentario:\n\t\t\t\tFamiliaTorreA-SCimentacionPeso Verstäkerung (kg)Vol Cimen (m3)Super. Trabajo (m2)\n\t\t" }, "geometry": { "type": "Point", "coordinates": [ 9.40883374293864, 54.686768056333001, 0.0 ] } },
{ "type": "Feature", "properties": { "apoyo": "M147", "mast_typ": "Tragmast", "descripcion": "Comentario:\n\t\t\t\tFamiliaTorreA-SCimentacionPeso Verstäkerung (kg)Vol Cimen (m3)Super. Trabajo (m2)\n\t\t" }, "geometry": { "type": "Point", "coordinates": [ 9.40366665620698, 54.689068874408001, 0.0 ] } },
{ "type": "Feature", "properties": { "apoyo": "M148", "mast_typ": "Tragmast", "descripcion": "Comentario:\n\t\t\t\tFamiliaTorreA-SCimentacionPeso Verstäkerung (kg)Vol Cimen (m3)Super. Trabajo (m2)\n\t\t" }, "geometry": { "type": "Point", "coordinates": [ 9.39843040138889, 54.691399983749903, 0.0 ] } },
{ "type": "Feature", "properties": { "apoyo": "M149", "mast_typ": "Tragmast", "descripcion": "Comentario:\n\t\t\t\tFamiliaTorreA-SCimentacionPeso Verstäkerung (kg)Vol Cimen (m3)Super. Trabajo (m2)\n\t\t" }, "geometry": { "type": "Point", "coordinates": [ 9.39347285095562, 54.693606479784307, 0.0 ] } },
{ "type": "Feature", "properties": { "apoyo": "M150", "mast_typ": "Tragmast", "descripcion": "Comentario:\n\t\t\t\tFamiliaTorreA-SCimentacionPeso Verstäkerung (kg)Vol Cimen (m3)Super. Trabajo (m2)\n\t\t" }, "geometry": { "type": "Point", "coordinates": [ 9.38794002058461, 54.696068585040997, 0.0 ] } },
{ "type": "Feature", "properties": { "apoyo": "M151", "mast_typ": "Tragmast", "descripcion": "Comentario:\n\t\t\t\tFamiliaTorreA-SCimentacionPeso Verstäkerung (kg)Vol Cimen (m3)Super. Trabajo (m2)\n\t\t" }, "geometry": { "type": "Point", "coordinates": [ 9.38264123513566, 54.698425987730403, 0.0 ] } },
{ "type": "Feature", "properties": { "apoyo": "M152", "mast_typ": "Tragmast", "descripcion": "Comentario:\n\t\t\t\tFamiliaTorreA-SCimentacionPeso Verstäkerung (kg)Vol Cimen (m3)Super. Trabajo (m2)\n\t\t" }, "geometry": { "type": "Point", "coordinates": [ 9.37768567915721, 54.700630208702002, 0.0 ] } },
{ "type": "Feature", "properties": { "apoyo": "M153", "mast_typ": "Tragmast", "descripcion": "Comentario:\n\t\t\t\tFamiliaTorreA-SCimentacionPeso Verstäkerung (kg)Vol Cimen (m3)Super. Trabajo (m2)\n\t\t" }, "geometry": { "type": "Point", "coordinates": [ 9.37248245498437, 54.702944177898509, 0.0 ] } },
{ "type": "Feature", "properties": { "apoyo": "M154", "mast_typ": "Tragmast", "descripcion": "Comentario:\n\t\t\t\tFamiliaTorreA-SCimentacionPeso Verstäkerung (kg)Vol Cimen (m3)Super. Trabajo (m2)\n\t\t" }, "geometry": { "type": "Point", "coordinates": [ 9.36785518590689, 54.705001575944692, 0.0 ] } },
{ "type": "Feature", "properties": { "apoyo": "M155", "mast_typ": "Tragmast", "descripcion": "Comentario:\n\t\t\t\tFamiliaTorreA-SCimentacionPeso Verstäkerung (kg)Vol Cimen (m3)Super. Trabajo (m2)\n\t\t" }, "geometry": { "type": "Point", "coordinates": [ 9.36238309583246, 54.707434101759112, 0.0 ] } },
{ "type": "Feature", "properties": { "apoyo": "M156", "mast_typ": "Tragmast", "descripcion": "Comentario:\n\t\t\t\tFamiliaTorreA-SCimentacionPeso Verstäkerung (kg)Vol Cimen (m3)Super. Trabajo (m2)\n\t\t" }, "geometry": { "type": "Point", "coordinates": [ 9.357297328890491, 54.709694399345203, 0.0 ] } },
{ "type": "Feature", "properties": { "apoyo": "M157", "mast_typ": "Tragmast", "descripcion": "Comentario:\n\t\t\t\tFamiliaTorreA-SCimentacionPeso Verstäkerung (kg)Vol Cimen (m3)Super. Trabajo (m2)\n\t\t" }, "geometry": { "type": "Point", "coordinates": [ 9.351578276604601, 54.7122356331964, 0.0 ] } },
{ "type": "Feature", "properties": { "apoyo": "M158", "mast_typ": "Tragmast", "descripcion": "Comentario:\n\t\t\t\tFamiliaTorreA-SCimentacionPeso Verstäkerung (kg)Vol Cimen (m3)Super. Trabajo (m2)\n\t\t" }, "geometry": { "type": "Point", "coordinates": [ 9.34743492187995, 54.714076323690399, 0.0 ] } },
{ "type": "Feature", "properties": { "apoyo": "M159", "mast_typ": "Tragmast", "descripcion": "Comentario:\n\t\t\t\tFamiliaTorreA-SCimentacionPeso Verstäkerung (kg)Vol Cimen (m3)Super. Trabajo (m2)\n\t\t" }, "geometry": { "type": "Point", "coordinates": [ 9.34175407287732, 54.716599546351297, 0.0 ] } },
{ "type": "Feature", "properties": { "apoyo": "M160", "mast_typ": "Abspannmast", "descripcion": "Comentario:\n\t\t\t\tFamiliaTorreA-SCimentacionPeso Verstäkerung (kg)Vol Cimen (m3)Super. Trabajo (m2)\n\t\t" }, "geometry": { "type": "Point", "coordinates": [ 9.33671256756887, 54.718838358675498, 0.0 ] } },
{ "type": "Feature", "properties": { "apoyo": "M161N", "mast_typ": "Abspannmast", "descripcion": "Comentario:\n\t\t\t\tFamiliaTorreA-SCimentacionPeso Verstäkerung (kg)Vol Cimen (m3)Super. Trabajo (m2)\n\t\t" }, "geometry": { "type": "Point", "coordinates": [ 9.332188513553209, 54.721030339047097, 0.0 ] } },
{ "type": "Feature", "properties": { "apoyo": "M162A", "mast_typ": "Tragmast", "descripcion": "Comentario:\n\t\t\t\tFamiliaTorreA-SCimentacionPeso Verstäkerung (kg)Vol Cimen (m3)Super. Trabajo (m2)\n\t\t" }, "geometry": { "type": "Point", "coordinates": [ 9.326404257359529, 54.723018580365007, 0.0 ] } },
{ "type": "Feature", "properties": { "apoyo": "M163A", "mast_typ": "Tragmast", "descripcion": "Comentario:\n\t\t\t\tFamiliaTorreA-SCimentacionPeso Verstäkerung (kg)Vol Cimen (m3)Super. Trabajo (m2)\n\t\t" }, "geometry": { "type": "Point", "coordinates": [ 9.31938620755971, 54.723020105589001, 0.0 ] } },
{ "type": "Feature", "properties": { "apoyo": "M164A", "mast_typ": "Tragmast", "descripcion": "Comentario:\n\t\t\t\tFamiliaTorreA-SCimentacionPeso Verstäkerung (kg)Vol Cimen (m3)Super. Trabajo (m2)\n\t\t" }, "geometry": { "type": "Point", "coordinates": [ 9.315262811512801, 54.724220220833303, 0.0 ] } },
{ "type": "Feature", "properties": { "apoyo": "M165A", "mast_typ": "Tragmast", "descripcion": "Comentario:\n\t\t\t\tFamiliaTorreA-SCimentacionPeso Verstäkerung (kg)Vol Cimen (m3)Super. Trabajo (m2)\n\t\t" }, "geometry": { "type": "Point", "coordinates": [ 9.31390650975511, 54.726642826906613, 0.0 ] } },
{ "type": "Feature", "properties": { "apoyo": "M165B", "mast_typ": "Abspannmast", "descripcion": "Comentario:\n\t\t\t\tFamiliaTorreA-SCimentacionPeso Verstäkerung (kg)Vol Cimen (m3)Super. Trabajo (m2)\n\t\t" }, "geometry": { "type": "Point", "coordinates": [ 9.313606084011189, 54.730025184035398, 0.0 ] } },
{ "type": "Feature", "properties": { "apoyo": "M166", "mast_typ": "Tragmast", "descripcion": "Comentario:\n\t\t\t\tFamiliaTorreA-SCimentacionPeso Verstäkerung (kg)Vol Cimen (m3)Super. Trabajo (m2)\n\t\t" }, "geometry": { "type": "Point", "coordinates": [ 9.310693209316071, 54.731445238294697, 0.0 ] } },
{ "type": "Feature", "properties": { "apoyo": "M167", "mast_typ": "Tragmast", "descripcion": "Comentario:\n\t\t\t\tFamiliaTorreA-SCimentacionPeso Verstäkerung (kg)Vol Cimen (m3)Super. Trabajo (m2)\n\t\t" }, "geometry": { "type": "Point", "coordinates": [ 9.3059475546548, 54.733742933603601, 0.0 ] } },
{ "type": "Feature", "properties": { "apoyo": "M168", "mast_typ": "Tragmast", "descripcion": "Comentario:\n\t\t\t\tFamiliaTorreA-SCimentacionPeso Verstäkerung (kg)Vol Cimen (m3)Super. Trabajo (m2)\n\t\t" }, "geometry": { "type": "Point", "coordinates": [ 9.30008386852389, 54.736581256472, 0.0 ] } },
{ "type": "Feature", "properties": { "apoyo": "M169", "mast_typ": "Tragmast", "descripcion": "Comentario:\n\t\t\t\tFamiliaTorreA-SCimentacionPeso Verstäkerung (kg)Vol Cimen (m3)Super. Trabajo (m2)\n\t\t" }, "geometry": { "type": "Point", "coordinates": [ 9.2954996813592, 54.738799774430497, 0.0 ] } },
{ "type": "Feature", "properties": { "apoyo": "M170", "mast_typ": "Tragmast", "descripcion": "Comentario:\n\t\t\t\tFamiliaTorreA-SCimentacionPeso Verstäkerung (kg)Vol Cimen (m3)Super. Trabajo (m2)\n\t\t" }, "geometry": { "type": "Point", "coordinates": [ 9.289762085783639, 54.741575816690492, 0.0 ] } },
{ "type": "Feature", "properties": { "apoyo": "M171", "mast_typ": "Tragmast", "descripcion": "Comentario:\n\t\t\t\tFamiliaTorreA-SCimentacionPeso Verstäkerung (kg)Vol Cimen (m3)Super. Trabajo (m2)\n\t\t" }, "geometry": { "type": "Point", "coordinates": [ 9.284868381316951, 54.743943131267301, 0.0 ] } },
{ "type": "Feature", "properties": { "apoyo": "M172", "mast_typ": "Tragmast", "descripcion": "Comentario:\n\t\t\t\tFamiliaTorreA-SCimentacionPeso Verstäkerung (kg)Vol Cimen (m3)Super. Trabajo (m2)\n\t\t" }, "geometry": { "type": "Point", "coordinates": [ 9.27917996306228, 54.746694288798402, 0.0 ] } },
{ "type": "Feature", "properties": { "apoyo": "M173", "mast_typ": "Tragmast", "descripcion": "Comentario:\n\t\t\t\tFamiliaTorreA-SCimentacionPeso Verstäkerung (kg)Vol Cimen (m3)Super. Trabajo (m2)\n\t\t" }, "geometry": { "type": "Point", "coordinates": [ 9.27414627440192, 54.749128171679502, 0.0 ] } },
{ "type": "Feature", "properties": { "apoyo": "M174", "mast_typ": "Tragmast", "descripcion": "Comentario:\n\t\t\t\tFamiliaTorreA-SCimentacionPeso Verstäkerung (kg)Vol Cimen (m3)Super. Trabajo (m2)\n\t\t" }, "geometry": { "type": "Point", "coordinates": [ 9.268546538923941, 54.751835219601901, 0.0 ] } },
{ "type": "Feature", "properties": { "apoyo": "M175", "mast_typ": "Abspannmast", "descripcion": "Comentario:\n\t\t\t\tFamiliaTorreA-SCimentacionPeso Verstäkerung (kg)Vol Cimen (m3)Super. Trabajo (m2)\n\t\t" }, "geometry": { "type": "Point", "coordinates": [ 9.263472851504821, 54.754287437127601, 0.0 ] } },
{ "type": "Feature", "properties": { "apoyo": "M176", "mast_typ": "Tragmast", "descripcion": "Comentario:\n\t\t\t\tFamiliaTorreA-SCimentacionPeso Verstäkerung (kg)Vol Cimen (m3)Super. Trabajo (m2)\n\t\t" }, "geometry": { "type": "Point", "coordinates": [ 9.26202255486686, 54.757946954670103, 0.0 ] } },
{ "type": "Feature", "properties": { "apoyo": "M177", "mast_typ": "Tragmast", "descripcion": "Comentario:\n\t\t\t\tFamiliaTorreA-SCimentacionPeso Verstäkerung (kg)Vol Cimen (m3)Super. Trabajo (m2)\n\t\t" }, "geometry": { "type": "Point", "coordinates": [ 9.26093779303252, 54.760683170771202, 0.0 ] } },
{ "type": "Feature", "properties": { "apoyo": "M178", "mast_typ": "Tragmast", "descripcion": "Comentario:\n\t\t\t\tFamiliaTorreA-SCimentacionPeso Verstäkerung (kg)Vol Cimen (m3)Super. Trabajo (m2)\n\t\t" }, "geometry": { "type": "Point", "coordinates": [ 9.259227625433899, 54.764995651094402, 0.0 ] } },
{ "type": "Feature", "properties": { "apoyo": "M179", "mast_typ": "Tragmast", "descripcion": "Comentario:\n\t\t\t\tFamiliaTorreA-SCimentacionPeso Verstäkerung (kg)Vol Cimen (m3)Super. Trabajo (m2)\n\t\t" }, "geometry": { "type": "Point", "coordinates": [ 9.25790429778756, 54.768331855247197, 0.0 ] } },
{ "type": "Feature", "properties": { "apoyo": "M180", "mast_typ": "Tragmast", "descripcion": "Comentario:\n\t\t\t\tFamiliaTorreA-SCimentacionPeso Verstäkerung (kg)Vol Cimen (m3)Super. Trabajo (m2)\n\t\t" }, "geometry": { "type": "Point", "coordinates": [ 9.256458963159639, 54.771975559251807, 0.0 ] } },
{ "type": "Feature", "properties": { "apoyo": "M181", "mast_typ": "Tragmast", "descripcion": "Comentario:\n\t\t\t\tFamiliaTorreA-SCimentacionPeso Verstäkerung (kg)Vol Cimen (m3)Super. Trabajo (m2)\n\t\t" }, "geometry": { "type": "Point", "coordinates": [ 9.25492384108775, 54.775844461349287, 0.0 ] } },
{ "type": "Feature", "properties": { "apoyo": "M182", "mast_typ": "Tragmast", "descripcion": "Comentario:\n\t\t\t\tFamiliaTorreA-SCimentacionPeso Verstäkerung (kg)Vol Cimen (m3)Super. Trabajo (m2)\n\t\t" }, "geometry": { "type": "Point", "coordinates": [ 9.25414713971001, 54.777801524971387, 0.0 ] } },
{ "type": "Feature", "properties": { "apoyo": "M183", "mast_typ": "Tragmast", "descripcion": "Comentario:\n\t\t\t\tFamiliaTorreA-SCimentacionPeso Verstäkerung (kg)Vol Cimen (m3)Super. Trabajo (m2)\n\t\t" }, "geometry": { "type": "Point", "coordinates": [ 9.25334970025968, 54.779810749528401, 0.0 ] } },
{ "type": "Feature", "properties": { "apoyo": "M184", "mast_typ": "Tragmast", "descripcion": "Comentario:\n\t\t\t\tFamiliaTorreA-SCimentacionPeso Verstäkerung (kg)Vol Cimen (m3)Super. Trabajo (m2)\n\t\t" }, "geometry": { "type": "Point", "coordinates": [ 9.251797454719179, 54.7837216104056, 0.0 ] } },
{ "type": "Feature", "properties": { "apoyo": "M185", "mast_typ": "Tragmast", "descripcion": "Comentario:\n\t\t\t\tFamiliaTorreA-SCimentacionPeso Verstäkerung (kg)Vol Cimen (m3)Super. Trabajo (m2)\n\t\t" }, "geometry": { "type": "Point", "coordinates": [ 9.25022056048585, 54.787693249950003, 0.0 ] } },
{ "type": "Feature", "properties": { "apoyo": "M186", "mast_typ": "Tragmast", "descripcion": "Comentario:\n\t\t\t\tFamiliaTorreA-SCimentacionPeso Verstäkerung (kg)Vol Cimen (m3)Super. Trabajo (m2)\n\t\t" }, "geometry": { "type": "Point", "coordinates": [ 9.248666947230941, 54.791605955089501, 0.0 ] } },
{ "type": "Feature", "properties": { "apoyo": "M187", "mast_typ": "Tragmast", "descripcion": "Comentario:\n\t\t\t\tFamiliaTorreA-SCimentacionPeso Verstäkerung (kg)Vol Cimen (m3)Super. Trabajo (m2)\n\t\t" }, "geometry": { "type": "Point", "coordinates": [ 9.24720233806068, 54.795293248173607, 0.0 ] } },
{ "type": "Feature", "properties": { "apoyo": "M188", "mast_typ": "Tragmast", "descripcion": "Comentario:\n\t\t\t\tFamiliaTorreA-SCimentacionPeso Verstäkerung (kg)Vol Cimen (m3)Super. Trabajo (m2)\n\t\t" }, "geometry": { "type": "Point", "coordinates": [ 9.245900940777179, 54.798569496059102, 0.0 ] } },
{ "type": "Feature", "properties": { "apoyo": "M189", "mast_typ": "Abspannmast", "descripcion": "Comentario:\n\t\t\t\tFamiliaTorreA-SCimentacionPeso Verstäkerung (kg)Vol Cimen (m3)Super. Trabajo (m2)\n\t\t" }, "geometry": { "type": "Point", "coordinates": [ 9.244397216200371, 54.802354246065001, 0.0 ] } },
{ "type": "Feature", "properties": { "apoyo": "M190", "mast_typ": "Tragmast", "descripcion": "Comentario:\n\t\t\t\tFamiliaTorreA-SCimentacionPeso Verstäkerung (kg)Vol Cimen (m3)Super. Trabajo (m2)\n\t\t" }, "geometry": { "type": "Point", "coordinates": [ 9.241121286738959, 54.805713211958199, 0.0 ] } },
{ "type": "Feature", "properties": { "apoyo": "M191", "mast_typ": "Tragmast", "descripcion": "Comentario:\n\t\t\t\tFamiliaTorreA-SCimentacionPeso Verstäkerung (kg)Vol Cimen (m3)Super. Trabajo (m2)\n\t\t" }, "geometry": { "type": "Point", "coordinates": [ 9.23772758437887, 54.809192470341699, 0.0 ] } },
{ "type": "Feature", "properties": { "apoyo": "M192", "mast_typ": "Tragmast", "descripcion": "Comentario:\n\t\t\t\tFamiliaTorreA-SCimentacionPeso Verstäkerung (kg)Vol Cimen (m3)Super. Trabajo (m2)\n\t\t" }, "geometry": { "type": "Point", "coordinates": [ 9.234752182253841, 54.812242066309302, 0.0 ] } },
{ "type": "Feature", "properties": { "apoyo": "M193", "mast_typ": "Tragmast", "descripcion": "Comentario:\n\t\t\t\tFamiliaTorreA-SCimentacionPeso Verstäkerung (kg)Vol Cimen (m3)Super. Trabajo (m2)\n\t\t" }, "geometry": { "type": "Point", "coordinates": [ 9.231582640177161, 54.81549011509199, 0.0 ] } },
{ "type": "Feature", "properties": { "apoyo": "M194", "mast_typ": "Tragmast", "descripcion": "Comentario:\n\t\t\t\tFamiliaTorreA-SCimentacionPeso Verstäkerung (kg)Vol Cimen (m3)Super. Trabajo (m2)\n\t\t" }, "geometry": { "type": "Point", "coordinates": [ 9.228438276139631, 54.818711880159903, 0.0 ] } },
{ "type": "Feature", "properties": { "apoyo": "M195", "mast_typ": "Tragmast", "descripcion": "Comentario:\n\t\t\t\tFamiliaTorreA-SCimentacionPeso Verstäkerung (kg)Vol Cimen (m3)Super. Trabajo (m2)\n\t\t" }, "geometry": { "type": "Point", "coordinates": [ 9.22470718575506, 54.822533972666399, 0.0 ] } },
{ "type": "Feature", "properties": { "apoyo": "M196", "mast_typ": "Tragmast", "descripcion": "Comentario:\n\t\t\t\tFamiliaTorreA-SCimentacionPeso Verstäkerung (kg)Vol Cimen (m3)Super. Trabajo (m2)\n\t\t" }, "geometry": { "type": "Point", "coordinates": [ 9.221605687318039, 54.825710543104798, 0.0 ] } },
{ "type": "Feature", "properties": { "apoyo": "M197", "mast_typ": "Tragmast", "descripcion": "Comentario:\n\t\t\t\tFamiliaTorreA-SCimentacionPeso Verstäkerung (kg)Vol Cimen (m3)Super. Trabajo (m2)\n\t\t" }, "geometry": { "type": "Point", "coordinates": [ 9.21793167243397, 54.829472645888998, 0.0 ] } },
{ "type": "Feature", "properties": { "apoyo": "M198", "mast_typ": "Tragmast", "descripcion": "Comentario:\n\t\t\t\tFamiliaTorreA-SCimentacionPeso Verstäkerung (kg)Vol Cimen (m3)Super. Trabajo (m2)\n\t\t" }, "geometry": { "type": "Point", "coordinates": [ 9.21476779455371, 54.832711696346898, 0.0 ] } },
{ "type": "Feature", "properties": { "apoyo": "M199", "mast_typ": "Tragmast", "descripcion": "Comentario:\n\t\t\t\tFamiliaTorreA-SCimentacionPeso Verstäkerung (kg)Vol Cimen (m3)Super. Trabajo (m2)\n\t\t" }, "geometry": { "type": "Point", "coordinates": [ 9.212172371502289, 54.835368411271403, 0.0 ] } },
{ "type": "Feature", "properties": { "apoyo": "M200", "mast_typ": "Tragmast", "descripcion": "Comentario:\n\t\t\t\tFamiliaTorreA-SCimentacionPeso Verstäkerung (kg)Vol Cimen (m3)Super. Trabajo (m2)\n\t\t" }, "geometry": { "type": "Point", "coordinates": [ 9.20839329314874, 54.83923590500661, 0.0 ] } },
{ "type": "Feature", "properties": { "apoyo": "M201", "mast_typ": "Tragmast", "descripcion": "Comentario:\n\t\t\t\tFamiliaTorreA-SCimentacionPeso Verstäkerung (kg)Vol Cimen (m3)Super. Trabajo (m2)\n\t\t" }, "geometry": { "type": "Point", "coordinates": [ 9.20532656906429, 54.842373795469292, 0.0 ] } },
{ "type": "Feature", "properties": { "apoyo": "M202", "mast_typ": "Tragmast", "descripcion": "Comentario:\n\t\t\t\tFamiliaTorreA-SCimentacionPeso Verstäkerung (kg)Vol Cimen (m3)Super. Trabajo (m2)\n\t\t" }, "geometry": { "type": "Point", "coordinates": [ 9.20183824713884, 54.8459424099335, 0.0 ] } },
{ "type": "Feature", "properties": { "apoyo": "M203N", "mast_typ": "Abspannmast", "descripcion": "Comentario:\n\t\t\t\tFamiliaTorreA-SCimentacionPeso Verstäkerung (kg)Vol Cimen (m3)Super. Trabajo (m2)\n\t\t" }, "geometry": { "type": "Point", "coordinates": [ 9.198674893010439, 54.849177793934601, 0.0 ] } },
{ "type": "Feature", "properties": { "apoyo": "M204N", "mast_typ": "Abspannmast", "descripcion": "Comentario:\n\t\t\t\tFamiliaTorreA-SCimentacionPeso Verstäkerung (kg)Vol Cimen (m3)Super. Trabajo (m2)\n\t\t" }, "geometry": { "type": "Point", "coordinates": [ 9.19540604487919, 54.852669113334613, 0.0 ] } },
{ "type": "Feature", "properties": { "apoyo": "M205", "mast_typ": "Tragmast", "descripcion": "Comentario:\n\t\t\t\tFamiliaTorreA-SCimentacionPeso Verstäkerung (kg)Vol Cimen (m3)Super. Trabajo (m2)\n\t\t" }, "geometry": { "type": "Point", "coordinates": [ 9.19408646277032, 54.85646314853161, 0.0 ] } },
{ "type": "Feature", "properties": { "apoyo": "M206", "mast_typ": "Abspannmast", "descripcion": "Comentario:\n\t\t\t\tFamiliaTorreA-SCimentacionPeso Verstäkerung (kg)Vol Cimen (m3)Super. Trabajo (m2)\n\t\t" }, "geometry": { "type": "Point", "coordinates": [ 9.19297455715456, 54.859659135134002, 0.0 ] } }
]
}
