{
"type": "FeatureCollection",
"name": "buffer_800m",
"crs": { "type": "name", "properties": { "name": "urn:ogc:def:crs:OGC:1.3:CRS84" } },
"features": [
{ "type": "Feature", "properties": { "layer": "buffer_800m" }, "geometry": { "type": "Polygon", "coordinates": [ [ [ 9.302480636365171, 54.723455461599031 ], [ 9.302323948650985, 54.7236032221996 ], [ 9.302013247647785, 54.72393387454138 ], [ 9.301732864863167, 54.724273485089192 ], [ 9.301483569402052, 54.724621123204741 ], [ 9.301266045234659, 54.724975836227699 ], [ 9.301080889314466, 54.725336652084664 ], [ 9.300928609933969, 54.725702581951772 ], [ 9.300809625322788, 54.726072622963379 ], [ 9.300724262492118, 54.726445760959386 ], [ 9.300672756328742, 54.726820973264118 ], [ 9.300655248941222, 54.727197231488447 ], [ 9.300671789260155, 54.727573504348172 ], [ 9.300722332893725, 54.727948760490591 ], [ 9.300806742239025, 54.728321971321385 ], [ 9.30092478684899, 54.728692113824522 ], [ 9.301076144054031, 54.729058173367058 ], [ 9.301260399836773, 54.729419146481135 ], [ 9.301477049957619, 54.729774043615897 ], [ 9.301725501328141, 54.730121891851297 ], [ 9.302005073628647, 54.73046173756677 ], [ 9.302315001165555, 54.730792649057143 ], [ 9.302654434963584, 54.731113719088633 ], [ 9.303022445087098, 54.731424067388041 ], [ 9.303418023184278, 54.731722843058229 ], [ 9.303840085247243, 54.732009226913092 ], [ 9.304287474580544, 54.732282433725771 ], [ 9.304758964969976, 54.732541714383885 ], [ 9.305253264042998, 54.732786357945777 ], [ 9.305769016811585, 54.733015693592066 ], [ 9.305975030132981, 54.733102431495539 ], [ 9.306506136860056, 54.733314064262601 ], [ 9.307055509172221, 54.733509462647859 ], [ 9.307621666636759, 54.73368810001022 ], [ 9.308203083518674, 54.733849494876686 ], [ 9.308798192896422, 54.733993212241963 ], [ 9.309405390889458, 54.734118864742442 ], [ 9.310023040986096, 54.734226113701929 ], [ 9.310649478459984, 54.734314670045691 ], [ 9.311283014863198, 54.734384295080957 ], [ 9.311921942583758, 54.73443480114112 ], [ 9.312089954965238, 54.734442972299853 ], [ 9.312180568341876, 54.734450554751021 ], [ 9.312821944782963, 54.734484706431076 ], [ 9.313465518531592, 54.734499574804829 ], [ 9.31410955905025, 54.734495119893275 ], [ 9.314752334544526, 54.734471353676604 ], [ 9.315392116627205, 54.734428340061946 ], [ 9.316027184973169, 54.734366194711249 ], [ 9.31665583195241, 54.734285084729741 ], [ 9.317276367228647, 54.734185228215928 ], [ 9.31788712231109, 54.734066893674182 ], [ 9.318486455046985, 54.733930399291694 ], [ 9.31907275404282, 54.733776112081593 ], [ 9.319644443002185, 54.733604446894645 ], [ 9.320199984968593, 54.733415865302241 ], [ 9.320737886461753, 54.733210874353453 ], [ 9.321256701496118, 54.732990025209986 ], [ 9.321755035470904, 54.732753911662201 ], [ 9.322231548921016, 54.732503168530656 ], [ 9.322684961118821, 54.732238469957139 ], [ 9.323114053517049, 54.731960527590132 ], [ 9.323517673023549, 54.731670088669382 ], [ 9.323894735099127, 54.731367934014862 ], [ 9.324244226670123, 54.731054875925508 ], [ 9.324565208847941, 54.730731755993489 ], [ 9.324856819448264, 54.730399442839754 ], [ 9.324940556392441, 54.730290354755539 ], [ 9.325562440121795, 54.730222691328784 ], [ 9.326187252738654, 54.730135121802562 ], [ 9.332621458030644, 54.729130456304894 ], [ 9.333247183153757, 54.729022444920929 ], [ 9.333862233614465, 54.728895551383246 ], [ 9.334464909367608, 54.728750126457363 ], [ 9.335053544625586, 54.728586572130084 ], [ 9.335626512468131, 54.728405340496479 ], [ 9.336182229343882, 54.728206932508535 ], [ 9.336719159451205, 54.72799189658847 ], [ 9.337235818986144, 54.727760827110821 ], [ 9.337730780245684, 54.727514362757404 ], [ 9.338202675574927, 54.727253184749756 ], [ 9.338650201147313, 54.726978014964033 ], [ 9.338831259715237, 54.726854253915413 ], [ 9.339392596031466, 54.726721544571376 ], [ 9.339982442469928, 54.726560700283144 ], [ 9.340556888793913, 54.726382161047312 ], [ 9.341114351685093, 54.726186419028956 ], [ 9.341653294706537, 54.725974013807175 ], [ 9.342172232540962, 54.725745530885533 ], [ 9.34709411264337, 54.723457746300873 ], [ 9.347593660584369, 54.723212707552548 ], [ 9.348070198282507, 54.7229527691904 ], [ 9.348522401280286, 54.722678653917171 ], [ 9.34894901285341, 54.722391123836417 ], [ 9.349081465347945, 54.722291695820481 ], [ 9.349573528556068, 54.722072341413615 ], [ 9.350162124086959, 54.721918232992913 ], [ 9.350740208610636, 54.721745216542274 ], [ 9.351301838333683, 54.721554907820973 ], [ 9.351845470870165, 54.721347829549593 ], [ 9.352369613333574, 54.721124550501131 ], [ 9.352872826439556, 54.720885683936686 ], [ 9.355400329576685, 54.719620307402188 ], [ 9.355504896269379, 54.719589900747941 ], [ 9.356072183238204, 54.719402705718096 ], [ 9.356621684473696, 54.71919850713028 ], [ 9.357151880578204, 54.718977869707082 ], [ 9.362105563965788, 54.716799602159213 ], [ 9.362616929883531, 54.716562136825864 ], [ 9.363105932049978, 54.716309378599973 ], [ 9.363571207745581, 54.716042032073489 ], [ 9.363982867107884, 54.715779105246867 ], [ 9.366927727512426, 54.714629551663329 ], [ 9.367459982883389, 54.714409748774216 ], [ 9.367971513385386, 54.714174030486575 ], [ 9.368460900937635, 54.713923050437359 ], [ 9.368926788935175, 54.713657504571174 ], [ 9.369367886010393, 54.71337812920823 ], [ 9.369782969612576, 54.713085699000274 ], [ 9.369784630510146, 54.713084394535045 ], [ 9.370076287164093, 54.712954421078919 ], [ 9.3706439588184, 54.712807073435123 ], [ 9.371223417681655, 54.712634999317132 ], [ 9.371786493048218, 54.712445570433516 ], [ 9.372331635741677, 54.712239308036175 ], [ 9.372857345997584, 54.71201677968935 ], [ 9.37789630250416, 54.709763851997259 ], [ 9.378399377519484, 54.709526494543312 ], [ 9.378880342102832, 54.709274240418473 ], [ 9.37933788238057, 54.709007778939068 ], [ 9.379770748562066, 54.708727838230764 ], [ 9.380056413447807, 54.708522435266488 ], [ 9.380092570423967, 54.708506296001211 ], [ 9.380589513545601, 54.708377798092101 ], [ 9.381168650719008, 54.708206447304327 ], [ 9.381731493045177, 54.708017769580614 ], [ 9.382276495785845, 54.707812282832329 ], [ 9.382802163237709, 54.707590551102513 ], [ 9.387876382264611, 54.705329820015706 ], [ 9.388380280615179, 54.705092893735639 ], [ 9.388862101251048, 54.704841038852535 ], [ 9.389320527098812, 54.704574944040857 ], [ 9.389754305129207, 54.704295336898937 ], [ 9.390065278702815, 54.704072477120903 ], [ 9.390304399634735, 54.703966338612467 ], [ 9.390849035310106, 54.703823726226453 ], [ 9.391423095398252, 54.703652042507308 ], [ 9.391980949506177, 54.703463293531463 ], [ 9.392521086283637, 54.703257990741498 ], [ 9.393042042452713, 54.703036690426707 ], [ 9.393542406774964, 54.702799992213762 ], [ 9.396390255282263, 54.701379585933729 ], [ 9.396806312399868, 54.701256120471271 ], [ 9.397369045875207, 54.70106693923573 ], [ 9.39791388512476, 54.700860939216099 ], [ 9.39843933293915, 54.700638686603995 ], [ 9.403675958686796, 54.69829914121366 ], [ 9.404179367706128, 54.69806179386196 ], [ 9.404660660256408, 54.697809527349278 ], [ 9.40511852011551, 54.697543031787092 ], [ 9.405551695238042, 54.697263036198436 ], [ 9.405791473398553, 54.697090708959863 ], [ 9.406157448474943, 54.696927484476632 ], [ 9.406545730547526, 54.696827203693523 ], [ 9.407124494359328, 54.696656162293706 ], [ 9.407687007480796, 54.696467811088247 ], [ 9.408231728110906, 54.696262666411073 ], [ 9.408757163289708, 54.696041290624329 ], [ 9.414033348819583, 54.693693335246437 ], [ 9.414540621411669, 54.693455013623691 ], [ 9.415025542014913, 54.693201562499212 ], [ 9.415486767660942, 54.692933684020467 ], [ 9.415923021099699, 54.692652120289274 ], [ 9.4163330943364, 54.69235765130383 ], [ 9.416715851975631, 54.692051092795502 ], [ 9.417070234363262, 54.691733293966983 ], [ 9.417395260517544, 54.691405135137686 ], [ 9.417538186548301, 54.69124143819451 ], [ 9.419548379068228, 54.689899831611804 ], [ 9.4199708719722, 54.689602081456805 ], [ 9.420365206672454, 54.689291641153503 ], [ 9.420730250099753, 54.688969403228782 ], [ 9.42106495347376, 54.688636294106459 ], [ 9.421368355312698, 54.68829327144158 ], [ 9.421639584191002, 54.687941321365095 ], [ 9.421877861237098, 54.6875814556469 ], [ 9.422082502364159, 54.68721470878527 ], [ 9.422252920227615, 54.68684213503149 ], [ 9.422353242266372, 54.686563190258788 ], [ 9.423438344813128, 54.68526407618549 ], [ 9.423708559700216, 54.684917457476111 ], [ 9.423946753981555, 54.684563044151957 ], [ 9.424152261767535, 54.684201828258956 ], [ 9.424324508709891, 54.683834820857719 ], [ 9.424463013600271, 54.683463049192056 ], [ 9.424545830674735, 54.683165113486957 ], [ 9.424859170004225, 54.682905926098591 ], [ 9.42520087096586, 54.682589508340001 ], [ 9.425513763762281, 54.682263240966869 ], [ 9.425797005526594, 54.681928003607112 ], [ 9.426049833389891, 54.681584700050038 ], [ 9.426271566531346, 54.6812342558081 ], [ 9.42750228576479, 54.679120792141774 ], [ 9.427778628908969, 54.678864502282188 ], [ 9.42809476894001, 54.678533792674905 ], [ 9.428380466181171, 54.67819390976473 ], [ 9.428634931215278, 54.677845793609336 ], [ 9.43066278742771, 54.674854742475517 ], [ 9.430881604107432, 54.674505738705669 ], [ 9.43106903151677, 54.674150652755017 ], [ 9.431224570424334, 54.673790431998214 ], [ 9.431347806712713, 54.673426037484489 ], [ 9.431438412474623, 54.673058441372604 ], [ 9.431496146878706, 54.672688624336431 ], [ 9.431505798592069, 54.672543692184227 ], [ 9.431905720231253, 54.671694894939087 ], [ 9.432059940829102, 54.671330375855881 ], [ 9.432181126480975, 54.670961688871728 ], [ 9.432268947796583, 54.670589838844563 ], [ 9.432323166342215, 54.670215839225726 ], [ 9.432343635280708, 54.669840709297247 ], [ 9.432330299761574, 54.669465471393657 ], [ 9.432283197060324, 54.669091148115683 ], [ 9.432202456466724, 54.668718759543559 ], [ 9.432117928714813, 54.668445209687981 ], [ 9.432194727801752, 54.668289700642489 ], [ 9.432343277497754, 54.667913738807115 ], [ 9.432456825906923, 54.66753370038424 ], [ 9.432535047188916, 54.667150679232641 ], [ 9.432577717206581, 54.666765777765377 ], [ 9.43258471415972, 54.666380103776355 ], [ 9.432522765944958, 54.664178785850225 ], [ 9.432649526557778, 54.663849221661387 ], [ 9.432757634018412, 54.663477218473695 ], [ 9.432831929459837, 54.663102440172409 ], [ 9.432872209248799, 54.662725918693013 ], [ 9.433117300402946, 54.65874702271082 ], [ 9.433123685237227, 54.658378141793321 ], [ 9.433097424900815, 54.658009556578186 ], [ 9.433038589415528, 54.657642237462511 ], [ 9.43297736917021, 54.657397312583726 ], [ 9.43335851784515, 54.655215036793237 ], [ 9.433407171275151, 54.654837521366765 ], [ 9.433421484003874, 54.654459044395963 ], [ 9.433401417304069, 54.654080655269745 ], [ 9.433347027768844, 54.653703403104466 ], [ 9.433258467144181, 54.653328333835233 ], [ 9.433135981897731, 54.652956487316551 ], [ 9.433110951676959, 54.652897533671954 ], [ 9.43313711555481, 54.652542169212872 ], [ 9.433274864842183, 54.652263733433323 ], [ 9.433421412228453, 54.651895488243227 ], [ 9.433534383132109, 54.65152328643773 ], [ 9.43361346629017, 54.651148156570507 ], [ 9.433658444106548, 54.650771135258452 ], [ 9.433956134357503, 54.646738133868539 ], [ 9.433966855313713, 54.646358823738332 ], [ 9.433943061046756, 54.645979713680561 ], [ 9.433884818766254, 54.645601859213528 ], [ 9.433792291580898, 54.645226312330642 ], [ 9.433665738033786, 54.644854118571942 ], [ 9.433664037762821, 54.64485021559215 ], [ 9.433691560801362, 54.644498622638999 ], [ 9.433858874650001, 54.644140586716347 ], [ 9.433994134633265, 54.643777973020711 ], [ 9.434096958939152, 54.643411795301773 ], [ 9.434167074611304, 54.643043028737075 ], [ 9.434204295817958, 54.642672655372102 ], [ 9.434208524337416, 54.642301661504732 ], [ 9.434147750156345, 54.64046539470764 ], [ 9.434203863663996, 54.640323817947852 ], [ 9.434315757475437, 54.639954015687053 ], [ 9.434394212823964, 54.639581329505162 ], [ 9.434439016652895, 54.639206775854078 ], [ 9.434736875008594, 54.635205650691496 ], [ 9.434747842371106, 54.634826519173735 ], [ 9.434724336311019, 54.634447579511011 ], [ 9.434666423172525, 54.634069885763751 ], [ 9.434574264995714, 54.633694488497653 ], [ 9.43445086943774, 54.633330543953853 ], [ 9.434456813738215, 54.633252622068902 ], [ 9.434555089884494, 54.633053777577608 ], [ 9.434700658002157, 54.632688230983256 ], [ 9.434813154926713, 54.632318776717561 ], [ 9.43489227519035, 54.63194642094124 ], [ 9.434937804242239, 54.631572177689414 ], [ 9.435198691881956, 54.628162668630928 ], [ 9.435210469394841, 54.627785087408014 ], [ 9.435188058803195, 54.627407668245098 ], [ 9.435131522886081, 54.627031452451241 ], [ 9.435041018564638, 54.626657477986889 ], [ 9.434919313952065, 54.626294289327824 ], [ 9.434946466333814, 54.625912889365225 ], [ 9.435021229131484, 54.625772835189963 ], [ 9.435180435835333, 54.625408034988219 ], [ 9.435306524661577, 54.625038900860623 ], [ 9.435399151034197, 54.624666444224061 ], [ 9.435458062086461, 54.624291685571357 ], [ 9.435483097343832, 54.623915651674558 ], [ 9.435474189153499, 54.623539372771418 ], [ 9.435431362859477, 54.623163879742634 ], [ 9.435354736722884, 54.6227902012876 ], [ 9.434396968817968, 54.61897336097217 ], [ 9.434284931242118, 54.618597173676612 ], [ 9.434138644727192, 54.618224967792273 ], [ 9.433958522627622, 54.617857792675878 ], [ 9.433745073651151, 54.61749668347305 ], [ 9.433498900415101, 54.617142658201381 ], [ 9.433220697738539, 54.6167967148819 ], [ 9.432911250675215, 54.616459828727244 ], [ 9.432571432292969, 54.616132949394419 ], [ 9.432493849174529, 54.616066562013238 ], [ 9.432250990681899, 54.615647798969214 ], [ 9.432199526352449, 54.615306075356592 ], [ 9.432109334551026, 54.614933377151928 ], [ 9.43198566383702, 54.614563928673441 ], [ 9.431828853973785, 54.614198742216225 ], [ 9.431639335493921, 54.613838818370581 ], [ 9.429418109611039, 54.609983943273186 ], [ 9.429196387962472, 54.609630182691838 ], [ 9.428943074176891, 54.609283642852532 ], [ 9.428658863380596, 54.60894527362089 ], [ 9.42834453533168, 54.608616002443817 ], [ 9.428042126857603, 54.608334993136218 ], [ 9.428037243056487, 54.608326397783522 ], [ 9.427999293693061, 54.608072066472396 ], [ 9.427909688671624, 54.607699527070899 ], [ 9.427786642270634, 54.607330217819175 ], [ 9.427630492176496, 54.606965149536101 ], [ 9.42744166664979, 54.60660532140605 ], [ 9.425709308885446, 54.603589245345376 ], [ 9.425488039174821, 54.603235168850162 ], [ 9.425235135478877, 54.602888305229662 ], [ 9.424951292589503, 54.602549606317737 ], [ 9.42463729014238, 54.602220001520266 ], [ 9.424390649056381, 54.601990383401606 ], [ 9.424338231258679, 54.601899676103173 ], [ 9.424298642352534, 54.601621931306752 ], [ 9.424210277991095, 54.601245421598506 ], [ 9.424087775114923, 54.600872148136723 ], [ 9.423931476824093, 54.600503153532379 ], [ 9.423741820581169, 54.600139468417147 ], [ 9.421534751081404, 54.59627778065655 ], [ 9.421308621981686, 54.595914957529757 ], [ 9.421049299903968, 54.595559700535027 ], [ 9.420757532467986, 54.595213032700663 ], [ 9.420448972818823, 54.594891392519727 ], [ 9.419490271276633, 54.592814837212032 ], [ 9.419305060891398, 54.592452092460206 ], [ 9.419087248487061, 54.592095507568416 ], [ 9.418837438016645, 54.591746069898221 ], [ 9.418556321982114, 54.591404746996183 ], [ 9.418244679509122, 54.591072483916449 ], [ 9.418127350000317, 54.590961694235389 ], [ 9.41802349646518, 54.588524055333551 ], [ 9.418021330968305, 54.588499127102494 ], [ 9.418540345850822, 54.587221913460468 ], [ 9.418673921078625, 54.586849341227065 ], [ 9.418773362419392, 54.586473185883754 ], [ 9.418838392176164, 54.586094501451797 ], [ 9.418868829094034, 54.585714349009997 ], [ 9.418864588857341, 54.585333793721013 ], [ 9.418859651663055, 54.585285583815931 ], [ 9.419064404065114, 54.58495892110831 ], [ 9.419257942613445, 54.584589554972737 ], [ 9.419417059703571, 54.584214686811151 ], [ 9.419541297358709, 54.583835397830228 ], [ 9.420460366905262, 54.58055127587356 ], [ 9.420548037616383, 54.580175707251882 ], [ 9.420601513189245, 54.579797976769456 ], [ 9.420620645960497, 54.579419134174046 ], [ 9.420605383715507, 54.579040232275084 ], [ 9.420581097271887, 54.578855243704282 ], [ 9.420584966662435, 54.578841338372612 ], [ 9.420777833807815, 54.57856577696343 ], [ 9.42099329943683, 54.578203756209824 ], [ 9.422926787861984, 54.574651056032685 ], [ 9.423106501770468, 54.57428785788246 ], [ 9.423253114985076, 54.573919675242067 ], [ 9.423351827219916, 54.573594891891702 ], [ 9.423599951331807, 54.573268562212014 ], [ 9.423903492408174, 54.573038712326742 ], [ 9.424271965477322, 54.572727031673828 ], [ 9.424611718771937, 54.572404526210988 ], [ 9.424921812979774, 54.572072088221255 ], [ 9.425201390910894, 54.571730637446144 ], [ 9.427993586158301, 54.568075335719797 ], [ 9.428241166613574, 54.567726817906625 ], [ 9.428456958197525, 54.567371237286913 ], [ 9.428640368169582, 54.567009571956156 ], [ 9.428790892903354, 54.566642816720979 ], [ 9.428908119263028, 54.566271980361641 ], [ 9.428909442066082, 54.566266064691177 ], [ 9.42917733423179, 54.565916938685163 ], [ 9.429559788373183, 54.565620921115183 ], [ 9.429917131981101, 54.565312288201483 ], [ 9.430246520979566, 54.564993327535383 ], [ 9.430547074040351, 54.564664893186062 ], [ 9.430817987107353, 54.564327864569066 ], [ 9.431058535543549, 54.563983144090031 ], [ 9.432402947001213, 54.561903457494431 ], [ 9.432728261656175, 54.561623496605726 ], [ 9.43306309836302, 54.561299914119921 ], [ 9.433368236001504, 54.560966561169188 ], [ 9.433642833482279, 54.560624357420963 ], [ 9.436212712144673, 54.55718868485706 ], [ 9.436458572297695, 54.556834517379905 ], [ 9.436671723892605, 54.556473261287216 ], [ 9.436851566255935, 54.556105936102071 ], [ 9.436997592761378, 54.555733578447871 ], [ 9.43710939224991, 54.555357239121726 ], [ 9.437186650180022, 54.554977980128037 ], [ 9.437217282279299, 54.554703290541177 ], [ 9.438171929048128, 54.552823157625873 ], [ 9.438336956918507, 54.552464207216978 ], [ 9.438469859716049, 54.552100780316323 ], [ 9.438570283326104, 54.551733847616205 ], [ 9.438637960407826, 54.551364389146613 ], [ 9.438672711098979, 54.550993391657045 ], [ 9.438674443486915, 54.550621845980665 ], [ 9.438643153844474, 54.550250744387867 ], [ 9.438578926630353, 54.549881077936263 ], [ 9.438520269940213, 54.549658985783836 ], [ 9.4386046070886, 54.549164501751513 ], [ 9.438744908047781, 54.548927435178982 ], [ 9.438922031475011, 54.548568571949936 ], [ 9.439066867954171, 54.548204847307979 ], [ 9.439179027749928, 54.547837242162771 ], [ 9.439258209277535, 54.547466747862565 ], [ 9.439910245260833, 54.543596636036412 ], [ 9.43995630624549, 54.543223226757846 ], [ 9.439968872952214, 54.542848929699673 ], [ 9.439947912227172, 54.542474759725451 ], [ 9.439893481819944, 54.542101731326483 ], [ 9.439807371984985, 54.54173779474187 ], [ 9.439861117081655, 54.541409466583872 ], [ 9.440040805388227, 54.541105130003182 ], [ 9.440218716518254, 54.540743085567968 ], [ 9.440363781705807, 54.540376121736628 ], [ 9.440475603908958, 54.540005245134346 ], [ 9.440553877302447, 54.539631473092093 ], [ 9.441163894936421, 54.535907880546702 ], [ 9.441208377454679, 54.535532494541364 ], [ 9.441219025551932, 54.535156269295442 ], [ 9.441195810995303, 54.534780235319936 ], [ 9.441138798301544, 54.53440542257372 ], [ 9.441060239321198, 54.534082564620441 ], [ 9.441116693769528, 54.533728505523094 ], [ 9.441134933032181, 54.533702002223656 ], [ 9.44134402494953, 54.533344922502572 ], [ 9.441520621274387, 54.532981956422198 ], [ 9.441664236683572, 54.532614103278455 ], [ 9.441774476689027, 54.532242375795043 ], [ 9.441851038714406, 54.531867797334378 ], [ 9.442484532356334, 54.527877515493138 ], [ 9.442526961976711, 54.527504543343518 ], [ 9.442536006358356, 54.527130792649025 ], [ 9.442511641969014, 54.526757273642794 ], [ 9.442453935575875, 54.526384995904245 ], [ 9.442369439048724, 54.526041000639736 ], [ 9.442449113946635, 54.525509426519825 ], [ 9.442449839227182, 54.525508388680237 ], [ 9.442658975086971, 54.525158440351944 ], [ 9.442836837455452, 54.524802689906991 ], [ 9.442982954783663, 54.524442082154373 ], [ 9.443559903206301, 54.522833595656536 ], [ 9.443614420403685, 54.522774060210182 ], [ 9.443892393926776, 54.522427176619424 ], [ 9.444138236689156, 54.522072179533993 ], [ 9.444351252766058, 54.521710075089416 ], [ 9.446240799838002, 54.518194962597164 ], [ 9.446417704048175, 54.517832805531704 ], [ 9.446561775249286, 54.517465757279503 ], [ 9.446672619204261, 54.517094824495622 ], [ 9.446749932831018, 54.516721024461383 ], [ 9.446793505023951, 54.516345382293764 ], [ 9.446803217222874, 54.515968928133489 ], [ 9.446779043727995, 54.515592694319857 ], [ 9.446721051760155, 54.515217712559632 ], [ 9.446629401266293, 54.51484501109816 ], [ 9.446504344470755, 54.514475611900203 ], [ 9.446352169877624, 54.514124253788047 ], [ 9.446358463366652, 54.513346467207448 ], [ 9.446344765840704, 54.512972502206843 ], [ 9.446297659861491, 54.512599457772893 ], [ 9.446217273837277, 54.512228343594366 ], [ 9.446103826237172, 54.51186016410837 ], [ 9.445957624990173, 54.511495915782426 ], [ 9.445779066642441, 54.511136584418303 ], [ 9.445568635275077, 54.510783142484932 ], [ 9.445326901185506, 54.510436546487888 ], [ 9.445054519336077, 54.510097734382015 ], [ 9.444752227574194, 54.509767623034776 ], [ 9.444420844628834, 54.509447105746666 ], [ 9.444061267888999, 54.509137049835751 ], [ 9.443674470970121, 54.508838294292538 ], [ 9.44326150107508, 54.508551647511801 ], [ 9.442823476157022, 54.508277885107148 ], [ 9.442777734244906, 54.508252123643636 ], [ 9.441235373390786, 54.505560193923429 ], [ 9.441182892337839, 54.505475921996364 ], [ 9.441137533379907, 54.505129025779738 ], [ 9.44122465558204, 54.504817760540647 ], [ 9.441295042393588, 54.504444036180828 ], [ 9.441331762357263, 54.50406868149021 ], [ 9.44133471598707, 54.503692722892787 ], [ 9.441303896135567, 54.503317188435886 ], [ 9.440791596081155, 54.499288288735308 ], [ 9.440726907032841, 54.498913323471221 ], [ 9.440628552324066, 54.498540846045508 ], [ 9.440496803065949, 54.498171879719969 ], [ 9.440332022083179, 54.497807438083527 ], [ 9.440134662907802, 54.497448522268719 ], [ 9.440127164861174, 54.49743700359798 ], [ 9.440081748045875, 54.497080281683502 ], [ 9.440171849952275, 54.496761080208593 ], [ 9.440243338485361, 54.496385097813238 ], [ 9.440280753523584, 54.49600744719222 ], [ 9.440283992432962, 54.495629173805398 ], [ 9.440253047193346, 54.495251324807882 ], [ 9.439738872255631, 54.4912107894556 ], [ 9.439673683627205, 54.490833691368557 ], [ 9.43957445216825, 54.490459116954739 ], [ 9.439441454535018, 54.490088107019439 ], [ 9.439275061179686, 54.489721692435651 ], [ 9.439082102638858, 54.489372416929349 ], [ 9.439029360914326, 54.488947815434614 ], [ 9.439103514863485, 54.488696329099966 ], [ 9.439178857449713, 54.488327324600832 ], [ 9.439221349866186, 54.487956546587668 ], [ 9.439230879487654, 54.487584985588313 ], [ 9.439207421752771, 54.487213634195498 ], [ 9.438833602407303, 54.483741524950794 ], [ 9.438776226011951, 54.483366302152376 ], [ 9.438685176398264, 54.482993344141164 ], [ 9.43856070441948, 54.482623674718205 ], [ 9.438403152650459, 54.482258308629724 ], [ 9.438349963432307, 54.48215761802139 ], [ 9.438441395529667, 54.481880828617236 ], [ 9.438529819954546, 54.481509914097785 ], [ 9.438584956796861, 54.481136821805926 ], [ 9.438606657385606, 54.480762563908257 ], [ 9.438594863766523, 54.480388155705896 ], [ 9.438339314316472, 54.477037435121545 ], [ 9.438293819780545, 54.476662414307242 ], [ 9.438214726262583, 54.476289291061534 ], [ 9.438102250930109, 54.475919085563334 ], [ 9.437956702199074, 54.475552809986773 ], [ 9.437831742102743, 54.475299456564123 ], [ 9.437826490880447, 54.475234357119298 ], [ 9.437945731719612, 54.474875314887647 ], [ 9.438035171644897, 54.47450193600492 ], [ 9.43809088157311, 54.474126340023879 ], [ 9.438112709253028, 54.473749559680925 ], [ 9.438100595603181, 54.473372630940766 ], [ 9.437799163766938, 54.469468053068482 ], [ 9.437753345945021, 54.46909317909904 ], [ 9.437673960897403, 54.468720211739999 ], [ 9.437561226433253, 54.468350170020926 ], [ 9.437415451456889, 54.46798406495062 ], [ 9.437270528966867, 54.467690698869795 ], [ 9.437251085588695, 54.467438290590025 ], [ 9.43725212474985, 54.467435855853438 ], [ 9.437375127560074, 54.467065770080033 ], [ 9.437464659468649, 54.466692437647517 ], [ 9.437520475258594, 54.466316884891192 ], [ 9.437542422417547, 54.465940144222152 ], [ 9.437530441546858, 54.465563251288842 ], [ 9.437228571044642, 54.461634519033858 ], [ 9.437182884524494, 54.461259593103229 ], [ 9.437103628280409, 54.460886570422495 ], [ 9.436991019822923, 54.460516470423478 ], [ 9.436845367787857, 54.460150304523296 ], [ 9.436696486764291, 54.459848670327773 ], [ 9.43667225800289, 54.459536141992075 ], [ 9.436682695903711, 54.459511493463232 ], [ 9.436804045021473, 54.459143366657436 ], [ 9.436892294813418, 54.458772055302596 ], [ 9.436947206272484, 54.458398568814999 ], [ 9.436968631036946, 54.458023922496508 ], [ 9.436956511783851, 54.45764913477425 ], [ 9.436647018725933, 54.453636241910004 ], [ 9.436601235085405, 54.453261363960237 ], [ 9.436521896676554, 54.452888392142327 ], [ 9.436409221182911, 54.452518345510406 ], [ 9.436263517350598, 54.452152235099113 ], [ 9.436118941817343, 54.451859430289588 ], [ 9.436091791112826, 54.451491010546007 ], [ 9.43611835500764, 54.451425907725927 ], [ 9.436233135840869, 54.45106255003175 ], [ 9.436315731149202, 54.450696236079516 ], [ 9.436365923674522, 54.450327933252282 ], [ 9.436383581742689, 54.449958614159591 ], [ 9.436368659602074, 54.44958925406857 ], [ 9.436070483512756, 54.446062581637811 ], [ 9.436022609713772, 54.445691742976891 ], [ 9.435941899387622, 54.445322843000916 ], [ 9.435828569337223, 54.444956868615932 ], [ 9.435682923609706, 54.44459479887518 ], [ 9.435656039334837, 54.444540719671956 ], [ 9.43568410750075, 54.444460868702372 ], [ 9.436195292829515, 54.442780700862137 ], [ 9.436299780201701, 54.442701622308206 ], [ 9.43666556133701, 54.442392679694208 ], [ 9.437003174627042, 54.442073030491756 ], [ 9.439209601129841, 54.439856237567035 ], [ 9.439519739368739, 54.439524873157637 ], [ 9.439799609480144, 54.439184477146377 ], [ 9.440048440633541, 54.438835987993777 ], [ 9.4402655476257, 54.438480366448715 ], [ 9.440401474576221, 54.438214248420479 ], [ 9.440811099869819, 54.437959729543813 ], [ 9.441228664247545, 54.437671330740436 ], [ 9.441619687207593, 54.437370556237909 ], [ 9.441983091686909, 54.437058234969527 ], [ 9.442317876807893, 54.43673522767218 ], [ 9.445398203473854, 54.433578664849705 ], [ 9.445701900879278, 54.433247595373665 ], [ 9.44597553504471, 54.432907734589968 ], [ 9.446218360424744, 54.432560009423611 ], [ 9.446429715552794, 54.432205368224935 ], [ 9.446550258238542, 54.431962958233086 ], [ 9.446599537564756, 54.431912453478532 ], [ 9.447012128517933, 54.431657407032255 ], [ 9.447430133522445, 54.43137026564937 ], [ 9.447821768730581, 54.431070755833652 ], [ 9.448185959783455, 54.430759699669551 ], [ 9.448521707718562, 54.430437950914509 ], [ 9.451959665033641, 54.426939814427499 ], [ 9.45226568673098, 54.426608603336803 ], [ 9.452541570906755, 54.426268511435104 ], [ 9.45278656275441, 54.425920470132361 ], [ 9.452999992124877, 54.425565432585699 ], [ 9.453163570198766, 54.425239634706365 ], [ 9.453375943323463, 54.425024080226777 ], [ 9.453781967097081, 54.42477303633563 ], [ 9.454199868683142, 54.424485902117425 ], [ 9.454591406912707, 54.424186401038639 ], [ 9.454955507796655, 54.423875355080312 ], [ 9.455291172716233, 54.423553617889347 ], [ 9.458516851129469, 54.42027080803522 ], [ 9.458822829235036, 54.419939577342447 ], [ 9.459098671458692, 54.419599465250421 ], [ 9.459343623033432, 54.419251403317112 ], [ 9.459557013853546, 54.418896344850971 ], [ 9.459713240611258, 54.418585107385987 ], [ 9.460043201240874, 54.418248143937518 ], [ 9.460726774488315, 54.417884742179844 ], [ 9.461960639043578, 54.417667742089293 ], [ 9.462312365714602, 54.417659591971052 ], [ 9.462952986252905, 54.41762515696216 ], [ 9.463589652794374, 54.41757127545899 ], [ 9.464220630674758, 54.417498094270215 ], [ 9.470721543927601, 54.416640494295265 ], [ 9.471342769600751, 54.416548559919839 ], [ 9.471954960033676, 54.416437916865334 ], [ 9.47255645979506, 54.416308864338156 ], [ 9.473145642406957, 54.416161751325092 ], [ 9.473720914748448, 54.415996975648198 ], [ 9.474280721368407, 54.415814982887461 ], [ 9.474823548695703, 54.415616265174201 ], [ 9.475347929135348, 54.415401359858457 ], [ 9.475852445039472, 54.415170848053911 ], [ 9.476335732542376, 54.414925353064746 ], [ 9.476500956733046, 54.414832185188288 ], [ 9.477099024718243, 54.414650240804534 ], [ 9.477669033710209, 54.414465481603145 ], [ 9.478221487735999, 54.41426339736136 ], [ 9.478754840334551, 54.414044553864073 ], [ 9.479267598593792, 54.413809563808293 ], [ 9.479758327332148, 54.413559085085545 ], [ 9.480225653117389, 54.413293818937682 ], [ 9.480668268111595, 54.413014507991527 ], [ 9.481084933731372, 54.412721934177355 ], [ 9.481474484113175, 54.412416916537666 ], [ 9.481835829373955, 54.412100308932033 ], [ 9.482167958658126, 54.411772997644519 ], [ 9.482469942962259, 54.41143589890072 ], [ 9.48274093772973, 54.411089956300813 ], [ 9.482980185208056, 54.410736138176453 ], [ 9.483021797787558, 54.41066356850326 ], [ 9.483166744849292, 54.410577335878713 ], [ 9.483591695703339, 54.410296672061087 ], [ 9.483991013398912, 54.410003482228731 ], [ 9.484363615010095, 54.409698561906175 ], [ 9.484708490168703, 54.40938273842869 ], [ 9.48502470380158, 54.409056868695458 ], [ 9.485311398662738, 54.408721836842687 ], [ 9.485567797653486, 54.408378551843001 ], [ 9.487210621292702, 54.406012432712025 ], [ 9.487438868829484, 54.405656978806363 ], [ 9.487634638005426, 54.405294992718026 ], [ 9.487797383955323, 54.404927483526848 ], [ 9.487926653908737, 54.404555475681832 ], [ 9.488022088442682, 54.404180006144379 ], [ 9.488083422473622, 54.403802121496874 ], [ 9.488102448338147, 54.403535508913528 ], [ 9.488537590721984, 54.402699943345112 ], [ 9.488707716299251, 54.4023398859172 ], [ 9.488845561259934, 54.401975159884167 ], [ 9.488950754452047, 54.40160674956806 ], [ 9.489023012869138, 54.401235649207692 ], [ 9.489062142404734, 54.4008628602747 ], [ 9.489063745963277, 54.400761285633337 ], [ 9.491250038358865, 54.398600079307705 ], [ 9.491836531025481, 54.398324765727253 ], [ 9.491905624290549, 54.398307825675737 ], [ 9.49247835745013, 54.398146642205624 ], [ 9.493036072710195, 54.397968431729026 ], [ 9.493577284435647, 54.397773669026662 ], [ 9.494100551019013, 54.397562872969694 ], [ 9.494604478723565, 54.397336605135614 ], [ 9.500122190743369, 54.394723801415424 ], [ 9.50062032121726, 54.394474770872201 ], [ 9.501095027933355, 54.394210622142317 ], [ 9.501544965435933, 54.393932104157741 ], [ 9.501933203562404, 54.393664576057084 ], [ 9.50455774238354, 54.39257204205078 ], [ 9.505076270997501, 54.392343909400161 ], [ 9.505573475554677, 54.392100148175167 ], [ 9.506047974619642, 54.39184143583509 ], [ 9.506498449933662, 54.391568491377889 ], [ 9.506923650077606, 54.391282073339781 ], [ 9.507308472062231, 54.390993420512807 ], [ 9.507499140312181, 54.390901904379227 ], [ 9.507553302462519, 54.390888571024114 ], [ 9.508131647200853, 54.390724965671197 ], [ 9.508694579986971, 54.390543978948415 ], [ 9.509240568317043, 54.390346103635224 ], [ 9.509768125884996, 54.390131878486699 ], [ 9.510275816631861, 54.389901886764548 ], [ 9.5156310327037, 54.387342201025774 ], [ 9.516118146853794, 54.387096657216809 ], [ 9.516582616041037, 54.386836597717888 ], [ 9.517023172273376, 54.386562732733715 ], [ 9.517438612935035, 54.386275810156206 ], [ 9.517742488550754, 54.386042201608817 ], [ 9.518001639449141, 54.385919321812601 ], [ 9.518344967613761, 54.385826504639667 ], [ 9.523202249089957, 54.384424867098858 ], [ 9.526107757318863, 54.384168432628648 ], [ 9.526747799332828, 54.384101805801464 ], [ 9.527380924639063, 54.384015557908285 ], [ 9.52800536869246, 54.383909929333377 ], [ 9.528619391180603, 54.383785214474898 ], [ 9.529221280880668, 54.383641760923204 ], [ 9.529787161828189, 54.383486075845788 ], [ 9.529836930795584, 54.383487675518097 ], [ 9.530461757698015, 54.383489234749625 ], [ 9.531085915791504, 54.383472294751272 ], [ 9.53170779820598, 54.3834368991362 ], [ 9.532325803939509, 54.383383139030499 ], [ 9.532938341986382, 54.383311152838232 ], [ 9.533543835439223, 54.383221125884525 ], [ 9.536608554247829, 54.3827167541099 ], [ 9.536931427427422, 54.38271061865337 ], [ 9.537573973488715, 54.38267869587775 ], [ 9.538212775243506, 54.382627184777597 ], [ 9.53884608091178, 54.382556226614327 ], [ 9.544896459335758, 54.381781764175237 ], [ 9.545522514315774, 54.381691521036508 ], [ 9.546139616852843, 54.381582272816921 ], [ 9.546746074724743, 54.381454319112528 ], [ 9.547340224944174, 54.381308010812795 ], [ 9.547735348813539, 54.381196149465076 ], [ 9.54830197233764, 54.381122784228189 ], [ 9.548387680315841, 54.381125491071778 ], [ 9.549026315214737, 54.381126308060409 ], [ 9.549664163765474, 54.38110779831927 ], [ 9.550299510295634, 54.381070011637547 ], [ 9.550930645873592, 54.381013049654733 ], [ 9.55698134655383, 54.380372613801001 ], [ 9.557588999233186, 54.380299003539179 ], [ 9.558189526194424, 54.380207617053728 ], [ 9.558781402121221, 54.380098686472067 ], [ 9.559301961885785, 54.379985757022922 ], [ 9.559820763977612, 54.37994557924339 ], [ 9.560457497059426, 54.379984923970412 ], [ 9.561100311034277, 54.380004898917385 ], [ 9.561744035029784, 54.380005238524902 ], [ 9.562386909769522, 54.379985941867041 ], [ 9.563027178302088, 54.379947061682898 ], [ 9.570005442150453, 54.379415149775852 ], [ 9.570652378125533, 54.379355565191062 ], [ 9.571292971261888, 54.37927598699185 ], [ 9.571925409315909, 54.379176640312458 ], [ 9.572547903150868, 54.379057806211549 ], [ 9.57315869180538, 54.378919820875858 ], [ 9.573231236863167, 54.378900785264378 ], [ 9.576752467271595, 54.378577412735886 ], [ 9.577373837347128, 54.378510762606474 ], [ 9.577988532800093, 54.37842559666948 ], [ 9.578594935443684, 54.37832213913218 ], [ 9.579191448955969, 54.378200662353841 ], [ 9.579776503087889, 54.378061486127571 ], [ 9.580348557802107, 54.377904976837257 ], [ 9.580906107331742, 54.37773154649161 ], [ 9.581261742670424, 54.377606849378779 ], [ 9.581666647952567, 54.377536363730776 ], [ 9.582084687774486, 54.377523430897341 ], [ 9.582741818440063, 54.377482374199666 ], [ 9.583394228615814, 54.377420795442987 ], [ 9.584040038768787, 54.377338872034287 ], [ 9.584677388410043, 54.377236839990772 ], [ 9.585304441462295, 54.37711499325912 ], [ 9.585919391556649, 54.376973682867153 ], [ 9.591764630342102, 54.375523376223676 ], [ 9.592347410480224, 54.375368190163726 ], [ 9.592915576683803, 54.375195521477373 ], [ 9.593467591434992, 54.375005837484025 ], [ 9.594001960989029, 54.374799651547058 ], [ 9.594517239419819, 54.374577521682667 ], [ 9.59501203253525, 54.374340049047639 ], [ 9.595378485863096, 54.374144667717914 ], [ 9.595974279040536, 54.37395755888025 ], [ 9.596513141196848, 54.373875053129019 ], [ 9.597126671954783, 54.373760792200287 ], [ 9.597729129126847, 54.373627959540578 ], [ 9.598318864530974, 54.373476918575534 ], [ 9.598894264842079, 54.373308082543488 ], [ 9.604966901550698, 54.371408261703927 ], [ 9.605527609083227, 54.371221615682636 ], [ 9.606070791385116, 54.371018070339019 ], [ 9.606594955821686, 54.37079818510653 ], [ 9.607098662095499, 54.370562564318448 ], [ 9.607580526206432, 54.370311855544685 ], [ 9.607587899824336, 54.370307593951587 ], [ 9.607899329226802, 54.370210454778181 ], [ 9.608381045984125, 54.370137186793407 ], [ 9.60899401966407, 54.370023696568381 ], [ 9.609596006602422, 54.36989167390815 ], [ 9.610185364386966, 54.36974147903868 ], [ 9.610760485114525, 54.369573521764522 ], [ 9.616724684789846, 54.367716272830023 ], [ 9.617286720805721, 54.367530007886252 ], [ 9.617831240697736, 54.367326778258096 ], [ 9.618356744087572, 54.367107144029255 ], [ 9.618861783072715, 54.366871710483515 ], [ 9.619344966218236, 54.366621126434559 ], [ 9.619372932648931, 54.366605012676999 ], [ 9.619872870837582, 54.3664499206972 ], [ 9.620431933962566, 54.366362417372649 ], [ 9.621038679865958, 54.366247476099048 ], [ 9.621634413577475, 54.366114337169336 ], [ 9.622217535519365, 54.365963358095634 ], [ 9.624895256661343, 54.365220957599028 ], [ 9.625146891786056, 54.365192460967556 ], [ 9.625780885044954, 54.365100039531711 ], [ 9.626405585232209, 54.364988103179989 ], [ 9.627019231926749, 54.364856967368262 ], [ 9.627620095904591, 54.364707001656001 ], [ 9.632770229499972, 54.363325936724173 ], [ 9.63336027988001, 54.363156402528418 ], [ 9.633933982724949, 54.362968709215181 ], [ 9.634489700796896, 54.362763392502956 ], [ 9.635025848259579, 54.36254103840259 ], [ 9.635540895207349, 54.362302281542561 ], [ 9.636033372033518, 54.362047803355324 ], [ 9.636501873625519, 54.361778330130079 ], [ 9.636905077194919, 54.361520227530384 ], [ 9.637175148409556, 54.361409247019381 ], [ 9.637446148847774, 54.361351466914094 ], [ 9.638044301428444, 54.361202589227588 ], [ 9.638628155933436, 54.36103547320343 ], [ 9.642118960879976, 54.359968545958353 ], [ 9.642545905234375, 54.359909498145193 ], [ 9.64853408106263, 54.358983779666708 ], [ 9.649142518649491, 54.358879840397144 ], [ 9.649740984610352, 54.358757742987613 ], [ 9.650327891248466, 54.358617811376675 ], [ 9.650795179149068, 54.35848963144776 ], [ 9.654375571420024, 54.358078068755027 ], [ 9.655007956763139, 54.357995209218217 ], [ 9.655631996088765, 54.357893022668804 ], [ 9.656245958871983, 54.357771792493445 ], [ 9.656848142574455, 54.357631854887828 ], [ 9.65743687737182, 54.357473597922954 ], [ 9.658010530789664, 54.357297460467358 ], [ 9.65804145552138, 54.357286715434761 ], [ 9.658384052489469, 54.357234705524888 ], [ 9.65892291636497, 54.357228334692387 ], [ 9.659565667930131, 54.357201029815826 ], [ 9.660205090724212, 54.357154112242398 ], [ 9.660839431347158, 54.357087710630843 ], [ 9.661466950357202, 54.35700200706772 ], [ 9.667521628163479, 54.356076633525547 ], [ 9.668140613009786, 54.355971825029101 ], [ 9.668749354405366, 54.355848235123368 ], [ 9.669346183007889, 54.355706202748848 ], [ 9.669929462193448, 54.355546117419514 ], [ 9.670423201797247, 54.35539168626039 ], [ 9.670966166117388, 54.355307665270132 ], [ 9.671000481330752, 54.355308258771956 ], [ 9.671645907964338, 54.355299640763256 ], [ 9.672289672544565, 54.355271265773744 ], [ 9.672930003301161, 54.355223211899727 ], [ 9.673565137929671, 54.355155611397372 ], [ 9.67419332844903, 54.355068650318152 ], [ 9.680842873341712, 54.354039634636742 ], [ 9.681460155489589, 54.353933932362473 ], [ 9.682067137252817, 54.353809534928565 ], [ 9.682662160188773, 54.353666782245554 ], [ 9.683243598579812, 54.353506064374592 ], [ 9.683668837578509, 54.353372211847415 ], [ 9.683673965211717, 54.353371430678948 ], [ 9.684180502975785, 54.353364829574325 ], [ 9.68482391460336, 54.353336687712911 ], [ 9.685463916282046, 54.353288887195355 ], [ 9.686098748528613, 54.353221559437493 ], [ 9.686726666094142, 54.353134889538644 ], [ 9.692033867823682, 54.352315848655628 ], [ 9.692651585389195, 54.352210335253133 ], [ 9.693259013178503, 54.352086102187677 ], [ 9.69385448971126, 54.351943489292672 ], [ 9.694436386247235, 54.351782886674428 ], [ 9.694793716480609, 54.35167055849567 ], [ 9.694948594547713, 54.35164647150421 ], [ 9.695011090270439, 54.351647253021397 ], [ 9.695642754793617, 54.351636198697541 ], [ 9.696272614613402, 54.351606216935849 ], [ 9.696899008443332, 54.351557386817298 ], [ 9.697520284153383, 54.351489837135929 ], [ 9.698134803134158, 54.351403746058594 ], [ 9.698740944625113, 54.351299340654336 ], [ 9.702401684537103, 54.35060856974242 ], [ 9.702850442370796, 54.350586874548782 ], [ 9.70347866854309, 54.350537368491196 ], [ 9.704101695996654, 54.350469029600369 ], [ 9.710095279207863, 54.349717594829066 ], [ 9.710723890210689, 54.349628610344539 ], [ 9.711343627521373, 54.349520453750905 ], [ 9.711952778737123, 54.349393423911998 ], [ 9.712158439476664, 54.349343273165047 ], [ 9.712166402936631, 54.349343550440942 ], [ 9.712821324801689, 54.349345963440662 ], [ 9.713475538660115, 54.349328017389517 ], [ 9.714127190958543, 54.349289763136063 ], [ 9.714774435413043, 54.349231309066717 ], [ 9.715415438248135, 54.349152820798224 ], [ 9.718671627283966, 54.348700903958559 ], [ 9.719174932073507, 54.348701334222675 ], [ 9.719816844273245, 54.348682277368518 ], [ 9.720456176972352, 54.348643665830132 ], [ 9.721091185559668, 54.348585604973692 ], [ 9.726646502407323, 54.347990307614964 ], [ 9.727273540265653, 54.347913190282007 ], [ 9.727892854682249, 54.347817108173935 ], [ 9.728502765968159, 54.347702321893451 ], [ 9.729101619977005, 54.347569142771391 ], [ 9.729687792597188, 54.347417932021173 ], [ 9.730259694162028, 54.347249099757406 ], [ 9.730815773765791, 54.34706310388227 ], [ 9.731354523473836, 54.346860448841632 ], [ 9.731874482415435, 54.346641684255196 ], [ 9.732374240748076, 54.346407403423846 ], [ 9.732852443482471, 54.346158241718591 ], [ 9.732900478557585, 54.346130459311254 ], [ 9.734436136649462, 54.345600926998117 ], [ 9.734980389297924, 54.3454018834883 ], [ 9.735506125735219, 54.345186523892814 ], [ 9.736011914426941, 54.344955434741642 ], [ 9.736496378234406, 54.344709245393588 ], [ 9.736958198166034, 54.344448626320137 ], [ 9.737396116969393, 54.344174287277319 ], [ 9.737808942554135, 54.343886975370665 ], [ 9.738195551236506, 54.343587473018388 ], [ 9.738554890796612, 54.343276595818629 ], [ 9.738885983340094, 54.342955190326357 ], [ 9.739165479884607, 54.342648744504011 ], [ 9.741074638469975, 54.341365320593845 ], [ 9.741487256204481, 54.341072685009443 ], [ 9.741872891471802, 54.340767745431215 ], [ 9.742230472072558, 54.340451350180544 ], [ 9.742559003922825, 54.34012437942777 ], [ 9.742857573814561, 54.339787742741429 ], [ 9.742985252331927, 54.339623070484301 ], [ 9.743058698739373, 54.339588051961201 ], [ 9.743532072288959, 54.339337339810726 ], [ 9.743982530706104, 54.339072606702906 ], [ 9.744408859543695, 54.338794566632124 ], [ 9.744809909502441, 54.338503969467112 ], [ 9.747806018477375, 54.336213609659318 ], [ 9.748178473630748, 54.335913098836535 ], [ 9.748523896647347, 54.335601758348353 ], [ 9.748841367882498, 54.33528041766148 ], [ 9.749130042220159, 54.334949932865158 ], [ 9.749389151319074, 54.334611184388656 ], [ 9.749618005653623, 54.334265074654112 ], [ 9.749815996344012, 54.333912525671032 ], [ 9.749982596770952, 54.333554476578698 ], [ 9.750060720168603, 54.33334428388158 ], [ 9.751097587923695, 54.332083325256725 ], [ 9.751356707690309, 54.33174626710457 ], [ 9.7515858499253, 54.331401873181179 ], [ 9.751784410012904, 54.331051053347458 ], [ 9.75195186417462, 54.330694734417641 ], [ 9.752087770845298, 54.330333857709604 ], [ 9.752191771831548, 54.329969376557067 ], [ 9.752263593249488, 54.329602253790398 ], [ 9.752303046239451, 54.32923345919243 ], [ 9.752310027455859, 54.328863966936417 ], [ 9.752284519331042, 54.328494753012393 ], [ 9.752263773398697, 54.328362977794491 ], [ 9.75230441266161, 54.328218809781255 ], [ 9.752371076762305, 54.328134908298601 ], [ 9.752611322270544, 54.327785796857441 ], [ 9.752819984452545, 54.327429816494629 ], [ 9.752996492467888, 54.327067942480376 ], [ 9.753140363608106, 54.326701166205815 ], [ 9.753251204610301, 54.326330492465708 ], [ 9.753328712725283, 54.325956936704934 ], [ 9.753559547645276, 54.324533605714933 ], [ 9.753704824118898, 54.324295124699518 ], [ 9.754831314674673, 54.322281156341049 ], [ 9.755949789892945, 54.321493126137241 ], [ 9.756353983456831, 54.321192408831038 ], [ 9.756730245890786, 54.320879551783335 ], [ 9.757077512916972, 54.320555440466137 ], [ 9.757394802392762, 54.32022099218279 ], [ 9.757681217084814, 54.319877153469641 ], [ 9.75781066793675, 54.319698141898598 ], [ 9.757821143545467, 54.319692708887992 ], [ 9.758270816657053, 54.319434227225138 ], [ 9.758697228084008, 54.319162608495105 ], [ 9.759099256710336, 54.318878567135435 ], [ 9.75947584561948, 54.318582850243637 ], [ 9.761951205314476, 54.316531135340426 ], [ 9.762313214655775, 54.316213481009392 ], [ 9.762645873232309, 54.3158850409122 ], [ 9.762948243885955, 54.315546741027084 ], [ 9.763219474913971, 54.315199535106977 ], [ 9.763458802463362, 54.314844401988722 ], [ 9.763665552676708, 54.314482342831838 ], [ 9.763839143583517, 54.314114378294484 ], [ 9.763979086731863, 54.313741545654828 ], [ 9.764084988555783, 54.313364895885876 ], [ 9.764156551474718, 54.312985490691766 ], [ 9.764193574721975, 54.312604399514534 ], [ 9.76419595490003, 54.312222696518901 ], [ 9.764163686261204, 54.311841457564569 ], [ 9.764096860713007, 54.311461757173646 ], [ 9.763995667548357, 54.31108466550252 ], [ 9.763989053485931, 54.311066407814884 ], [ 9.764082326304059, 54.309722154409663 ], [ 9.764091543151501, 54.309344171721001 ], [ 9.764066772674278, 54.308966428188896 ], [ 9.764008084278721, 54.308589968034319 ], [ 9.763915641121592, 54.308215831902245 ], [ 9.763789699648882, 54.307845053985424 ], [ 9.76363060887704, 54.307478659166321 ], [ 9.763438809418632, 54.307117660185035 ], [ 9.763214832255265, 54.306763054841205 ], [ 9.762959297261277, 54.306415823237266 ], [ 9.762672911482348, 54.306076925071118 ], [ 9.762356467173877, 54.305747296985267 ], [ 9.762010839604653, 54.305427849979878 ], [ 9.761838314556845, 54.305285539351438 ], [ 9.761837696111998, 54.30528345034736 ], [ 9.761697130707413, 54.304921138104476 ], [ 9.761524752599701, 54.304563555672686 ], [ 9.761321022819779, 54.30421165771984 ], [ 9.76108648606054, 54.303866383713505 ], [ 9.758951180535881, 54.300944959191632 ], [ 9.758686121722485, 54.300606774342732 ], [ 9.758391513075576, 54.300277060355775 ], [ 9.758068143883131, 54.29995669979261 ], [ 9.757716880358148, 54.2996465501584 ], [ 9.757338663314899, 54.299347441608184 ], [ 9.756995585489292, 54.299103589357024 ], [ 9.756344744679099, 54.298361245424537 ], [ 9.756034820374538, 54.298029517357449 ], [ 9.75569552019628, 54.297707774847716 ], [ 9.755327782555648, 54.297396907111079 ], [ 9.754932624389497, 54.297097773288847 ], [ 9.754511138345308, 54.296811200075553 ], [ 9.754064489758022, 54.296537979436401 ], [ 9.75359391342699, 54.296278866420892 ], [ 9.753100710201963, 54.29603457707843 ], [ 9.752586243387572, 54.295805786481814 ], [ 9.752491162021647, 54.295767943566446 ], [ 9.752347980795866, 54.295616274405873 ], [ 9.752007506761437, 54.295296442406709 ], [ 9.751638862558108, 54.294987481540545 ], [ 9.751243060856137, 54.294690240011256 ], [ 9.750821188812107, 54.294405533831579 ], [ 9.746410713594495, 54.291581763987033 ], [ 9.745959886805027, 54.291307993913854 ], [ 9.745484961567611, 54.291048544023326 ], [ 9.745142957453517, 54.290880595865026 ], [ 9.744880664972609, 54.290600413861348 ], [ 9.744539764216222, 54.290277880254187 ], [ 9.741930705071448, 54.287948835948718 ], [ 9.741561270786933, 54.287637268268426 ], [ 9.741164278805918, 54.28733752809017 ], [ 9.740740833642013, 54.28705044891413 ], [ 9.740292113294421, 54.286776829016851 ], [ 9.739819365969701, 54.286517429233832 ], [ 9.739575066661184, 54.286396893196056 ], [ 9.738628593265689, 54.285639814479332 ], [ 9.738239431516776, 54.285344870447958 ], [ 9.737824681912345, 54.285062117241715 ], [ 9.737385458511184, 54.284792314018233 ], [ 9.736922941011418, 54.284536185151893 ], [ 9.736438371581652, 54.284294418291061 ], [ 9.735933051525391, 54.284067662514026 ], [ 9.735408337787575, 54.283856526588394 ], [ 9.735039479827719, 54.283724025150249 ], [ 9.735005695582428, 54.283702713023104 ], [ 9.734544131229233, 54.28344051008969 ], [ 9.734059752356302, 54.283192798842528 ], [ 9.733553886484327, 54.282960257976448 ], [ 9.733027919933878, 54.282743524610851 ], [ 9.732483294028038, 54.282543192546171 ], [ 9.731921501145287, 54.282359810639086 ], [ 9.731344080633422, 54.282193881300813 ], [ 9.730752614595636, 54.282045859122384 ], [ 9.730148723560301, 54.281916149631094 ], [ 9.729534062046204, 54.281805108180919 ], [ 9.728910314035343, 54.281713038980527 ], [ 9.728279188365597, 54.281640194260959 ], [ 9.727642414055813, 54.281586773585694 ], [ 9.727001735576021, 54.281552923304801 ], [ 9.726358908075646, 54.281538736154509 ], [ 9.725715692582678, 54.281544251003538 ], [ 9.725073851186867, 54.281569452746758 ], [ 9.72443514222001, 54.281614272346502 ], [ 9.723801315446472, 54.281678587021318 ], [ 9.72317410727697, 54.281762220581825 ], [ 9.722555236018648, 54.281864943912595 ], [ 9.721946397174383, 54.281986475598885 ], [ 9.721349258804068, 54.282126482696349 ], [ 9.720765456960512, 54.282284581641854 ], [ 9.720196591212385, 54.282460339302752 ], [ 9.719644220266391, 54.282653274161817 ], [ 9.719206555738896, 54.282824931825139 ], [ 9.718980305945513, 54.282909864008595 ], [ 9.71847228715191, 54.283122642629714 ], [ 9.717983403084029, 54.283350252956247 ], [ 9.717822286521487, 54.283429259212134 ], [ 9.717339178147075, 54.283679069016877 ], [ 9.716879122216215, 54.283943359598041 ], [ 9.71644338523344, 54.284221403642569 ], [ 9.716033166851163, 54.284512435973397 ], [ 9.715649596566168, 54.28481565565302 ], [ 9.715293730608154, 54.285130228185508 ], [ 9.714966549028963, 54.285455287810997 ], [ 9.714668953000505, 54.285789939886428 ], [ 9.714401762328883, 54.286133263345945 ], [ 9.714165713191621, 54.286484313233963 ], [ 9.713961456104267, 54.286842123304574 ], [ 9.713789554122057, 54.287205708679529 ], [ 9.713650481281681, 54.287574068557717 ], [ 9.713544621287504, 54.28794618896903 ], [ 9.713472266445985, 54.288321045564366 ], [ 9.713433616851315, 54.288697606434859 ], [ 9.713428779824616, 54.28907483495189 ], [ 9.713457769608357, 54.289451692620709 ], [ 9.71352050731697, 54.289827141939313 ], [ 9.71361682114385, 54.290200149254844 ], [ 9.713746446824358, 54.290569687609988 ], [ 9.713909028353578, 54.290934739570851 ], [ 9.714104118957064, 54.291294300029271 ], [ 9.714331182311879, 54.291647378971234 ], [ 9.714589594014797, 54.291993004204066 ], [ 9.714878643293602, 54.292330224034906 ], [ 9.71519753495693, 54.292658109892763 ], [ 9.715545391577347, 54.292975758887295 ], [ 9.715921255901691, 54.293282296297001 ], [ 9.716324093482134, 54.293576877980001 ], [ 9.716752795520751, 54.293858692700617 ], [ 9.717206181919808, 54.29412696436583 ], [ 9.71768300452938, 54.294380954164552 ], [ 9.718181950583404, 54.294619962604564 ], [ 9.718701646314669, 54.294843331441236 ], [ 9.720695449607918, 54.295654000740953 ], [ 9.721448401478247, 54.29625645810448 ], [ 9.721845004471572, 54.296556810410259 ], [ 9.722268155474037, 54.296844501766294 ], [ 9.722660500895319, 54.297084384970951 ], [ 9.722733007145235, 54.297189464128714 ], [ 9.723004382421855, 54.29753024582368 ], [ 9.723305844597986, 54.297862264030051 ], [ 9.723636569988312, 54.298184610790436 ], [ 9.723995654819721, 54.298496404574934 ], [ 9.724382117697537, 54.298796792693892 ], [ 9.72743150134251, 54.30104213351094 ], [ 9.727839371401737, 54.30132699920938 ], [ 9.728271864765924, 54.301599159308211 ], [ 9.728727826454687, 54.301857886704951 ], [ 9.72920603872031, 54.302102490170881 ], [ 9.729705224300247, 54.302332316199902 ], [ 9.730224049829562, 54.302546750756534 ], [ 9.73025742589728, 54.302559084536242 ], [ 9.73060572016346, 54.302782139237223 ], [ 9.730888736250083, 54.303078474538083 ], [ 9.731233361991446, 54.303398524550666 ], [ 9.731606295026957, 54.303707531562871 ], [ 9.732006503614823, 54.304004640175776 ], [ 9.732432880436861, 54.304289027910194 ], [ 9.735751185250102, 54.306388063627644 ], [ 9.736411310653077, 54.307141389341965 ], [ 9.73672290018011, 54.30747493261407 ], [ 9.73706420063429, 54.307798380201142 ], [ 9.737366090722221, 54.308053272794325 ], [ 9.737394496946857, 54.308151999952983 ], [ 9.73753157061998, 54.308513502752156 ], [ 9.737700293205155, 54.308870399139195 ], [ 9.73790021793425, 54.309221742351859 ], [ 9.738130815228118, 54.309566600335444 ], [ 9.73877390692469, 54.310459782908126 ], [ 9.736174785833244, 54.312576423837875 ], [ 9.735811303361126, 54.312889481640568 ], [ 9.735476487125686, 54.313213285968175 ], [ 9.735171264908464, 54.31354694021752 ], [ 9.735047067453774, 54.31370178211268 ], [ 9.73413259114978, 54.314345819090036 ], [ 9.733729082536007, 54.314645848945503 ], [ 9.733353368715683, 54.314957974527644 ], [ 9.733006508829314, 54.315281316486711 ], [ 9.732689480797001, 54.315614963851914 ], [ 9.732403178557789, 54.315957976595968 ], [ 9.732148409544665, 54.316309388281425 ], [ 9.731925892402412, 54.316668208781884 ], [ 9.7317362549548, 54.317033427070015 ], [ 9.731580032426963, 54.317404014064742 ], [ 9.731457665928046, 54.317778925529716 ], [ 9.731448410557732, 54.317818626436363 ], [ 9.731296713385481, 54.318089571377683 ], [ 9.731245525881663, 54.31813389266037 ], [ 9.730912660866121, 54.318457540397461 ], [ 9.730609318446973, 54.318790958796967 ], [ 9.730336336053099, 54.319133228199021 ], [ 9.730094467429586, 54.319483404506975 ], [ 9.729884380551557, 54.31984052178997 ], [ 9.729706655773841, 54.320203594945681 ], [ 9.729561784221689, 54.320571622416502 ], [ 9.72945016642705, 54.320943588951167 ], [ 9.729372111214262, 54.321318468404463 ], [ 9.7291116453332, 54.322918774746455 ], [ 9.728930721832633, 54.323214705634697 ], [ 9.728749092329933, 54.323568017750247 ], [ 9.728598703000316, 54.323926310564737 ], [ 9.72847995057745, 54.32428864083888 ], [ 9.727574835931749, 54.327492851124539 ], [ 9.726647104582737, 54.32862025191946 ], [ 9.726294953012051, 54.32880575604112 ], [ 9.725844127897284, 54.329069223185321 ], [ 9.725417256928141, 54.329345986177238 ], [ 9.725015486756643, 54.329635301902783 ], [ 9.721732976169093, 54.332128182526695 ], [ 9.721352635637192, 54.332433249900909 ], [ 9.721000209065886, 54.332749561259476 ], [ 9.720676668189407, 54.333076245034881 ], [ 9.720501241253103, 54.333276988643782 ], [ 9.719261803312216, 54.334109880179369 ], [ 9.719143151125381, 54.334106136699098 ], [ 9.718500756478317, 54.334105491064598 ], [ 9.717859179408373, 54.334124438297209 ], [ 9.717220168201329, 54.334162926768734 ], [ 9.71658546416247, 54.334220851601145 ], [ 9.715956796878837, 54.33429805495178 ], [ 9.712593162995322, 54.334764962664373 ], [ 9.71232956340484, 54.334762984432793 ], [ 9.711678534809677, 54.334778255073601 ], [ 9.71102980154004, 54.334813641798952 ], [ 9.710385182088931, 54.334869045417754 ], [ 9.705337988566296, 54.3353828442024 ], [ 9.704709571840649, 54.335456705473653 ], [ 9.704088588175983, 54.335549589499323 ], [ 9.703476722375834, 54.335661244284076 ], [ 9.702875634544375, 54.335791366904409 ], [ 9.702286955588281, 54.33593960432929 ], [ 9.70197984638464, 54.336028289714399 ], [ 9.701797477129302, 54.336051153355022 ], [ 9.701512126604744, 54.336045688051804 ], [ 9.700858883314575, 54.33605345387172 ], [ 9.700207265869906, 54.336081470035204 ], [ 9.699559110977033, 54.336129657576244 ], [ 9.698916245598152, 54.336197880671527 ], [ 9.69828048180956, 54.336285947022745 ], [ 9.697653611701442, 54.336393608397657 ], [ 9.69394486328814, 54.337093515269935 ], [ 9.69383520744344, 54.337095395256725 ], [ 9.69320612001929, 54.337125098862778 ], [ 9.692580465502916, 54.337173610759734 ], [ 9.691959889332837, 54.337240803367102 ], [ 9.691346023613006, 54.337326499974651 ], [ 9.68563478488738, 54.338214696928446 ], [ 9.685018303405784, 54.33832069911999 ], [ 9.684412130364352, 54.33844536127652 ], [ 9.683817918524332, 54.338588343522723 ], [ 9.68323728808417, 54.338749256031612 ], [ 9.68312374893406, 54.338785077887174 ], [ 9.682923863178157, 54.338787375201463 ], [ 9.682281811465772, 54.338814427604213 ], [ 9.681643058326742, 54.338861060311629 ], [ 9.681009351139927, 54.338927145758092 ], [ 9.68038242350238, 54.339012503162387 ], [ 9.674486788335637, 54.339910646548113 ], [ 9.673867446712729, 54.340015175460771 ], [ 9.673258320779532, 54.340138511105764 ], [ 9.672661081776553, 54.340280315112409 ], [ 9.672077368380549, 54.340440198437882 ], [ 9.671566022940242, 54.340599850921606 ], [ 9.671009731051155, 54.340685934935983 ], [ 9.670973480420857, 54.340685309324861 ], [ 9.670328245285202, 54.340693953666253 ], [ 9.669684672653744, 54.340722350452602 ], [ 9.669044532144746, 54.340770421604461 ], [ 9.668409583954439, 54.340838034943793 ], [ 9.667781574024398, 54.340925004556709 ], [ 9.661156344002602, 54.341950201564003 ], [ 9.66053924148803, 54.342055826838582 ], [ 9.659932421669033, 54.342180140174136 ], [ 9.659337540920353, 54.342322802267148 ], [ 9.658756223077846, 54.342483423728318 ], [ 9.658327121958282, 54.342618438986655 ], [ 9.658199437016625, 54.34263795332209 ], [ 9.657698673273575, 54.342643486664613 ], [ 9.657056718206951, 54.342670240439254 ], [ 9.656418033839049, 54.342716564240405 ], [ 9.655784366307165, 54.342782331423805 ], [ 9.655157448054567, 54.342867362187214 ], [ 9.648799792878691, 54.343832493947247 ], [ 9.64818005708146, 54.343936754453047 ], [ 9.647570517675002, 54.344059837907437 ], [ 9.646972848038287, 54.344201406428638 ], [ 9.646516135858008, 54.344326237391385 ], [ 9.643298790758852, 54.344695976976091 ], [ 9.642670624555779, 54.344778180633554 ], [ 9.642050672375452, 54.344879459771448 ], [ 9.641440629811687, 54.344999537399737 ], [ 9.640842165397093, 54.345138085112964 ], [ 9.640256916045457, 54.345294723986996 ], [ 9.63968648257994, 54.345469025613902 ], [ 9.639644641577126, 54.345483486429337 ], [ 9.639299761533298, 54.345536801072605 ], [ 9.639183210216149, 54.345535474211204 ], [ 9.638533854842663, 54.345548116598657 ], [ 9.637886545603065, 54.345580759911158 ], [ 9.63724308581757, 54.345633313211195 ], [ 9.636605268099501, 54.345705630094201 ], [ 9.635974869368859, 54.34579750909564 ], [ 9.63535364590923, 54.345908694251435 ], [ 9.63474332848179, 54.346038875809903 ], [ 9.634145617509807, 54.346187691093526 ], [ 9.633562178347109, 54.346354725507659 ], [ 9.629541412049297, 54.347583657471169 ], [ 9.629329033576928, 54.347612487454761 ], [ 9.628722277096296, 54.347714265342027 ], [ 9.62812524875247, 54.347834082300956 ], [ 9.627539518667369, 54.347971623245151 ], [ 9.626966627295312, 54.348126526475106 ], [ 9.626408081376574, 54.348298384628016 ], [ 9.625865349978991, 54.348486745747515 ], [ 9.625339860637899, 54.34869111447059 ], [ 9.620754488950817, 54.350575128851254 ], [ 9.620245066902639, 54.350796096402384 ], [ 9.620001293579632, 54.350913688543713 ], [ 9.619454989306204, 54.350981773934279 ], [ 9.61883945839004, 54.351078185657698 ], [ 9.618233291979298, 54.351193075982223 ], [ 9.617638114401137, 54.351326137056894 ], [ 9.61705552058158, 54.351477012338179 ], [ 9.613944079120911, 54.352339692999344 ], [ 9.613594631398586, 54.352382293238897 ], [ 9.612983234932583, 54.352476192815686 ], [ 9.612380895304165, 54.352588302359763 ], [ 9.611789200750449, 54.352718326279103 ], [ 9.611209711483099, 54.35286592174463 ], [ 9.61064395557942, 54.353030699592694 ], [ 9.604949570123578, 54.354797048732529 ], [ 9.604386528363863, 54.354982912786255 ], [ 9.603840971654321, 54.35518579107331 ], [ 9.603314405649776, 54.35540512378082 ], [ 9.602808283670988, 54.355640305682819 ], [ 9.602324002695994, 54.35589068780817 ], [ 9.602271006942919, 54.355921132710307 ], [ 9.601864009185331, 54.356047859885585 ], [ 9.601363967260557, 54.35612412061257 ], [ 9.600751006416374, 54.3562378777711 ], [ 9.600149051113835, 54.356370176140814 ], [ 9.599559743951795, 54.35652065473576 ], [ 9.598984693067965, 54.35668890295927 ], [ 9.5931494130615, 54.358508840339731 ], [ 9.592587917095573, 54.358695154086078 ], [ 9.59204391744847, 54.35889840640192 ], [ 9.591518910796333, 54.35911803819188 ], [ 9.59101434163812, 54.359353445295334 ], [ 9.590531598323665, 54.35960398014609 ], [ 9.590504321454899, 54.359619706609486 ], [ 9.590017470762657, 54.35977200367347 ], [ 9.589437967436934, 54.359861252165459 ], [ 9.588824251748747, 54.359976136714295 ], [ 9.588221667608511, 54.360109618064911 ], [ 9.58763186574371, 54.360261330583477 ], [ 9.587056461919357, 54.360430858692347 ], [ 9.581246121891482, 54.362255442109827 ], [ 9.580681994006399, 54.362443943145365 ], [ 9.580135681098437, 54.362649564956712 ], [ 9.579608705341666, 54.362871734731684 ], [ 9.579411563856318, 54.362964469240993 ], [ 9.578830544590556, 54.363108621159874 ], [ 9.578329811547826, 54.363154757046431 ], [ 9.577687937648218, 54.36323456763008 ], [ 9.577054254976179, 54.363334234835328 ], [ 9.571558202692664, 54.364290946308657 ], [ 9.570943113338501, 54.364408360739432 ], [ 9.570339433970192, 54.364544482272549 ], [ 9.569953081861572, 54.364645520514699 ], [ 9.566440665977268, 54.364967987940055 ], [ 9.565807298047956, 54.365036080992063 ], [ 9.565180891257231, 54.365123416956038 ], [ 9.564563158620361, 54.365229757005331 ], [ 9.563955789468627, 54.365354810342616 ], [ 9.563834618225696, 54.36538400206134 ], [ 9.562669818182066, 54.365472785842478 ], [ 9.562634282097452, 54.365469517005984 ], [ 9.561992702203018, 54.365430469399591 ], [ 9.561348501457607, 54.365411093280599 ], [ 9.560703447131379, 54.365411441806877 ], [ 9.560059308832891, 54.365431514024522 ], [ 9.559417853662044, 54.365471254870393 ], [ 9.553545175112459, 54.365926056225575 ], [ 9.552888139749795, 54.365987512390788 ], [ 9.552237747083897, 54.366069602417916 ], [ 9.55159589577635, 54.366172086672584 ], [ 9.550964459593279, 54.366294665983574 ], [ 9.550345281942892, 54.366436982514948 ], [ 9.550195720508553, 54.36647693399415 ], [ 9.549559492247534, 54.366544276150513 ], [ 9.549242098099617, 54.366530526163345 ], [ 9.548587835129259, 54.366522538092845 ], [ 9.547933769172396, 54.366534855748881 ], [ 9.547281746860705, 54.366567444357074 ], [ 9.54663360906547, 54.36662021191141 ], [ 9.54599118570825, 54.366693009433696 ], [ 9.539514481192207, 54.367531586116762 ], [ 9.538889904810915, 54.367622496395519 ], [ 9.538274314957645, 54.367732338176452 ], [ 9.537669393203624, 54.367860811426198 ], [ 9.537076792023605, 54.368007565215997 ], [ 9.536731418762956, 54.368105826906707 ], [ 9.53646391735931, 54.368140067006792 ], [ 9.53598332173906, 54.368136045192827 ], [ 9.535336501528066, 54.368150493434413 ], [ 9.534691874436771, 54.368184765815244 ], [ 9.534051220968644, 54.368238767674903 ], [ 9.533416310669274, 54.368312349858371 ], [ 9.532788897246119, 54.368405309127255 ], [ 9.529478040874269, 54.368950259654397 ], [ 9.529078511777724, 54.368956304270981 ], [ 9.528420587229906, 54.368986911270731 ], [ 9.527766414967658, 54.369038054512423 ], [ 9.527117873485327, 54.369109587138269 ], [ 9.521574437006686, 54.369811191809639 ], [ 9.520947319565146, 54.369900655346264 ], [ 9.520329090882266, 54.370009182741704 ], [ 9.519721449397444, 54.370136475856746 ], [ 9.5193850865827, 54.370218794752674 ], [ 9.516688478573892, 54.37045672010639 ], [ 9.516051665578269, 54.370522929471548 ], [ 9.515421683116791, 54.370608568454067 ], [ 9.514800268615113, 54.370713400878351 ], [ 9.514189135906173, 54.37083713763451 ], [ 9.51358997051002, 54.370979437474503 ], [ 9.513004424991149, 54.371139907951807 ], [ 9.512434114406076, 54.37131810650223 ], [ 9.511880611853574, 54.371513541662672 ], [ 9.511345444139817, 54.371725674424724 ], [ 9.510830087570346, 54.371953919719225 ], [ 9.510826814967055, 54.371955533958847 ], [ 9.509534096299186, 54.372328542556112 ], [ 9.509131753391314, 54.372386284132283 ], [ 9.508519976448076, 54.372494007522782 ], [ 9.507918590249012, 54.372620110699764 ], [ 9.507329213343596, 54.37276425429598 ], [ 9.506753432009392, 54.372926050389871 ], [ 9.506192795987763, 54.373105063548088 ], [ 9.505648814317201, 54.373300811995641 ], [ 9.505122951275373, 54.37351276891075 ], [ 9.504616622440901, 54.373740363840803 ], [ 9.499811157950624, 54.376018517822075 ], [ 9.499321159523459, 54.376263495699938 ], [ 9.498853801362563, 54.376523114970752 ], [ 9.498410365832902, 54.376796663520444 ], [ 9.497992069753957, 54.377083391013429 ], [ 9.497626244998228, 54.377362531623362 ], [ 9.497185705184451, 54.377573063100989 ], [ 9.497089889581122, 54.377596764133486 ], [ 9.496511404459794, 54.377761158642016 ], [ 9.495948409815513, 54.377942961618551 ], [ 9.49540244155903, 54.378141677154609 ], [ 9.494874989220568, 54.378356763201246 ], [ 9.494367491889342, 54.378587633045562 ], [ 9.489346875525708, 54.380996976663553 ], [ 9.488861218126223, 54.381242682394884 ], [ 9.488398171824313, 54.381502838727585 ], [ 9.487958997258751, 54.381776737636272 ], [ 9.487805368034161, 54.3818831735801 ], [ 9.485198359995996, 54.382968146449805 ], [ 9.484669949941187, 54.383200791282391 ], [ 9.484163705619144, 54.383449665117126 ], [ 9.483681088535569, 54.383714049669997 ], [ 9.483223492084324, 54.383993181876598 ], [ 9.482792237525006, 54.384286256091876 ], [ 9.482388570167544, 54.384592426413001 ], [ 9.482358914668692, 54.384617610511825 ], [ 9.481279513195176, 54.385128647972884 ], [ 9.480709016278199, 54.385287938268988 ], [ 9.480153056216666, 54.385464182682703 ], [ 9.479613328098191, 54.385656852574897 ], [ 9.47909125523881, 54.385865439941242 ], [ 9.478588214464958, 54.386089394800315 ], [ 9.473265997810518, 54.388587311617215 ], [ 9.472773541893233, 54.388831086593903 ], [ 9.472303643510262, 54.389089584423409 ], [ 9.47185759366322, 54.389362095147696 ], [ 9.471436617926834, 54.38964787030806 ], [ 9.471041873081179, 54.389946124998602 ], [ 9.470674443931831, 54.390256040019828 ], [ 9.470335340326756, 54.390576764126564 ], [ 9.470025494378099, 54.390907416364044 ], [ 9.469745757896607, 54.391247088485642 ], [ 9.469496900045719, 54.391594847445866 ], [ 9.469279605221907, 54.391949737961603 ], [ 9.469195398409225, 54.39211395833324 ], [ 9.468893130918483, 54.392412606927756 ], [ 9.468589301490299, 54.392583975406218 ], [ 9.468155605358742, 54.392855198946869 ], [ 9.467746453540821, 54.393139113953879 ], [ 9.467362935418505, 54.393434964853199 ], [ 9.46700607222188, 54.393741964289518 ], [ 9.46667681430789, 54.394059295219634 ], [ 9.466376038626821, 54.394386113085083 ], [ 9.466104546383329, 54.39472154805803 ], [ 9.46586306089827, 54.395064707354635 ], [ 9.465652225677115, 54.395414677609715 ], [ 9.465472602690074, 54.39577052730629 ], [ 9.465324670868709, 54.396131309253825 ], [ 9.464257837132148, 54.399065478990345 ], [ 9.464140162990084, 54.39943690525304 ], [ 9.464056081595283, 54.399811424629057 ], [ 9.464005825916452, 54.400188003518878 ], [ 9.463998571440316, 54.400356158260969 ], [ 9.463588752324572, 54.401142159165659 ], [ 9.463419563727758, 54.401499476225787 ], [ 9.463334691295373, 54.401723042583754 ], [ 9.463279214751582, 54.401772166722843 ], [ 9.461907733141908, 54.403057460284174 ], [ 9.46189144309856, 54.403062733880851 ], [ 9.461829428847985, 54.403070914530517 ], [ 9.461703658680293, 54.40306722887982 ], [ 9.461053267906278, 54.403068211029058 ], [ 9.460403871178533, 54.403089206725276 ], [ 9.45975727629895, 54.403130157522007 ], [ 9.459115283282136, 54.403190949421095 ], [ 9.458479679352195, 54.403271413189394 ], [ 9.457852233974847, 54.403371324829308 ], [ 9.454810485454813, 54.403906323323383 ], [ 9.454545035484214, 54.403910586529264 ], [ 9.453897620161118, 54.403940952303465 ], [ 9.453253844719903, 54.403991171245835 ], [ 9.452615496364837, 54.40406110394467 ], [ 9.451984347257705, 54.404150556259737 ], [ 9.451362149605304, 54.404259279860433 ], [ 9.45075063080192, 54.404386972914075 ], [ 9.450151488640142, 54.40453328092255 ], [ 9.449566386603266, 54.404697797705055 ], [ 9.448996949252221, 54.404880066524086 ], [ 9.448444757719795, 54.405079581351657 ], [ 9.447911345324579, 54.405295788272255 ], [ 9.447398193316738, 54.405528087018595 ], [ 9.446906726767423, 54.405775832636039 ], [ 9.444855005832261, 54.406866430952988 ], [ 9.444757981891234, 54.406896554027902 ], [ 9.444192522990303, 54.407095479985088 ], [ 9.44364613318325, 54.407311784380816 ], [ 9.443120380477273, 54.407544846597496 ], [ 9.442616773743211, 54.407793997925154 ], [ 9.44213675838748, 54.408058523477642 ], [ 9.441681712204961, 54.408337664241479 ], [ 9.441252941424768, 54.408630619251184 ], [ 9.440851676960211, 54.40893654788519 ], [ 9.44047907087373, 54.409254572275408 ], [ 9.440136193066984, 54.409583779823976 ], [ 9.436775040530785, 54.413014438044627 ], [ 9.436469994171876, 54.413345563311424 ], [ 9.436195031324965, 54.413685534417702 ], [ 9.435950904181235, 54.414033422269164 ], [ 9.435738280714503, 54.414388276112319 ], [ 9.435592231396683, 54.414680192662246 ], [ 9.435453359661029, 54.414821449234225 ], [ 9.435065347497238, 54.415060851277424 ], [ 9.434647226335715, 54.415347492195565 ], [ 9.434255388746525, 54.415646499485227 ], [ 9.433890908566013, 54.415957054159051 ], [ 9.433554784766372, 54.41627830558226 ], [ 9.430218062008418, 54.419663223392767 ], [ 9.429911045123861, 54.419994419586303 ], [ 9.429634173816, 54.420334533407804 ], [ 9.429388207886761, 54.420682632433248 ], [ 9.429173822463756, 54.421037762323252 ], [ 9.429001360022362, 54.421379615574587 ], [ 9.428712542029123, 54.421673333625243 ], [ 9.428691708173801, 54.421684988094476 ], [ 9.428248843363654, 54.421960163470239 ], [ 9.427831342777173, 54.422248508928206 ], [ 9.427440356808917, 54.422549230328713 ], [ 9.427076962899989, 54.422861499429402 ], [ 9.426742162566823, 54.423184456164158 ], [ 9.423642416173129, 54.426359594885476 ], [ 9.423338574053775, 54.426690610359074 ], [ 9.423064776749397, 54.427030421972269 ], [ 9.422821771453096, 54.42737810331522 ], [ 9.42261022146341, 54.427732706499597 ], [ 9.422489389197221, 54.427975397589542 ], [ 9.422457757392273, 54.428007795026161 ], [ 9.422020831094812, 54.428279445175981 ], [ 9.42160331733748, 54.428567988139001 ], [ 9.421212349473592, 54.428868909378799 ], [ 9.420849005648288, 54.429181379523243 ], [ 9.420514287940883, 54.429504537350901 ], [ 9.417505666993311, 54.432589182316555 ], [ 9.417202127793356, 54.432920180013895 ], [ 9.416928626896917, 54.433259960773171 ], [ 9.41668591024643, 54.433607598818419 ], [ 9.416596745020975, 54.433757234297374 ], [ 9.416441108549357, 54.433864170639282 ], [ 9.416049374410735, 54.434163829671888 ], [ 9.415685099357949, 54.434475039008177 ], [ 9.415349284031109, 54.434796944318627 ], [ 9.413639937529709, 54.436536477766012 ], [ 9.413337445339634, 54.436863617111221 ], [ 9.413064351253864, 54.437199430214548 ], [ 9.412821385497885, 54.437543020043677 ], [ 9.412609197867985, 54.437893468770241 ], [ 9.41242835598832, 54.438249840220159 ], [ 9.412279343786887, 54.43861118237308 ], [ 9.412162560194545, 54.438976529904707 ], [ 9.412078318070616, 54.439344906764532 ], [ 9.412026843358088, 54.439715328782846 ], [ 9.412017839459862, 54.439895455924074 ], [ 9.411909695287987, 54.440250232821924 ], [ 9.411906292048808, 54.44025438344179 ], [ 9.411660956763276, 54.440598333025946 ], [ 9.411446508663097, 54.440949226739939 ], [ 9.411263524058617, 54.441306122895149 ], [ 9.411112494862309, 54.441668063669724 ], [ 9.410993827260315, 54.442034077677825 ], [ 9.410907840613596, 54.442403182575873 ], [ 9.41085476659172, 54.442774387698137 ], [ 9.410834748541708, 54.443146696715246 ], [ 9.410847841093748, 54.443519110307946 ], [ 9.411105669711342, 54.446755484746149 ], [ 9.411151842912579, 54.447126992130208 ], [ 9.411230970101494, 54.447496607277593 ], [ 9.411342839773363, 54.447863338077589 ], [ 9.411487152515001, 54.448226200135274 ], [ 9.411561787156556, 54.448377704870964 ], [ 9.411584051801004, 54.448642923262121 ], [ 9.411467097915978, 54.449003072193371 ], [ 9.411381754313545, 54.449366477978273 ], [ 9.411328324362177, 54.449731947215248 ], [ 9.41130694796977, 54.450098528753465 ], [ 9.411317681629953, 54.450465268521931 ], [ 9.41159613236346, 54.454274726330624 ], [ 9.41164049185906, 54.454650138308985 ], [ 9.411718501707277, 54.455023683691458 ], [ 9.411829949113974, 54.455394339145293 ], [ 9.411974529659821, 54.455761089227359 ], [ 9.412131547551517, 54.456081503712696 ], [ 9.412157193362441, 54.456416639254421 ], [ 9.412145599565163, 54.456444000505648 ], [ 9.412024142425256, 54.456812170929304 ], [ 9.411935787902188, 54.457183529568653 ], [ 9.411880777127722, 54.457557066723943 ], [ 9.411859260588791, 54.457931766744657 ], [ 9.411871297708442, 54.458306610790821 ], [ 9.412177529650034, 54.462287585124102 ], [ 9.412223239215853, 54.46266241089446 ], [ 9.412302504105298, 54.4630353333907 ], [ 9.412415108692866, 54.463405333859754 ], [ 9.412560746252639, 54.463771401503713 ], [ 9.412706823580434, 54.46406731579048 ], [ 9.412727497945539, 54.46433850713013 ], [ 9.412725907520995, 54.464342229640614 ], [ 9.412602741126117, 54.46471232352836 ], [ 9.412513043192094, 54.465085669304358 ], [ 9.412457061225709, 54.465461240597811 ], [ 9.412434950059762, 54.465838004891665 ], [ 9.412446771417262, 54.466214926360749 ], [ 9.41274526697104, 54.470120401011016 ], [ 9.412790807047648, 54.470495306890285 ], [ 9.412869922838233, 54.470868314343058 ], [ 9.412982399041603, 54.471238403987996 ], [ 9.413127929164148, 54.471604564390525 ], [ 9.413273223243193, 54.471899112697805 ], [ 9.413292516051957, 54.472150983520386 ], [ 9.413286382949057, 54.472165442170017 ], [ 9.413164173691399, 54.472536147896172 ], [ 9.413075537098036, 54.472910078271568 ], [ 9.413020718400544, 54.473286202626639 ], [ 9.412999869632689, 54.473663484216289 ], [ 9.413013049201124, 54.474040883077166 ], [ 9.413306035563561, 54.477700337727796 ], [ 9.413352852614736, 54.478074686687187 ], [ 9.413433155262766, 54.478447102645212 ], [ 9.413546725545, 54.478816570553562 ], [ 9.413693254802425, 54.47918208337196 ], [ 9.41376366098404, 54.479323832983866 ], [ 9.413689132142956, 54.479550304615358 ], [ 9.413601105119266, 54.479921546590937 ], [ 9.413546416648471, 54.480294955163906 ], [ 9.413525216227123, 54.480669515814029 ], [ 9.41353756237465, 54.481044210863232 ], [ 9.413788619592452, 54.484272448600208 ], [ 9.413836394941299, 54.484657546213228 ], [ 9.413919608609771, 54.485040595172435 ], [ 9.414038021589988, 54.485420490725339 ], [ 9.414191293329752, 54.485796137183897 ], [ 9.414340987509853, 54.48609148657642 ], [ 9.41439055139441, 54.48655443277697 ], [ 9.414286027553525, 54.486922971681778 ], [ 9.414214246465942, 54.487296838947216 ], [ 9.414176151668364, 54.487672380342396 ], [ 9.41417184838204, 54.488048567725166 ], [ 9.414201349318612, 54.488424371156739 ], [ 9.414677837916413, 54.492279002733262 ], [ 9.414741761210967, 54.49265659333372 ], [ 9.414839815583433, 54.493031694969297 ], [ 9.41497172886544, 54.493403262908494 ], [ 9.415137134557254, 54.493770262233866 ], [ 9.415335572838716, 54.494131670725416 ], [ 9.41534223541778, 54.494141907984712 ], [ 9.415387261769057, 54.494497416923068 ], [ 9.41529687418992, 54.494816990806733 ], [ 9.415225173638365, 54.495192966445657 ], [ 9.415187543886756, 54.495570616836929 ], [ 9.415184090047086, 54.495948896544846 ], [ 9.415214822626757, 54.496326758362777 ], [ 9.415726726210654, 54.50036652752943 ], [ 9.415791256456503, 54.5007414750431 ], [ 9.415889453063924, 54.501113939689063 ], [ 9.416021047178242, 54.501482898223628 ], [ 9.416185678167279, 54.501847337007923 ], [ 9.416382894602597, 54.502206254793535 ], [ 9.416389549560375, 54.502216484621115 ], [ 9.416433633773259, 54.502564824759119 ], [ 9.41633903461142, 54.502905852883664 ], [ 9.41626950748404, 54.503280131927255 ], [ 9.416233737638795, 54.503656015835112 ], [ 9.416231824073328, 54.504032474074009 ], [ 9.416263772966929, 54.504408474507983 ], [ 9.416756221225137, 54.508192041473237 ], [ 9.41681979535019, 54.508556724926002 ], [ 9.416915229911448, 54.508919048850629 ], [ 9.417042277664043, 54.509278071371114 ], [ 9.417200609159181, 54.509632859169116 ], [ 9.417389813592289, 54.509982489911081 ], [ 9.417609399863, 54.510326054646868 ], [ 9.417858797844373, 54.510662660173992 ], [ 9.418137359858074, 54.510991431360999 ], [ 9.418410789664724, 54.511276510685832 ], [ 9.418428915132173, 54.511418658033726 ], [ 9.418509230070242, 54.511788026507269 ], [ 9.418622301540806, 54.512154480436031 ], [ 9.418767827172683, 54.512517037030939 ], [ 9.418945417527139, 54.512874723929436 ], [ 9.41915459713355, 54.513226581804219 ], [ 9.419394805756266, 54.513571666937352 ], [ 9.41966539988937, 54.513909053752698 ], [ 9.419965654475369, 54.514237837299888 ], [ 9.420294764843353, 54.514557135683333 ], [ 9.421592292743243, 54.515745064699537 ], [ 9.421430117052775, 54.515898905979178 ], [ 9.42111807159986, 54.516233438311581 ], [ 9.420836888491385, 54.516577108798842 ], [ 9.420587356389406, 54.516928954475837 ], [ 9.420370175325544, 54.517287989445528 ], [ 9.420185954731378, 54.517653207639846 ], [ 9.420035211722004, 54.518023585637394 ], [ 9.419365268241814, 54.519888421857495 ], [ 9.41929119546702, 54.519971191683574 ], [ 9.419022843061757, 54.520313711038895 ], [ 9.418785670078305, 54.52066393084727 ], [ 9.418580327314277, 54.521020891306421 ], [ 9.418407378380319, 54.521383614115635 ], [ 9.418267298147015, 54.521751105155587 ], [ 9.418160471434446, 54.522122357211728 ], [ 9.418087191948088, 54.522496352734038 ], [ 9.417474727989397, 54.526566237140813 ], [ 9.417435421460342, 54.526938099395792 ], [ 9.417429286399917, 54.527310646666493 ], [ 9.417456340187856, 54.52768287856459 ], [ 9.417516511079407, 54.528053795521572 ], [ 9.417585039893789, 54.528325039163356 ], [ 9.41753158356329, 54.52866048193939 ], [ 9.417516229450358, 54.52868275421784 ], [ 9.417306807673242, 54.529039669897159 ], [ 9.41712984917906, 54.529402481077476 ], [ 9.416985841659949, 54.529770189645234 ], [ 9.416875182192312, 54.530141783986949 ], [ 9.416798176134975, 54.530516241771338 ], [ 9.416154504288752, 54.53453791421606 ], [ 9.416111455418269, 54.53491275440156 ], [ 9.41610213437778, 54.535288390488162 ], [ 9.41612656754516, 54.535663796878424 ], [ 9.416184689136243, 54.536037948573977 ], [ 9.416255464942685, 54.536325119271957 ], [ 9.416232562273189, 54.536464407127852 ], [ 9.416051961831542, 54.536770070065167 ], [ 9.415873896961202, 54.537132111407075 ], [ 9.415728671408035, 54.537499077215983 ], [ 9.415616684389599, 54.537869960967456 ], [ 9.415538243983207, 54.538243745363403 ], [ 9.414925165243323, 54.54197532883763 ], [ 9.414880731599945, 54.542347569338503 ], [ 9.414869573587008, 54.542720648837438 ], [ 9.414891722169093, 54.543093562440077 ], [ 9.414947118596505, 54.54346530567166 ], [ 9.415025913162486, 54.54379436314801 ], [ 9.414931063944127, 54.544355330518243 ], [ 9.414799334605817, 54.544576976550303 ], [ 9.414621511501126, 54.54493542842701 ], [ 9.414475906599431, 54.545298760185773 ], [ 9.414362912756479, 54.545665993678064 ], [ 9.414282835060467, 54.546036140224963 ], [ 9.413597517975845, 54.550040133433853 ], [ 9.413550311977968, 54.550415284773727 ], [ 9.413546410862455, 54.550524863976626 ], [ 9.412684656956348, 54.552219965186396 ], [ 9.412516918605533, 54.552584910477826 ], [ 9.412382384757437, 54.552954472887613 ], [ 9.412370416279757, 54.552998711349836 ], [ 9.412201989624371, 54.553223714787798 ], [ 9.411875493544105, 54.553474288152117 ], [ 9.411511378263477, 54.553786490222478 ], [ 9.411175926988781, 54.554109361042059 ], [ 9.410870063394826, 54.554442012240315 ], [ 9.41059462980941, 54.554783528514236 ], [ 9.410350384889295, 54.555132970145046 ], [ 9.408872343284745, 54.557417559986163 ], [ 9.408569386616124, 54.557675551260061 ], [ 9.408239663227485, 54.557989737692402 ], [ 9.407938029128646, 54.558313317733386 ], [ 9.407665275125689, 54.558645443765499 ], [ 9.404991335822031, 54.562127671829202 ], [ 9.404742288882233, 54.562476280917785 ], [ 9.404525064506586, 54.562832004873123 ], [ 9.404340262167823, 54.563193863378835 ], [ 9.404188392031491, 54.563560859186666 ], [ 9.40406987354104, 54.563931980863465 ], [ 9.404063790839764, 54.563958811787586 ], [ 9.403840316066512, 54.564251153247262 ], [ 9.403510599637395, 54.564501517587473 ], [ 9.403142473052583, 54.56481382756543 ], [ 9.402803139307322, 54.565136962942553 ], [ 9.402493539555659, 54.565470028151921 ], [ 9.402214532608161, 54.565812100083981 ], [ 9.399560669707771, 54.569299896465935 ], [ 9.399312178607175, 54.56965125427562 ], [ 9.399095969834789, 54.570009746981036 ], [ 9.39891264771062, 54.57037437398904 ], [ 9.398762724807536, 54.570744117558093 ], [ 9.398646620511325, 54.571117945637667 ], [ 9.39856465984032, 54.571494814748043 ], [ 9.398528144419902, 54.571785526561314 ], [ 9.398274341626969, 54.572251385104678 ], [ 9.398166799763148, 54.572351743687577 ], [ 9.397851062580784, 54.572684342182811 ], [ 9.397565994781504, 54.573026163603267 ], [ 9.397312392610752, 54.57337625411482 ], [ 9.397090964567026, 54.573733636784155 ], [ 9.396902329416884, 54.574097314303309 ], [ 9.39674701445964, 54.574466271771186 ], [ 9.396625454046653, 54.574839479524663 ], [ 9.395683351574752, 54.578217827711917 ], [ 9.39559606185844, 54.57859321458438 ], [ 9.395542927381021, 54.578970751029793 ], [ 9.395524096580894, 54.579349389088321 ], [ 9.39553962268376, 54.579728077713341 ], [ 9.395562495439377, 54.579901405560769 ], [ 9.395514180778651, 54.58007367959776 ], [ 9.395377833668125, 54.580259670649475 ], [ 9.395150367442534, 54.580622994677448 ], [ 9.394956848133537, 54.580992895426995 ], [ 9.39479783614907, 54.581368303487956 ], [ 9.394673792174325, 54.581748133498557 ], [ 9.393937283388826, 54.584389165346536 ], [ 9.393850493935883, 54.584761884317771 ], [ 9.393797381317707, 54.585136729364223 ], [ 9.393778091810814, 54.585512674686903 ], [ 9.393779668867321, 54.585553326743927 ], [ 9.393266467133966, 54.586814300053483 ], [ 9.393136224148366, 54.587175468412106 ], [ 9.393038057793719, 54.587540042009074 ], [ 9.392972227506521, 54.587907060542292 ], [ 9.392938907564941, 54.588275557243854 ], [ 9.392938186620613, 54.588644561426136 ], [ 9.392970067455868, 54.589013101038525 ], [ 9.393034466967096, 54.589380205228167 ], [ 9.393131216374416, 54.589744906897579 ], [ 9.393260061657175, 54.590106245252962 ], [ 9.393329611396855, 54.590260856682391 ], [ 9.393360218894998, 54.590989623392311 ], [ 9.393307778255284, 54.591210039570356 ], [ 9.393252457563909, 54.591591208016261 ], [ 9.393232124804188, 54.591973545563718 ], [ 9.393246838515415, 54.592355969924384 ], [ 9.393296558029522, 54.592737398533885 ], [ 9.393381143575084, 54.593116751616627 ], [ 9.393500356661955, 54.593492955242738 ], [ 9.393653860745633, 54.593864944369074 ], [ 9.393841222169526, 54.594231665855098 ], [ 9.395382064945156, 54.596977219080884 ], [ 9.395600078947602, 54.597333559278084 ], [ 9.395850064355662, 54.597682750185626 ], [ 9.39613133024125, 54.598023825553938 ], [ 9.396377834789668, 54.598286339354679 ], [ 9.39730461891166, 54.600296132590529 ], [ 9.397483823676984, 54.600648440174041 ], [ 9.39769379302612, 54.600994973155345 ], [ 9.397933979473171, 54.601334826686482 ], [ 9.398203756585405, 54.601667113338323 ], [ 9.398502420612211, 54.601990965419311 ], [ 9.398829192316597, 54.602305537242664 ], [ 9.398939859154035, 54.602400713558026 ], [ 9.399380076303578, 54.603171730795694 ], [ 9.39942639243408, 54.603489200883146 ], [ 9.39951652548671, 54.603867148900584 ], [ 9.399641072076022, 54.604241788566327 ], [ 9.399799682325513, 54.604612064610095 ], [ 9.399991910375295, 54.604976934024521 ], [ 9.401862321604467, 54.608216827139195 ], [ 9.402084277490555, 54.608570284198585 ], [ 9.402337785395479, 54.608916517396992 ], [ 9.402622151836692, 54.609254578516307 ], [ 9.402936598763555, 54.609583541696026 ], [ 9.403026310411649, 54.60966680548438 ], [ 9.403035564907706, 54.60973117795681 ], [ 9.403122905243753, 54.610103106381608 ], [ 9.403243571400871, 54.610471881774558 ], [ 9.4033972353193, 54.610836498787855 ], [ 9.403583478949885, 54.611195963383608 ], [ 9.405510392166404, 54.614590705244282 ], [ 9.405730033457813, 54.614945960170601 ], [ 9.405981499399639, 54.615294035193621 ], [ 9.406264097613594, 54.615633970823069 ], [ 9.406577049846272, 54.615964829981998 ], [ 9.406919494107532, 54.616285700591675 ], [ 9.406931400813146, 54.616295649791446 ], [ 9.407134635462359, 54.616648710087674 ], [ 9.407191066549103, 54.617018076863879 ], [ 9.407282217123093, 54.617391154500318 ], [ 9.407406925626956, 54.617760948082108 ], [ 9.407564850371333, 54.618126441721898 ], [ 9.407755558383224, 54.618486631318177 ], [ 9.409876744334014, 54.622147863245132 ], [ 9.410096580120685, 54.622497099915648 ], [ 9.410315234391241, 54.62279558370421 ], [ 9.410397088619368, 54.623122567398802 ], [ 9.41034340195859, 54.623375234915137 ], [ 9.410297490099808, 54.623762704214293 ], [ 9.410026630559603, 54.62753516152349 ], [ 9.410016612351571, 54.627912021627445 ], [ 9.41004064821731, 54.628288668455276 ], [ 9.410098673039693, 54.62866406684725 ], [ 9.410190528277083, 54.629037185046478 ], [ 9.410279374455168, 54.629299127474695 ], [ 9.410208121086486, 54.629443189479758 ], [ 9.41006241262291, 54.629808752378914 ], [ 9.409949773153024, 54.630178227570113 ], [ 9.40987051034098, 54.630550608827939 ], [ 9.409824840973355, 54.630924881985052 ], [ 9.40956024027542, 54.634366039391118 ], [ 9.409548346865106, 54.634745613683179 ], [ 9.409571009693273, 54.635125022954618 ], [ 9.409628166531281, 54.635503209280564 ], [ 9.409719658958451, 54.635879118116975 ], [ 9.409845232793206, 54.636251701241548 ], [ 9.409847075553687, 54.636255960620971 ], [ 9.409800254295428, 54.636879816898812 ], [ 9.409670291186073, 54.637151988119697 ], [ 9.409529645069219, 54.637520876596845 ], [ 9.409422598260736, 54.63789354123503 ], [ 9.409349447260643, 54.638268953042711 ], [ 9.409310394995964, 54.638646075414513 ], [ 9.409305550250133, 54.63902386699317 ], [ 9.409370154313798, 54.641012572584593 ], [ 9.409270562610185, 54.641267162880411 ], [ 9.409162779030762, 54.64162611645699 ], [ 9.409086486929496, 54.641987776133611 ], [ 9.409041883080215, 54.642351213096831 ], [ 9.408746593060457, 54.646094286550735 ], [ 9.408733952240713, 54.646474197336765 ], [ 9.408755940784239, 54.64685396479527 ], [ 9.408812498234406, 54.647232528076366 ], [ 9.408903467558471, 54.647608829664655 ], [ 9.409028595575599, 54.647981818333783 ], [ 9.409043425270326, 54.648016213947059 ], [ 9.409017052465337, 54.648370582456479 ], [ 9.408878373240904, 54.648650669669102 ], [ 9.408731672666253, 54.649018923507505 ], [ 9.408618545119927, 54.649391138963033 ], [ 9.408539304138573, 54.64976628746885 ], [ 9.40849416963853, 54.650143332324674 ], [ 9.408195140596526, 54.654171526422687 ], [ 9.408184222726339, 54.654548701695226 ], [ 9.408207440458176, 54.654925689786708 ], [ 9.408264730817438, 54.655301452812068 ], [ 9.408352930578053, 54.655662644525655 ], [ 9.408029383935448, 54.657508557362263 ], [ 9.407980745040012, 54.657883062066553 ], [ 9.407965904294171, 54.658258528331693 ], [ 9.407984903129849, 54.65863393158962 ], [ 9.408037690636075, 54.65900824741604 ], [ 9.408124123687706, 54.659380454326204 ], [ 9.408238084918832, 54.659731420684821 ], [ 9.40819733799017, 54.660386451602527 ], [ 9.408042913364845, 54.660706704018899 ], [ 9.407900866156954, 54.661074741129958 ], [ 9.407792303254043, 54.661446589939573 ], [ 9.407717524285562, 54.661821227313673 ], [ 9.407676735944648, 54.662197622417366 ], [ 9.407670051409228, 54.662574739550728 ], [ 9.407737519821028, 54.665025492424192 ], [ 9.40762231224118, 54.665318719797263 ], [ 9.407509346286563, 54.665699899812388 ], [ 9.407431905538653, 54.666084049507809 ], [ 9.407390215104751, 54.666470057225581 ], [ 9.407221342330054, 54.66921666122316 ], [ 9.407215966729503, 54.669512277824424 ], [ 9.406854756328794, 54.670277897180235 ], [ 9.406702176173146, 54.670637443282935 ], [ 9.40658173410271, 54.671001065239977 ], [ 9.40658118935972, 54.671003335856845 ], [ 9.406408830601963, 54.671144954098288 ], [ 9.406062079217476, 54.671464182756701 ], [ 9.405744689687996, 54.671793511879201 ], [ 9.40545753626286, 54.672132035078654 ], [ 9.405201410035348, 54.672478820640947 ], [ 9.404977016758467, 54.672832914087557 ], [ 9.403677512971598, 54.675062474549705 ], [ 9.403666876546954, 54.67507125491435 ], [ 9.403325055606587, 54.675387055825134 ], [ 9.40301193579254, 54.675712699201789 ], [ 9.402728359444597, 54.67604730974066 ], [ 9.402475089549641, 54.676389988013199 ], [ 9.400409877393754, 54.679397128905521 ], [ 9.400185947146721, 54.679749710392599 ], [ 9.399994105416107, 54.680108588502577 ], [ 9.399834876857852, 54.680472783362532 ], [ 9.399810676909578, 54.680543461613972 ], [ 9.398828031179015, 54.681719042961419 ], [ 9.39870630796368, 54.681875256506693 ], [ 9.396839899173239, 54.683120404721336 ], [ 9.396481870299217, 54.683372431171144 ], [ 9.396023676551248, 54.683576298105251 ], [ 9.395609899891337, 54.683683442207602 ], [ 9.395031145701507, 54.683854904948582 ], [ 9.394468677761905, 54.684043689737059 ], [ 9.393924039121112, 54.684249278749085 ], [ 9.393398723989158, 54.684471108059583 ], [ 9.388304361125295, 54.686742813388967 ], [ 9.387800326061562, 54.686979968843211 ], [ 9.387318386585624, 54.687232071691454 ], [ 9.386859862067062, 54.687498431991386 ], [ 9.386426007867897, 54.687778320767613 ], [ 9.38617214110659, 54.687960417397143 ], [ 9.385704781222334, 54.688169183445524 ], [ 9.385241264686066, 54.688289825260696 ], [ 9.384662156139745, 54.688462237468983 ], [ 9.384099448413203, 54.688652005563192 ], [ 9.383554689989706, 54.688858607412172 ], [ 9.383029380033108, 54.689081474559664 ], [ 9.382524964265274, 54.689319993786334 ], [ 9.379462407488234, 54.690847325645827 ], [ 9.37895126231637, 54.690998772517389 ], [ 9.378395699809396, 54.691184966356722 ], [ 9.377857491909952, 54.691387546938067 ], [ 9.377338077710638, 54.691605972690603 ], [ 9.372519092922897, 54.693744608101653 ], [ 9.372013864542716, 54.693981208640871 ], [ 9.371530695961129, 54.694232796618209 ], [ 9.371070910953565, 54.694498682957011 ], [ 9.370635769323409, 54.694778139404761 ], [ 9.370294583549526, 54.695021760378168 ], [ 9.370142099779621, 54.695089685701419 ], [ 9.369622651330118, 54.69522430090344 ], [ 9.369043542841061, 54.695396003349941 ], [ 9.368480756573387, 54.695585042629759 ], [ 9.367935838146455, 54.695790899650866 ], [ 9.367410284181709, 54.696013009132294 ], [ 9.362500116909738, 54.698204383027246 ], [ 9.361996443520896, 54.698441554111582 ], [ 9.361514859592411, 54.698693648872883 ], [ 9.361056682002969, 54.698959978185457 ], [ 9.360623163720929, 54.699239813998076 ], [ 9.360323631271314, 54.699454781755705 ], [ 9.360193407989453, 54.699512995286028 ], [ 9.359659784621938, 54.699651027973474 ], [ 9.35908061897673, 54.699822445889197 ], [ 9.358517745582654, 54.70001119481833 ], [ 9.357972709208859, 54.70021675683121 ], [ 9.357447005745577, 54.700438567854505 ], [ 9.352173809352996, 54.702788120667371 ], [ 9.351669591189818, 54.70302516850407 ], [ 9.351187463104219, 54.703277160444493 ], [ 9.35072874445477, 54.70354340712526 ], [ 9.350460388221412, 54.70371637903461 ], [ 9.347697488795717, 54.70479465049695 ], [ 9.347161737840082, 54.705015900507867 ], [ 9.346646976737446, 54.705253275541018 ], [ 9.346154651361553, 54.705506109026231 ], [ 9.34568614466092, 54.705773690971803 ], [ 9.345242772775093, 54.706055269955762 ], [ 9.344854620663789, 54.706329667927434 ], [ 9.344391416291742, 54.706533318428512 ], [ 9.344060405988657, 54.706619323198481 ], [ 9.343475908278664, 54.706793255821637 ], [ 9.34290811701211, 54.706984850498401 ], [ 9.342358622418663, 54.707193570707091 ], [ 9.341828963560998, 54.707418831960638 ], [ 9.34132062402732, 54.707660003441362 ], [ 9.338812742003444, 54.70891541844783 ], [ 9.33825565919445, 54.709080753408266 ], [ 9.337695847618461, 54.709268838430518 ], [ 9.337153717747531, 54.709473556363321 ], [ 9.336630742278921, 54.709694351194457 ], [ 9.331829681142663, 54.711834242400769 ], [ 9.331307910345119, 54.712080091016169 ], [ 9.330809894445261, 54.712341937140145 ], [ 9.33033709502633, 54.712619012551393 ], [ 9.329890899774185, 54.712910504331731 ], [ 9.329500646597786, 54.71319511645433 ], [ 9.328983278298573, 54.713435558098162 ], [ 9.328825607229149, 54.713476124832788 ], [ 9.3282539389375, 54.713644170147681 ], [ 9.327698008381308, 54.713829071526455 ], [ 9.327159297039096, 54.714030336306791 ], [ 9.32289505055099, 54.715715146189609 ], [ 9.322747144047126, 54.71571353006749 ], [ 9.32210370618165, 54.715725816051595 ], [ 9.321462231878256, 54.715757386890964 ], [ 9.320824444207856, 54.715808157784089 ], [ 9.32019205635455, 54.715877992355544 ], [ 9.319566767020873, 54.715966703021742 ], [ 9.317012540149783, 54.716369941015905 ], [ 9.316881063357984, 54.716369836211108 ], [ 9.316238639054868, 54.716388603971168 ], [ 9.315598754059279, 54.716426600559856 ], [ 9.314963124207011, 54.716483724091674 ], [ 9.314333453942048, 54.716559821392245 ], [ 9.313711431753086, 54.716654688408347 ], [ 9.313098725652502, 54.716768070754291 ], [ 9.312496978709817, 54.716899664392969 ], [ 9.311907804651517, 54.717049116449971 ], [ 9.311332783538967, 54.717216026158319 ], [ 9.310773457535944, 54.717399945931668 ], [ 9.310231326777044, 54.717600382562857 ], [ 9.309707845348035, 54.717816798544661 ], [ 9.309204417388813, 54.718048613509346 ], [ 9.308722393329454, 54.718295205782965 ], [ 9.308263066269365, 54.718555914050604 ], [ 9.307827668509242, 54.718830039127653 ], [ 9.307417368245162, 54.719116845832993 ], [ 9.307033266433589, 54.719415564958453 ], [ 9.306469926845915, 54.719878219331456 ], [ 9.306363068196621, 54.719928424035544 ], [ 9.305881977826321, 54.720179638870725 ], [ 9.305424167655325, 54.720445033169149 ], [ 9.304990883583073, 54.720723884948804 ], [ 9.304583304860394, 54.721015435602496 ], [ 9.304202540879166, 54.721318891959541 ], [ 9.303849628151063, 54.721633428441294 ], [ 9.303525527483602, 54.721958189305319 ], [ 9.30323112136124, 54.722292290971403 ], [ 9.302967211538647, 54.722634824423714 ], [ 9.302734516852832, 54.722984857682277 ], [ 9.302533671260063, 54.72334143833703 ], [ 9.302480636365171, 54.723455461599031 ] ] ] } }
]
}
