{
"type": "FeatureCollection",
"name": "trassenachse_gesamt",
"crs": { "type": "name", "properties": { "name": "urn:ogc:def:crs:OGC:1.3:CRS84" } },
"features": [
{ "type": "Feature", "properties": { "layer": "trassenachse_gesamt" }, "geometry": { "type": "LineString", "coordinates": [ [ 9.726217296211319, 54.288728052581753, 0.0 ], [ 9.726072793139659, 54.288819795064775, 0.0 ], [ 9.725877186874479, 54.288860493742519, 0.0 ], [ 9.72571606410566, 54.288939510491808, 0.0 ], [ 9.728395186847125, 54.29002873938871, 0.0 ], [ 9.728709145387265, 54.289884024051581, 0.0 ], [ 9.73137012684758, 54.292012842995241, 0.0 ], [ 9.731651165714972, 54.291889321057944, 0.0 ], [ 9.734259897983149, 54.294218587251557, 0.0 ], [ 9.734006562071206, 54.294324625206102, 0.0 ], [ 9.737056134415077, 54.29656972375431, 0.0 ], [ 9.737336157310676, 54.296430964479953, 0.0 ], [ 9.741746536024952, 54.299255064206449, 0.0 ], [ 9.741459278244239, 54.299408084876916, 0.0 ], [ 9.745159475195113, 54.301748352654556, 0.0 ], [ 9.745405940340058, 54.301641438028469, 0.0 ], [ 9.747352291878242, 54.303862008408196, 0.0 ], [ 9.747646799648905, 54.303770368164685, 0.0 ], [ 9.749781454662022, 54.306691993518257, 0.0 ], [ 9.749462265761048, 54.306776297924252, 0.0 ], [ 9.751394861336266, 54.309459309688791, 0.0 ], [ 9.751796924507319, 54.30943006718671, 0.0 ], [ 9.751595135027305, 54.312325734024974, 0.0 ], [ 9.751902789284632, 54.31238671723753, 0.0 ], [ 9.749427174566023, 54.314438228175774, 0.0 ], [ 9.748856794149974, 54.314576173009115, 0.0 ], [ 9.746164139333814, 54.316769423554199, 0.0 ], [ 9.746485430061584, 54.316901928825708, 0.0 ], [ 9.743594995258119, 54.318937993607562, 0.0 ], [ 9.74356077239629, 54.319297153937136, 0.0 ], [ 9.742014570592458, 54.322060142971836, 0.0 ], [ 9.741616098174381, 54.321998818451377, 0.0 ], [ 9.741083367339368, 54.325277780014794, 0.0 ], [ 9.740615964093537, 54.325459231494186, 0.0 ], [ 9.739710302852993, 54.328668723891553, 0.0 ], [ 9.740010001009425, 54.32896872174689, 0.0 ], [ 9.737726525676608, 54.331744685206608, 0.0 ], [ 9.73803209801045, 54.3318470088577, 0.0 ], [ 9.735035758824454, 54.334137128353625, 0.0 ], [ 9.734765646271136, 54.334019624212139, 0.0 ], [ 9.731483381127754, 54.33651276749783, 0.0 ], [ 9.731788209806719, 54.336648581608699, 0.0 ], [ 9.72792609248922, 54.339244365606341, 0.0 ], [ 9.728181753765258, 54.339409124533695, 0.0 ], [ 9.724307004340707, 54.340745097852121, 0.0 ], [ 9.724425977821504, 54.340918599476282, 0.0 ], [ 9.718871580617549, 54.34151379250283, 0.0 ], [ 9.718800804390778, 54.341293088356828, 0.0 ], [ 9.712571450292483, 54.342157716613009, 0.0 ], [ 9.712497396190983, 54.341952053533419, 0.0 ], [ 9.70744936288931, 54.342465942595446, 0.0 ], [ 9.707512579542872, 54.342687975635393, 0.0 ], [ 9.701519969711905, 54.343439280114197, 0.0 ], [ 9.701435711512108, 54.34323529163261, 0.0 ], [ 9.694958539573738, 54.344457582967941, 0.0 ], [ 9.694511465328127, 54.344274273766153, 0.0 ], [ 9.688799334243553, 54.345162622131021, 0.0 ], [ 9.688889966015017, 54.345364649840363, 0.0 ], [ 9.683583595011223, 54.346183551002987, 0.0 ], [ 9.683487631068235, 54.345969574068448, 0.0 ], [ 9.677591070497984, 54.346867870794732, 0.0 ], [ 9.677690531452351, 54.347089716062285, 0.0 ], [ 9.671042026885583, 54.348118556287147, 0.0 ], [ 9.670932881186294, 54.34787502252486, 0.0 ], [ 9.664306614631077, 54.348900394287043, 0.0 ], [ 9.664405501091402, 54.349121115967328, 0.0 ], [ 9.658351773214289, 54.350046331601234, 0.0 ], [ 9.658253068706617, 54.349825944000692, 0.0 ], [ 9.651894414637599, 54.35079124049863, 0.0 ], [ 9.651998472731833, 54.351023662507089, 0.0 ], [ 9.645674026681206, 54.351750567048512, 0.0 ], [ 9.645384078516022, 54.352033429844994, 0.0 ], [ 9.639396840020936, 54.352958990569299, 0.0 ], [ 9.639268342035573, 54.352725064259303, 0.0 ], [ 9.632920929291156, 54.354665115790802, 0.0 ], [ 9.632421586012534, 54.354571596264229, 0.0 ], [ 9.627835887759359, 54.356455878729598, 0.0 ], [ 9.627632838620173, 54.356792145593239, 0.0 ], [ 9.622483346551435, 54.358172991135589, 0.0 ], [ 9.622334319608107, 54.357972065532451, 0.0 ], [ 9.616937720556145, 54.359468311035904, 0.0 ], [ 9.61641824955252, 54.359380348538743, 0.0 ], [ 9.610723237801757, 54.361146969866347, 0.0 ], [ 9.610930953928895, 54.361372310307914, 0.0 ], [ 9.604967407644269, 54.363229273270797, 0.0 ], [ 9.604784471080981, 54.363030786180261, 0.0 ], [ 9.598948552745199, 54.364851003651857, 0.0 ], [ 9.599151257287794, 54.365070974761849, 0.0 ], [ 9.593079282776248, 54.366970503391627, 0.0 ], [ 9.592888052588984, 54.36676295190501, 0.0 ], [ 9.587077081354071, 54.36858781568035, 0.0 ], [ 9.586947787726738, 54.368906464491992, 0.0 ], [ 9.581103315591145, 54.370356537624829, 0.0 ], [ 9.580572329505271, 54.370224273084155, 0.0 ], [ 9.575075441236928, 54.371181145682151, 0.0 ], [ 9.574838465373389, 54.37147501609553, 0.0 ], [ 9.568352908884712, 54.372070529605054, 0.0 ], [ 9.568410380078909, 54.372285945540028, 0.0 ], [ 9.561433303248483, 54.372817763061512, 0.0 ], [ 9.561037369002099, 54.372598571007721, 0.0 ], [ 9.555163692401544, 54.373053452963163, 0.0 ], [ 9.554783678309212, 54.373298241376929, 0.0 ], [ 9.548733982129072, 54.373938565510763, 0.0 ], [ 9.548657629136969, 54.373712199738577, 0.0 ], [ 9.54217987620553, 54.374550920912391, 0.0 ], [ 9.542258006062596, 54.374758910534666, 0.0 ], [ 9.536208608848614, 54.375533239431554, 0.0 ], [ 9.536130532587249, 54.375325311717582, 0.0 ], [ 9.530201984567714, 54.3763010612332, 0.0 ], [ 9.529727321405778, 54.376136100372101, 0.0 ], [ 9.524182984415912, 54.376837826049766, 0.0 ], [ 9.52426614937445, 54.377059478876099, 0.0 ], [ 9.518528475096122, 54.377565800760415, 0.0 ], [ 9.518265634466994, 54.377829047973123, 0.0 ], [ 9.512886713917547, 54.379381169105258, 0.0 ], [ 9.512381026120478, 54.379321319667824, 0.0 ], [ 9.507575343626755, 54.38159978104747, 0.0 ], [ 9.507826218278961, 54.381779769343055, 0.0 ], [ 9.502471236341675, 54.384339110800859, 0.0 ], [ 9.502190355884828, 54.384141137928786, 0.0 ], [ 9.497169523945013, 54.386550805066776, 0.0 ], [ 9.497403604728124, 54.38671876183804, 0.0 ], [ 9.492350109443842, 54.388822158404729, 0.0 ], [ 9.492358849634972, 54.389140973055291, 0.0 ], [ 9.486841389116377, 54.391753423957638, 0.0 ], [ 9.486309374735132, 54.39169184996301, 0.0 ], [ 9.480986906097774, 54.39419010528259, 0.0 ], [ 9.481096261507313, 54.394493313837884, 0.0 ], [ 9.477821408835824, 54.397729748119218, 0.0 ], [ 9.477821408835824, 54.397729748119218, 0.0 ], [ 9.477821408835824, 54.397729748119218, 0.0 ], [ 9.47737851241018, 54.397622755329628, 0.0 ], [ 9.47737851241018, 54.397622755329628, 0.0 ], [ 9.47737851241018, 54.397622755329628, 0.0 ], [ 9.476312501506598, 54.400557029136323, 0.0 ], [ 9.476312501506598, 54.400557029136323, 0.0 ], [ 9.476312501506598, 54.400557029136323, 0.0 ], [ 9.476312501506598, 54.400557029136323, 0.0 ], [ 9.476312501506598, 54.400557029136323, 0.0 ], [ 9.476312501506598, 54.400557029136323, 0.0 ], [ 9.476312501506598, 54.400557029136323, 0.0 ], [ 9.476312501506598, 54.400557029136323, 0.0 ], [ 9.476312501506598, 54.400557029136323, 0.0 ], [ 9.476746788949777, 54.400609298236276, 0.0 ], [ 9.476746788949777, 54.400609298236276, 0.0 ], [ 9.476746788949777, 54.400609298236276, 0.0 ], [ 9.476746788949777, 54.400609298236276, 0.0 ], [ 9.476746788949777, 54.400609298236276, 0.0 ], [ 9.476746788949777, 54.400609298236276, 0.0 ], [ 9.476746788949777, 54.400609298236276, 0.0 ], [ 9.476746788949777, 54.400609298236276, 0.0 ], [ 9.476746788949777, 54.400609298236276, 0.0 ], [ 9.475379045535023, 54.403234089713756, 0.0 ], [ 9.475379045535023, 54.403234089713756, 0.0 ], [ 9.475379045535023, 54.403234089713756, 0.0 ], [ 9.475379045535023, 54.403234089713756, 0.0 ], [ 9.475379045535023, 54.403234089713756, 0.0 ], [ 9.475379045535023, 54.403234089713756, 0.0 ], [ 9.475379045535023, 54.403234089713756, 0.0 ], [ 9.475379045535023, 54.403234089713756, 0.0 ], [ 9.475379045535023, 54.403234089713756, 0.0 ], [ 9.475788118696009, 54.403312908386901, 0.0 ], [ 9.475788118696009, 54.403312908386901, 0.0 ], [ 9.475788118696009, 54.403312908386901, 0.0 ], [ 9.475788118696009, 54.403312908386901, 0.0 ], [ 9.475788118696009, 54.403312908386901, 0.0 ], [ 9.475788118696009, 54.403312908386901, 0.0 ], [ 9.475788118696009, 54.403312908386901, 0.0 ], [ 9.475788118696009, 54.403312908386901, 0.0 ], [ 9.475788118696009, 54.403312908386901, 0.0 ], [ 9.474144743577131, 54.40567887430462, 0.0 ], [ 9.473741965280631, 54.405571420342717, 0.0 ], [ 9.471071123844586, 54.408074926881248, 0.0 ], [ 9.471398899046996, 54.408275432955115, 0.0 ], [ 9.467781324076284, 54.409375855962708, 0.0 ], [ 9.468001659760805, 54.409627942405663, 0.0 ], [ 9.461501797393247, 54.410485394951827, 0.0 ], [ 9.461410359949339, 54.410254958990542, 0.0 ], [ 9.455399875140035, 54.411312043989433, 0.0 ], [ 9.455208781091963, 54.411089920667543, 0.0 ], [ 9.45135152329415, 54.41314040082149, 0.0 ], [ 9.450838760737819, 54.413150490551878, 0.0 ], [ 9.447478213356414, 54.416581443399693, 0.0 ], [ 9.447820369969431, 54.416696013993544, 0.0 ], [ 9.44459411432843, 54.419978541240951, 0.0 ], [ 9.4442433273971, 54.419861066864897, 0.0 ], [ 9.440907197608791, 54.423246276785036, 0.0 ], [ 9.441261533806346, 54.423364931847424, 0.0 ], [ 9.437822961226415, 54.426862767088991, 0.0 ], [ 9.437458501370031, 54.426740707932566, 0.0 ], [ 9.434359318049417, 54.429916118696802, 0.0 ], [ 9.434679253619514, 54.430023269154397, 0.0 ], [ 9.431598366723234, 54.433179561563485, 0.0 ], [ 9.431235098848811, 54.433057895715102, 0.0 ], [ 9.428227025797311, 54.436142804829096, 0.0 ], [ 9.428541120981132, 54.436247983540042, 0.0 ], [ 9.426334310260607, 54.43846458365848, 0.0 ], [ 9.426052121206377, 54.438370079060945, 0.0 ], [ 9.424343081040409, 54.440109762336718, 0.0 ], [ 9.424372606443495, 54.440463662715302, 0.0 ], [ 9.423537802955662, 54.443204905812451, 0.0 ], [ 9.423170365020093, 54.44318503684778, 0.0 ], [ 9.423429162934305, 54.446421383409032, 0.0 ], [ 9.423748668624341, 54.446415763570229, 0.0 ], [ 9.424045788697708, 54.449942468070027, 0.0 ], [ 9.423644400395977, 54.450158703998262, 0.0 ], [ 9.423923993186062, 54.453968131518664, 0.0 ], [ 9.424320427869027, 54.453958356910569, 0.0 ], [ 9.424628717975144, 54.457971283261188, 0.0 ], [ 9.424199172282185, 54.457984113755508, 0.0 ], [ 9.424506597914919, 54.461965054890435, 0.0 ], [ 9.424899480015872, 54.461955368078613, 0.0 ], [ 9.425200172190948, 54.465884133008799, 0.0 ], [ 9.424777186174051, 54.465894553136451, 0.0 ], [ 9.425076853395071, 54.469799995407399, 0.0 ], [ 9.425467829462484, 54.469790355337253, 0.0 ], [ 9.425768089687194, 54.473694965832507, 0.0 ], [ 9.425344630767492, 54.473705406710884, 0.0 ], [ 9.425638715176659, 54.477364829673121, 0.0 ], [ 9.426005401784169, 54.477355788718114, 0.0 ], [ 9.426259945285937, 54.480706536986311, 0.0 ], [ 9.425872012961051, 54.480718360098919, 0.0 ], [ 9.426124039427737, 54.483946570625946, 0.0 ], [ 9.426509661301612, 54.484190679010119, 0.0 ], [ 9.426882440991882, 54.487662827951844, 0.0 ], [ 9.426518754050546, 54.487907708652365, 0.0 ], [ 9.426996394878778, 54.491762289908259, 0.0 ], [ 9.427422212906613, 54.491741270104008, 0.0 ], [ 9.427935180319395, 54.495781859631109, 0.0 ], [ 9.427533000060945, 54.495797323050652, 0.0 ], [ 9.428046111320631, 54.499837038209456, 0.0 ], [ 9.428472443777082, 54.499818257696326, 0.0 ], [ 9.428983539167971, 54.503847211386301, 0.0 ], [ 9.428582557012128, 54.50386487528926, 0.0 ], [ 9.429076136387012, 54.507648390354142, 0.0 ], [ 9.429514402583298, 54.507833636770926, 0.0 ], [ 9.431099118599398, 54.510600864676526, 0.0 ], [ 9.430723369200146, 54.510700596954798, 0.0 ], [ 9.433656462431953, 54.513385197941737, 0.0 ], [ 9.434001694688508, 54.513311988487743, 0.0 ], [ 9.433978817681631, 54.516037504126942, 0.0 ], [ 9.434446257778353, 54.516048658960074, 0.0 ], [ 9.432555794910488, 54.519563590074235, 0.0 ], [ 9.432132627330091, 54.519493765269338, 0.0 ], [ 9.43088369160855, 54.522972992347796, 0.0 ], [ 9.430399991408184, 54.523122635863551, 0.0 ], [ 9.429788743343224, 54.527192579967888, 0.0 ], [ 9.430175779011423, 54.527215887852833, 0.0 ], [ 9.429541094478232, 54.531206107787973, 0.0 ], [ 9.429107286989389, 54.531181904948497, 0.0 ], [ 9.428464815457854, 54.535203640257244, 0.0 ], [ 9.428856081911984, 54.53522547787562, 0.0 ], [ 9.428244953341489, 54.538949010748318, 0.0 ], [ 9.427846866803469, 54.53892679252322, 0.0 ], [ 9.42723490155921, 54.542658435926903, 0.0 ], [ 9.427603289589642, 54.54289517818566, 0.0 ], [ 9.426950099291117, 54.546765226172944, 0.0 ], [ 9.426589091351746, 54.546747334724316, 0.0 ], [ 9.425904968269119, 54.55075139500471, 0.0 ], [ 9.426309518325874, 54.55078750710797, 0.0 ], [ 9.424546812289938, 54.554256951480156, 0.0 ], [ 9.424868851763057, 54.554321929259551, 0.0 ], [ 9.422298197291266, 54.55775736388064, 0.0 ], [ 9.421929217722877, 54.557662831050941, 0.0 ], [ 9.419477349419628, 54.561454163544255, 0.0 ], [ 9.418962968777173, 54.561574720231157, 0.0 ], [ 9.416289803112324, 54.565057194888801, 0.0 ], [ 9.416684690021215, 54.565158347452467, 0.0 ], [ 9.413891679674746, 54.568813391408725, 0.0 ], [ 9.413531553653646, 54.568718676311065, 0.0 ], [ 9.410878470650994, 54.572206717832387, 0.0 ], [ 9.411127586611549, 54.572483259969992, 0.0 ], [ 9.409193172614088, 54.57603577448414, 0.0 ], [ 9.40884207808981, 54.575988541020244, 0.0 ], [ 9.407900960608419, 54.579366981953122, 0.0 ], [ 9.408243794076904, 54.579397170717648, 0.0 ], [ 9.407323767084655, 54.582681202145345, 0.0 ], [ 9.406892523849093, 54.582897050421344, 0.0 ], [ 9.406156785396833, 54.585538154787706, 0.0 ], [ 9.406492525978155, 54.585569948142812, 0.0 ], [ 9.405314125915568, 54.58846758171773, 0.0 ], [ 9.405647555490972, 54.588701245532739, 0.0 ], [ 9.405773031329753, 54.591667465259725, 0.0 ], [ 9.40561274811977, 54.592003589739996, 0.0 ], [ 9.407154297074479, 54.594748992925197, 0.0 ], [ 9.407531013854681, 54.594675888631471, 0.0 ], [ 9.409265993384256, 54.59843608952449, 0.0 ], [ 9.409782163553034, 54.598541465100503, 0.0 ], [ 9.411988245499728, 54.602403367353944, 0.0 ], [ 9.411734109195921, 54.602691935212171, 0.0 ], [ 9.413605346236732, 54.605931646700583, 0.0 ], [ 9.413960242080359, 54.605862748282362, 0.0 ], [ 9.415691829526899, 54.608878992639852, 0.0 ], [ 9.415347440505606, 54.608945842573064, 0.0 ], [ 9.417275224522285, 54.612340396942841, 0.0 ], [ 9.41767075386649, 54.612263618930527, 0.0 ], [ 9.419890995860117, 54.616118709780046, 0.0 ], [ 9.419497819785288, 54.616195031892659, 0.0 ], [ 9.421619938616539, 54.619856057850519, 0.0 ], [ 9.422137029024169, 54.62000866050834, 0.0 ], [ 9.423093674629564, 54.62382559909156, 0.0 ], [ 9.422677212602267, 54.624061311712175, 0.0 ], [ 9.422407496913467, 54.627833794479706, 0.0 ], [ 9.422819280815796, 54.627843200067879, 0.0 ], [ 9.42255735949448, 54.63125268443401, 0.0 ], [ 9.422205173985891, 54.631244623427186, 0.0 ], [ 9.4219416167569, 54.63468580583762, 0.0 ], [ 9.422354666447822, 54.634894866158213, 0.0 ], [ 9.422055594313568, 54.638895963179444, 0.0 ], [ 9.421698318442562, 54.638887795096252, 0.0 ], [ 9.421814766355297, 54.642439015038057, 0.0 ], [ 9.421425051317076, 54.642679161187068, 0.0 ], [ 9.42113089695828, 54.646422262605412, 0.0 ], [ 9.421570218887886, 54.646430057541401, 0.0 ], [ 9.421271304261074, 54.650463030814365, 0.0 ], [ 9.420881187533826, 54.650451863901985, 0.0 ], [ 9.420583381676412, 54.65448008619925, 0.0 ], [ 9.421021894990025, 54.654490102051675, 0.0 ], [ 9.420366697085049, 54.65823481357684, 0.0 ], [ 9.420724271237908, 54.658489830943132, 0.0 ], [ 9.420477970278899, 54.662468704108292, 0.0 ], [ 9.420070616134401, 54.662459391726209, 0.0 ], [ 9.420182997328265, 54.666496734339574, 0.0 ], [ 9.419785790072279, 54.666725466873892, 0.0 ], [ 9.41961775281619, 54.669472086553426, 0.0 ], [ 9.419939449892151, 54.66980046337769, 0.0 ], [ 9.418820564807232, 54.672173621589344, 0.0 ], [ 9.419116751702109, 54.67222528726198, 0.0 ], [ 9.417088175910459, 54.675216147702535, 0.0 ], [ 9.41673064781498, 54.675133037178128, 0.0 ], [ 9.414515636777011, 54.678935064398004, 0.0 ], [ 9.414003023711896, 54.679047721193143, 0.0 ], [ 9.411938530677425, 54.6820550559802, 0.0 ], [ 9.412269211450669, 54.68213191870931, 0.0 ], [ 9.40999602243093, 54.684852441371575, 0.0 ], [ 9.410176970587152, 54.685186879331766, 0.0 ], [ 9.406209290258269, 54.687834393301252, 0.0 ], [ 9.40647241661393, 54.687992108527851, 0.0 ], [ 9.401196530927011, 54.690339736484127, 0.0 ], [ 9.400968734259797, 54.690168006630543, 0.0 ], [ 9.395874083762582, 54.692440028489493, 0.0 ], [ 9.396094907752451, 54.692606503528253, 0.0 ], [ 9.39085857575351, 54.694945723126473, 0.0 ], [ 9.390623076371996, 54.694768167758781, 0.0 ], [ 9.385442299734265, 54.697352023695416, 0.0 ], [ 9.384887449322783, 54.697312643319727, 0.0 ], [ 9.380068188096043, 54.699451577297431, 0.0 ], [ 9.380306343433586, 54.699631685657941, 0.0 ], [ 9.375232411712149, 54.701892101556801, 0.0 ], [ 9.374987711443065, 54.701707555715281, 0.0 ], [ 9.370077267644504, 54.703899234918346, 0.0 ], [ 9.370308198666827, 54.704073412224098, 0.0 ], [ 9.365269524159949, 54.706326026207073, 0.0 ], [ 9.36501805495341, 54.706136326045971, 0.0 ], [ 9.359744559950762, 54.708486206434834, 0.0 ], [ 9.359986146678192, 54.708668455317294, 0.0 ], [ 9.354636606168789, 54.710756457906989, 0.0 ], [ 9.354594478043127, 54.711074433577778, 0.0 ], [ 9.349641087286445, 54.713252395874392, 0.0 ], [ 9.349441923322788, 54.713098416328307, 0.0 ], [ 9.344749508146807, 54.715447510751432, 0.0 ], [ 9.34420613453697, 54.715390940268726, 0.0 ], [ 9.339404801782374, 54.717531129834811, 0.0 ], [ 9.339317544169534, 54.717852050216862, 0.0 ], [ 9.334395902663939, 54.720139520920917, 0.0 ], [ 9.334395902663939, 54.720139520920917, 0.0 ], [ 9.334395902663939, 54.720139520920917, 0.0 ], [ 9.334160532965722, 54.719968368136691, 0.0 ], [ 9.334160532965722, 54.719968368136691, 0.0 ], [ 9.334160532965722, 54.719968368136691, 0.0 ], [ 9.329163727049819, 54.721942718061996, 0.0 ], [ 9.329385525562458, 54.722189277272157, 0.0 ], [ 9.322952338298073, 54.723193770874019, 0.0 ], [ 9.322834723201593, 54.722902784751788, 0.0 ], [ 9.317404963357051, 54.723759922886622, 0.0 ], [ 9.317185634769601, 54.723557108080499, 0.0 ], [ 9.314800141702342, 54.725516555534135, 0.0 ], [ 9.314439682234031, 54.72539031073083, 0.0 ], [ 9.313639113911655, 54.727310854975997, 0.0 ], [ 9.313482688966511, 54.727295359418441, 0.0 ], [ 9.313283197749927, 54.727288669808658, 0.0 ], [ 9.313077198406116, 54.727201944219466, 0.0 ] ] } }
]
}
