{
"type": "FeatureCollection",
"name": "entities",
"crs": { "type": "name", "properties": { "name": "urn:ogc:def:crs:OGC:1.3:CRS84" } },
"features": [
{ "type": "Feature", "properties": { "Layer": "WBK_WEG_BEST", "SubClasses": "AcDbEntity:AcDbHatch", "EntityHandle": "40001", "Text": "HONEY" }, "geometry": { "type": "Polygon", "coordinates": [ [ [ 9.397671832509776, 54.692683268047006 ], [ 9.397671541801621, 54.692653570623655 ], [ 9.397903947330924, 54.691430851491518 ], [ 9.398020648221125, 54.691455172837237 ], [ 9.397769870537836, 54.69268594638249 ], [ 9.397671832509776, 54.692683268047006 ] ] ] } },
{ "type": "Feature", "properties": { "Layer": "WBK_WEG_BEST", "SubClasses": "AcDbEntity:AcDbPolyline", "EntityHandle": "40002" }, "geometry": { "type": "LineString", "coordinates": [ [ 9.397671832509776, 54.692683268047006 ], [ 9.397671541801621, 54.692653570623655 ], [ 9.397903947330924, 54.691430851491518 ], [ 9.397903947330924, 54.691430851491518 ], [ 9.398020648221125, 54.691455172837237 ], [ 9.398020648221125, 54.691455172837237 ], [ 9.397769870537836, 54.69268594638249 ], [ 9.397671832509776, 54.692683268047006 ] ] } },
{ "type": "Feature", "properties": { "Layer": "WBK_WEG_BEST", "SubClasses": "AcDbEntity:AcDbHatch", "EntityHandle": "40005", "Text": "ACET-2D-HONEY" }, "geometry": { "type": "Polygon", "coordinates": [ [ [ 9.407854675099356, 54.689296967850233 ], [ 9.408370997315675, 54.687522165441251 ], [ 9.408368936669861, 54.687391145378079 ], [ 9.408480061811291, 54.687292497857037 ], [ 9.408444425964417, 54.68720521001368 ], [ 9.408285483033636, 54.687226989147447 ], [ 9.407758473637671, 54.689283885693207 ], [ 9.407854675099356, 54.689296967850233 ] ] ] } },
{ "type": "Feature", "properties": { "Layer": "WBK_WEG_BEST", "SubClasses": "AcDbEntity:AcDbPolyline", "EntityHandle": "40006" }, "geometry": { "type": "LineString", "coordinates": [ [ 9.407854675099356, 54.689296967850233 ], [ 9.408370997315675, 54.687522165441251 ], [ 9.408368936669861, 54.687391145378079 ], [ 9.408480061811291, 54.687292497857037 ], [ 9.408444425964417, 54.68720521001368 ], [ 9.408285483033636, 54.687226989147447 ], [ 9.407758473637671, 54.689283885693207 ], [ 9.407854675099356, 54.689296967850233 ] ] } },
{ "type": "Feature", "properties": { "Layer": "WBK_WEG_BEST", "SubClasses": "AcDbEntity:AcDbHatch", "EntityHandle": "400ED", "Text": "HONEY" }, "geometry": { "type": "Polygon", "coordinates": [ [ [ 9.232936627479079, 54.811408679966526 ], [ 9.234739785177261, 54.812140926092802 ], [ 9.234786084961458, 54.812104209484524 ], [ 9.23294475734609, 54.811347303742671 ], [ 9.232936627479079, 54.811408679966526 ] ] ] } },
{ "type": "Feature", "properties": { "Layer": "WBK_WEG_BEST", "SubClasses": "AcDbEntity:AcDbPolyline", "EntityHandle": "400EE" }, "geometry": { "type": "LineString", "coordinates": [ [ 9.232936627479079, 54.811408679966526 ], [ 9.234739785202704, 54.812140926094983 ], [ 9.234786084971295, 54.812104209488552 ], [ 9.232944757337568, 54.811347303736063 ], [ 9.232936627479079, 54.811408679966526 ] ] } },
{ "type": "Feature", "properties": { "Layer": "WBK_WEG_BEST", "SubClasses": "AcDbEntity:AcDbPolyline", "EntityHandle": "400F0" }, "geometry": { "type": "LineString", "coordinates": [ [ 9.22492506068628, 54.818394764737107 ], [ 9.2286320891254, 54.818959080356684 ], [ 9.228604173278558, 54.818909489574295 ], [ 9.22847749360346, 54.818879903070247 ], [ 9.22847749360346, 54.818879903070247 ], [ 9.227346007091878, 54.818683471635602 ], [ 9.224988371224722, 54.818339361327219 ], [ 9.22492506068628, 54.818394764737107 ] ] } },
{ "type": "Feature", "properties": { "Layer": "WBK_WEG_BEST", "SubClasses": "AcDbEntity:AcDbHatch", "EntityHandle": "400F1", "Text": "HONEY" }, "geometry": { "type": "Polygon", "coordinates": [ [ [ 9.220301194124215, 54.824573331179948 ], [ 9.223165758187246, 54.824320979614974 ], [ 9.223071717669125, 54.82441729808609 ], [ 9.22284909606284, 54.824436689653325 ], [ 9.22024613383295, 54.824663364868002 ], [ 9.220301194124215, 54.824573331179948 ] ] ] } },
{ "type": "Feature", "properties": { "Layer": "WBK_WEG_BEST", "SubClasses": "AcDbEntity:AcDbPolyline", "EntityHandle": "400F2" }, "geometry": { "type": "LineString", "coordinates": [ [ 9.220301194124215, 54.824573331179948 ], [ 9.22316575820245, 54.824320979610818 ], [ 9.223071717695758, 54.824417298090545 ], [ 9.2228490961201, 54.824436689647314 ], [ 9.2228490961201, 54.824436689647314 ], [ 9.220246133800835, 54.824663364862673 ], [ 9.220301194124215, 54.824573331179948 ] ] } },
{ "type": "Feature", "properties": { "Layer": "WBK_WEG_BEST", "SubClasses": "AcDbEntity:AcDbHatch", "EntityHandle": "4011B", "Text": "HONEY" }, "geometry": { "type": "MultiLineString", "coordinates": [ [ [ 9.195572556505578, 54.853767202694826 ], [ 9.194815697652015, 54.856403589639775 ] ], [ [ 9.194815697672915, 54.85640358963947 ], [ 9.194176763406894, 54.856473549189523 ] ], [ [ 9.194176763377492, 54.856473549189353 ], [ 9.194086420274219, 54.856463089947404 ] ], [ [ 9.194086420282474, 54.856463089943539 ], [ 9.194736919730131, 54.856374048311437 ] ], [ [ 9.194736919736883, 54.856374048309284 ], [ 9.195458100813916, 54.853783398446353 ] ], [ [ 9.195458100748484, 54.853783398445785 ], [ 9.195572466314461, 54.853767215441728 ] ] ] } },
{ "type": "Feature", "properties": { "Layer": "WBK_WEG_BEST", "SubClasses": "AcDbEntity:AcDbPolyline", "EntityHandle": "4011C" }, "geometry": { "type": "LineString", "coordinates": [ [ 9.195572556505578, 54.853767202694826 ], [ 9.194815697672915, 54.85640358963947 ], [ 9.194176763377492, 54.856473549189353 ], [ 9.194086420282474, 54.856463089943539 ], [ 9.194736919736883, 54.856374048309284 ], [ 9.195458100748484, 54.853783398445785 ], [ 9.195572466338035, 54.853767215447235 ] ] } },
{ "type": "Feature", "properties": { "Layer": "WBK_WEG_BEST", "SubClasses": "AcDbEntity:AcDbHatch", "EntityHandle": "4011D", "Text": "HONEY" }, "geometry": { "type": "MultiLineString", "coordinates": [ [ [ 9.20297480627587, 54.850961518363263 ], [ 9.202449190279024, 54.851267994577739 ] ], [ [ 9.202449190237594, 54.85126799457548 ], [ 9.201367272059198, 54.85169206479776 ] ], [ [ 9.201367272062887, 54.85169206480316 ], [ 9.200502540311104, 54.851938060109887 ] ], [ [ 9.200502540302137, 54.851938060113191 ], [ 9.19968025447448, 54.85249587390846 ] ], [ [ 9.199680254514934, 54.852495873907031 ], [ 9.197371566141152, 54.853409402781814 ] ], [ [ 9.197371566143854, 54.853409402780471 ], [ 9.195572469653483, 54.853767203752518 ] ], [ [ 9.195572469659101, 54.853767203749683 ], [ 9.195598853576264, 54.853700045702766 ] ], [ [ 9.195598853570766, 54.853700045707328 ], [ 9.197284969196449, 54.853305299365196 ] ], [ [ 9.197284969168733, 54.853305299360606 ], [ 9.199442857223817, 54.852485843884722 ] ], [ [ 9.199442857218173, 54.852485843879975 ], [ 9.200348658955079, 54.851889200019578 ] ], [ [ 9.200348658948387, 54.851889200022796 ], [ 9.200531657301282, 54.851801555023329 ] ], [ [ 9.200531657307582, 54.851801555025794 ], [ 9.201844925958268, 54.851425469554727 ] ], [ [ 9.20184492593418, 54.851425469550101 ], [ 9.202663452956493, 54.850965521670361 ] ], [ [ 9.202663452976955, 54.85096552167326 ], [ 9.202693460259869, 54.850823891417861 ] ], [ [ 9.202693460259958, 54.850823891423509 ], [ 9.202975081324357, 54.850961653003075 ] ] ] } },
{ "type": "Feature", "properties": { "Layer": "WBK_WEG_BEST", "SubClasses": "AcDbEntity:AcDbPolyline", "EntityHandle": "4011E" }, "geometry": { "type": "LineString", "coordinates": [ [ 9.20297480627587, 54.850961518363263 ], [ 9.202449190237594, 54.85126799457548 ], [ 9.201367272062887, 54.85169206480316 ], [ 9.200502540302137, 54.851938060113191 ], [ 9.199680254514934, 54.852495873907031 ], [ 9.197371566143854, 54.853409402780471 ], [ 9.195572469659101, 54.853767203749683 ], [ 9.195598853570766, 54.853700045707328 ], [ 9.197284969168733, 54.853305299360606 ], [ 9.199442857218173, 54.852485843879975 ], [ 9.200348658948387, 54.851889200022796 ], [ 9.200531657307582, 54.851801555025794 ], [ 9.20184492593418, 54.851425469550101 ], [ 9.202663452976955, 54.85096552167326 ], [ 9.202693460259958, 54.850823891423509 ], [ 9.20297508134716, 54.850961652999551 ] ] } },
{ "type": "Feature", "properties": { "Layer": "WBK_WEG_BEST", "SubClasses": "AcDbEntity:AcDbHatch", "EntityHandle": "4012F", "Text": "HONEY" }, "geometry": { "type": "Polygon", "coordinates": [ [ [ 9.210069084609589, 54.840756005374836 ], [ 9.207582993699175, 54.839008351098705 ], [ 9.207663155633114, 54.838979240908351 ], [ 9.207816981620839, 54.839081553373831 ], [ 9.210171531141876, 54.840710383555034 ], [ 9.210069084609589, 54.840756005374836 ] ] ] } },
{ "type": "Feature", "properties": { "Layer": "WBK_WEG_BEST", "SubClasses": "AcDbEntity:AcDbPolyline", "EntityHandle": "40130" }, "geometry": { "type": "LineString", "coordinates": [ [ 9.210069084609589, 54.840756005374836 ], [ 9.207582993685275, 54.839008351102763 ], [ 9.207663155649309, 54.838979240902425 ], [ 9.207663155649309, 54.838979240902425 ], [ 9.207816981611787, 54.839081553377767 ], [ 9.207816981611787, 54.839081553377767 ], [ 9.210171531117918, 54.840710383551432 ], [ 9.210069084609589, 54.840756005374836 ] ] } },
{ "type": "Feature", "properties": { "Layer": "WBK_WEG_BEST", "SubClasses": "AcDbEntity:AcDbHatch", "EntityHandle": "40139", "Text": "HONEY" }, "geometry": { "type": "Polygon", "coordinates": [ [ [ 9.240160397706799, 54.796231592200748 ], [ 9.243254929196278, 54.796239047509424 ], [ 9.24525808146527, 54.796328283398985 ], [ 9.246863772910705, 54.796540423607219 ], [ 9.247007657607075, 54.796525535939836 ], [ 9.247661088112739, 54.79542868841979 ], [ 9.247663329792902, 54.795426993309398 ], [ 9.247695522745842, 54.795438543939923 ], [ 9.247595734965651, 54.795669993851412 ], [ 9.24717311496396, 54.796566519252352 ], [ 9.246892619568268, 54.796629890161626 ], [ 9.245192537935207, 54.796383825210746 ], [ 9.240168056814472, 54.796277937970622 ], [ 9.240160397706799, 54.796231592200748 ] ] ] } },
{ "type": "Feature", "properties": { "Layer": "WBK_WEG_BEST", "SubClasses": "AcDbEntity:AcDbPolyline", "EntityHandle": "4013A" }, "geometry": { "type": "LineString", "coordinates": [ [ 9.240160397706799, 54.796231592200748 ], [ 9.243254929146984, 54.796239047502702 ], [ 9.245258081568004, 54.796328283403817 ], [ 9.24686377285545, 54.79654042359946 ], [ 9.247007657640378, 54.796525535945868 ], [ 9.247661088089659, 54.795428688421616 ], [ 9.247661088089659, 54.795428688421616 ], [ 9.247663329798424, 54.795426993309704 ], [ 9.247695522757894, 54.795438543941934 ], [ 9.247595734962982, 54.795669993850431 ], [ 9.247173114939024, 54.796566519249012 ], [ 9.246892619570996, 54.796629890156396 ], [ 9.245192537886359, 54.796383825216701 ], [ 9.240168056896101, 54.796277937969506 ], [ 9.240160397706799, 54.796231592200748 ] ] } },
{ "type": "Feature", "properties": { "Layer": "WBK_WEG_BEST", "SubClasses": "AcDbEntity:AcDbHatch", "EntityHandle": "4013B", "Text": "HONEY" }, "geometry": { "type": "Polygon", "coordinates": [ [ [ 9.247663565278284, 54.795434874019975 ], [ 9.247695715263976, 54.795437984156543 ], [ 9.247723941023255, 54.795355930181586 ], [ 9.247778168009354, 54.794111551631282 ], [ 9.247834984024118, 54.791543155503263 ], [ 9.247832046789712, 54.791543028247503 ], [ 9.247675602616694, 54.791542090299444 ], [ 9.24764124890263, 54.793718554157152 ], [ 9.24766173585915, 54.79537365905562 ], [ 9.247663565278284, 54.795434874019975 ] ] ] } },
{ "type": "Feature", "properties": { "Layer": "WBK_WEG_BEST", "SubClasses": "AcDbEntity:AcDbPolyline", "EntityHandle": "4013C" }, "geometry": { "type": "LineString", "coordinates": [ [ 9.247663565278284, 54.795434874019975 ], [ 9.247695715291901, 54.795437984154809 ], [ 9.247723940985761, 54.79535593017728 ], [ 9.247778168039567, 54.794111551633151 ], [ 9.247834984047136, 54.791543155502751 ], [ 9.247832046796534, 54.791543028252882 ], [ 9.247675602573224, 54.791542090290491 ], [ 9.247675602573224, 54.791542090290491 ], [ 9.247641248942022, 54.793718554165558 ], [ 9.247661735873104, 54.795373659043946 ], [ 9.247663565278284, 54.795434874019975 ] ] } },
{ "type": "Feature", "properties": { "Layer": "WBK_WEG_BEST", "SubClasses": "AcDbEntity:AcDbHatch", "EntityHandle": "4013D", "Text": "HONEY" }, "geometry": { "type": "MultiLineString", "coordinates": [ [ [ 9.247832044783774, 54.791543137872893 ], [ 9.24788926705766, 54.788355687739482 ] ], [ [ 9.247889267099142, 54.788355687746645 ], [ 9.248487956744608, 54.787413374210722 ] ], [ [ 9.248487956732575, 54.787413374211724 ], [ 9.250219434659368, 54.787693551404594 ] ], [ [ 9.250219434694811, 54.7876935514062 ], [ 9.250243816737949, 54.787632145964224 ] ], [ [ 9.250243816705199, 54.78763214595957 ], [ 9.248383674171038, 54.787297989867753 ] ], [ [ 9.248383674171093, 54.78729798986928 ], [ 9.247739277816454, 54.788360577806785 ] ], [ [ 9.247739277799985, 54.788360577800653 ], [ 9.247675602587934, 54.791542090290122 ] ], [ [ 9.247675602573224, 54.791542090290491 ], [ 9.247834984010517, 54.791543155498104 ] ] ] } },
{ "type": "Feature", "properties": { "Layer": "WBK_WEG_BEST", "SubClasses": "AcDbEntity:AcDbPolyline", "EntityHandle": "4013E" }, "geometry": { "type": "LineString", "coordinates": [ [ 9.247832044783774, 54.791543137872893 ], [ 9.247889267099142, 54.788355687746645 ], [ 9.248487956732575, 54.787413374211724 ], [ 9.250219434694811, 54.7876935514062 ], [ 9.250243816705199, 54.78763214595957 ], [ 9.248383674171093, 54.78729798986928 ], [ 9.247739277799985, 54.788360577800653 ], [ 9.247675602573224, 54.791542090290491 ], [ 9.247834984047136, 54.791543155502751 ] ] } },
{ "type": "Feature", "properties": { "Layer": "WBK_WEG_BEST", "SubClasses": "AcDbEntity:AcDbHatch", "EntityHandle": "40142", "Text": "HONEY" }, "geometry": { "type": "Polygon", "coordinates": [ [ [ 9.247615241361672, 54.785407919223481 ], [ 9.248299420526285, 54.784684306943284 ], [ 9.249180587391777, 54.784302175726395 ], [ 9.250638882047273, 54.784062041793248 ], [ 9.25055041012646, 54.783976718449786 ], [ 9.248872817152536, 54.784285394479866 ], [ 9.24820704440938, 54.784601185051947 ], [ 9.247548529246114, 54.785252289094323 ], [ 9.247447351439295, 54.785310584782017 ], [ 9.247615241361672, 54.785407919223481 ] ] ] } },
{ "type": "Feature", "properties": { "Layer": "WBK_WEG_BEST", "SubClasses": "AcDbEntity:AcDbPolyline", "EntityHandle": "40143" }, "geometry": { "type": "LineString", "coordinates": [ [ 9.247615241361672, 54.785407919223481 ], [ 9.248299420560784, 54.784684306935524 ], [ 9.249180587335292, 54.784302175739903 ], [ 9.250638882062196, 54.78406204178615 ], [ 9.250638882062196, 54.78406204178615 ], [ 9.250638882062196, 54.78406204178615 ], [ 9.250550410084713, 54.78397671845471 ], [ 9.250550410084713, 54.78397671845471 ], [ 9.250550410084713, 54.78397671845471 ], [ 9.248872817220313, 54.784285394478111 ], [ 9.24820704435747, 54.784601185044629 ], [ 9.247548529309425, 54.785252289098771 ], [ 9.24744735138397, 54.785310584772859 ], [ 9.247615241361672, 54.785407919223481 ] ] } },
{ "type": "Feature", "properties": { "Layer": "WBK_WEG_BEST", "SubClasses": "AcDbEntity:AcDbHatch", "EntityHandle": "40144", "Text": "HONEY" }, "geometry": { "type": "MultiLineString", "coordinates": [ [ [ 9.250869461479715, 54.783592363368882 ], [ 9.251151757604443, 54.782293027205903 ] ], [ [ 9.251151757543047, 54.782293027213598 ], [ 9.251286646183853, 54.782238755325331 ] ], [ [ 9.251286646185733, 54.782238755314346 ], [ 9.251980056453286, 54.782282544904533 ] ], [ [ 9.25198005646693, 54.782282544908519 ], [ 9.25200718851546, 54.78220711625459 ] ], [ [ 9.252007188563525, 54.78220711625184 ], [ 9.251034266773937, 54.782134768048223 ] ], [ [ 9.251034266745766, 54.782134768047136 ], [ 9.250712296700573, 54.78358067277442 ] ], [ [ 9.25071229670527, 54.783580672775301 ], [ 9.250869522338947, 54.78359208308008 ] ] ] } },
{ "type": "Feature", "properties": { "Layer": "WBK_WEG_BEST", "SubClasses": "AcDbEntity:AcDbPolyline", "EntityHandle": "40145" }, "geometry": { "type": "LineString", "coordinates": [ [ 9.250869461479715, 54.783592363368882 ], [ 9.251151757543047, 54.782293027213598 ], [ 9.251286646185733, 54.782238755314346 ], [ 9.25198005646693, 54.782282544908519 ], [ 9.252007188563525, 54.78220711625184 ], [ 9.251034266745766, 54.782134768047136 ], [ 9.25071229670527, 54.783580672775301 ], [ 9.250869522292051, 54.783592083083306 ] ] } },
{ "type": "Feature", "properties": { "Layer": "WBK_WEG_BEST", "SubClasses": "AcDbEntity:AcDbHatch", "EntityHandle": "4014A", "Text": "HONEY" }, "geometry": { "type": "Polygon", "coordinates": [ [ [ 9.250550410084713, 54.78397671845471 ], [ 9.250612273118408, 54.783952964435855 ], [ 9.250712296673351, 54.783580672774029 ], [ 9.250869522338951, 54.78359208308008 ], [ 9.250771224563177, 54.784044524502427 ], [ 9.250730979162423, 54.784049851537119 ], [ 9.250550410084713, 54.78397671845471 ] ] ] } },
{ "type": "Feature", "properties": { "Layer": "WBK_WEG_BEST", "SubClasses": "AcDbEntity:AcDbPolyline", "EntityHandle": "4014B" }, "geometry": { "type": "LineString", "coordinates": [ [ 9.250550410084713, 54.78397671845471 ], [ 9.250612273160151, 54.783952964425318 ], [ 9.25071229670527, 54.783580672775301 ], [ 9.250869522292051, 54.783592083083306 ], [ 9.250771224588707, 54.784044524505724 ], [ 9.250730979182917, 54.784049851529367 ], [ 9.250550410084713, 54.78397671845471 ] ] } },
{ "type": "Feature", "properties": { "Layer": "WBK_WEG_BEST", "SubClasses": "AcDbEntity:AcDbHatch", "EntityHandle": "4014C", "Text": "HONEY" }, "geometry": { "type": "Polygon", "coordinates": [ [ [ 9.261380254500454, 54.75381722194502 ], [ 9.261353150959973, 54.753928747661021 ], [ 9.261021710139536, 54.75639776409723 ], [ 9.260857316152869, 54.757703954501999 ], [ 9.260747011405101, 54.757700150037635 ], [ 9.261281108016192, 54.753794901081299 ], [ 9.261380254500454, 54.75381722194502 ] ] ] } },
{ "type": "Feature", "properties": { "Layer": "WBK_WEG_BEST", "SubClasses": "AcDbEntity:AcDbPolyline", "EntityHandle": "4014D" }, "geometry": { "type": "LineString", "coordinates": [ [ 9.261380254500454, 54.75381722194502 ], [ 9.261353150935051, 54.753928747658684 ], [ 9.261021710181041, 54.756397764103049 ], [ 9.260857316122932, 54.757703954495504 ], [ 9.260857316122932, 54.757703954495504 ], [ 9.260747011429956, 54.757700150041416 ], [ 9.260747011429956, 54.757700150041416 ], [ 9.261281108010957, 54.753794901079367 ], [ 9.261380254500454, 54.75381722194502 ] ] } },
{ "type": "Feature", "properties": { "Layer": "WBK_WEG_BEST", "SubClasses": "AcDbEntity:AcDbHatch", "EntityHandle": "40156", "Text": "HONEY" }, "geometry": { "type": "Polygon", "coordinates": [ [ [ 9.260091118535351, 54.753247583359041 ], [ 9.263293223701458, 54.746578844509223 ], [ 9.274264428096325, 54.748274540196505 ], [ 9.274365901975246, 54.74819592247831 ], [ 9.263272890359611, 54.746467280920157 ], [ 9.2599401693837, 54.753251470161153 ], [ 9.260091118535351, 54.753247583359041 ] ] ] } },
{ "type": "Feature", "properties": { "Layer": "WBK_WEG_BEST", "SubClasses": "AcDbEntity:AcDbPolyline", "EntityHandle": "40157" }, "geometry": { "type": "LineString", "coordinates": [ [ 9.260091118535351, 54.753247583359041 ], [ 9.263293223681682, 54.746578844513309 ], [ 9.274264428082102, 54.748274540199724 ], [ 9.274264428082102, 54.748274540199724 ], [ 9.274365902016433, 54.74819592247789 ], [ 9.274365902016433, 54.74819592247789 ], [ 9.263272890345103, 54.746467280922673 ], [ 9.259940169392559, 54.753251470162105 ], [ 9.260091118535351, 54.753247583359041 ] ] } },
{ "type": "Feature", "properties": { "Layer": "WBK_WEG_BEST", "SubClasses": "AcDbEntity:AcDbHatch", "EntityHandle": "40158", "Text": "HONEY" }, "geometry": { "type": "MultiLineString", "coordinates": [ [ [ 9.284817956423508, 54.74102334921173 ], [ 9.284717862861113, 54.740897908950018 ] ], [ [ 9.284717862859345, 54.740897908949172 ], [ 9.28448992184676, 54.737885760472146 ] ], [ [ 9.284489921828623, 54.737885760466341 ], [ 9.284369681758806, 54.737876154347724 ] ], [ [ 9.284369681761694, 54.737876154348974 ], [ 9.284662397219654, 54.74090824852707 ] ], [ [ 9.284662397207693, 54.740908248528122 ], [ 9.284608114095525, 54.741012977600256 ] ], [ [ 9.284608114150211, 54.7410129775961 ], [ 9.284817957130814, 54.74102334923537 ] ] ] } },
{ "type": "Feature", "properties": { "Layer": "WBK_WEG_BEST", "SubClasses": "AcDbEntity:AcDbPolyline", "EntityHandle": "40159" }, "geometry": { "type": "LineString", "coordinates": [ [ 9.284817956423508, 54.74102334921173 ], [ 9.284717862859345, 54.740897908949172 ], [ 9.284489921828623, 54.737885760466341 ], [ 9.284369681761694, 54.737876154348974 ], [ 9.284662397207693, 54.740908248528122 ], [ 9.284608114150211, 54.7410129775961 ], [ 9.284817957111018, 54.741023349239953 ] ] } },
{ "type": "Feature", "properties": { "Layer": "WBK_WEG_BEST", "SubClasses": "AcDbEntity:AcDbHatch", "EntityHandle": "4015A", "Text": "HONEY" }, "geometry": { "type": "Polygon", "coordinates": [ [ [ 9.303795850389955, 54.733437990666495 ], [ 9.306209730823804, 54.733615494784978 ], [ 9.306087039516573, 54.733674892009624 ], [ 9.304006346977229, 54.733532716486216 ], [ 9.303795850389955, 54.733437990666495 ] ] ] } },
{ "type": "Feature", "properties": { "Layer": "WBK_WEG_BEST", "SubClasses": "AcDbEntity:AcDbPolyline", "EntityHandle": "4015B" }, "geometry": { "type": "LineString", "coordinates": [ [ 9.303795850389955, 54.733437990666495 ], [ 9.306209730824984, 54.733615494782036 ], [ 9.306087039560669, 54.733674892019039 ], [ 9.30400634696332, 54.733532716482244 ], [ 9.303795850389955, 54.733437990666495 ] ] } },
{ "type": "Feature", "properties": { "Layer": "WBK_WEG_BEST", "SubClasses": "AcDbEntity:AcDbHatch", "EntityHandle": "4015C", "Text": "HONEY" }, "geometry": { "type": "MultiLineString", "coordinates": [ [ [ 9.312959108175667, 54.726750032214191 ], [ 9.312615514857667, 54.726892460745148 ] ], [ [ 9.31261551483149, 54.726892460740096 ], [ 9.312487795682244, 54.727357937453561 ] ], [ [ 9.312487795728989, 54.727357937460617 ], [ 9.312346252253677, 54.727350121267676 ] ], [ [ 9.312346252245908, 54.727350121268493 ], [ 9.312361357475176, 54.727197213526132 ] ], [ [ 9.31236135746105, 54.727197213520412 ], [ 9.312218067933481, 54.727257636804055 ] ], [ [ 9.312218067900341, 54.72725763680544 ], [ 9.312191425638451, 54.727221501287055 ] ], [ [ 9.312191425656138, 54.727221501298644 ], [ 9.312369573055589, 54.727133971481194 ] ], [ [ 9.312369573043732, 54.727133971468746 ], [ 9.312450925413049, 54.726789467793111 ] ], [ [ 9.312450925427672, 54.726789467795243 ], [ 9.312393473189454, 54.726708590621385 ] ], [ [ 9.312393473181359, 54.726708590616319 ], [ 9.301133032614654, 54.72594018232342 ] ], [ [ 9.301133032594995, 54.725940182333844 ], [ 9.301508851062666, 54.730897106029182 ] ], [ [ 9.301508851087085, 54.730897106029857 ], [ 9.303443034688241, 54.733309575370711 ] ], [ [ 9.303443034690041, 54.733309575364871 ], [ 9.303213665336326, 54.733248927425471 ] ], [ [ 9.303213665374528, 54.733248927429045 ], [ 9.301394193436746, 54.730921081270509 ] ], [ [ 9.301394193400844, 54.73092108126793 ], [ 9.301018410687201, 54.725833864199998 ] ], [ [ 9.301018410754509, 54.725833864198812 ], [ 9.301201982104438, 54.725829322094469 ] ], [ [ 9.30120198207034, 54.725829322094611 ], [ 9.31298062308073, 54.726666939865829 ] ], [ [ 9.312980623034488, 54.726666939865957 ], [ 9.312959247897206, 54.726750058210754 ] ] ] } },
{ "type": "Feature", "properties": { "Layer": "WBK_WEG_BEST", "SubClasses": "AcDbEntity:AcDbPolyline", "EntityHandle": "4015D" }, "geometry": { "type": "LineString", "coordinates": [ [ 9.312959108175667, 54.726750032214191 ], [ 9.31261551483149, 54.726892460740096 ], [ 9.312487795728989, 54.727357937460617 ], [ 9.312346252245908, 54.727350121268493 ], [ 9.31236135746105, 54.727197213520412 ], [ 9.312218067900341, 54.72725763680544 ], [ 9.312191425656138, 54.727221501298644 ], [ 9.312369573043732, 54.727133971468746 ], [ 9.312450925427672, 54.726789467795243 ], [ 9.312393473181359, 54.726708590616319 ], [ 9.301133032594995, 54.725940182333844 ], [ 9.301508851087085, 54.730897106029857 ], [ 9.303443034690041, 54.733309575364871 ], [ 9.303213665374528, 54.733248927429045 ], [ 9.301394193400844, 54.73092108126793 ], [ 9.301018410754509, 54.725833864198812 ], [ 9.30120198207034, 54.725829322094611 ], [ 9.312980623034488, 54.726666939865957 ], [ 9.312959247867973, 54.726750058211003 ] ] } },
{ "type": "Feature", "properties": { "Layer": "WBK_WEG_BEST", "SubClasses": "AcDbEntity:AcDbHatch", "EntityHandle": "40160", "Text": "HONEY" }, "geometry": { "type": "Polygon", "coordinates": [ [ [ 9.282637230823834, 54.740989069905055 ], [ 9.282661251112527, 54.740875341916315 ], [ 9.284608114293253, 54.741012977603241 ], [ 9.284817956443877, 54.741023349202749 ], [ 9.290745865926322, 54.741344782531748 ], [ 9.290538541802043, 54.741433190638169 ], [ 9.282637230823834, 54.740989069905055 ] ] ] } },
{ "type": "Feature", "properties": { "Layer": "WBK_WEG_BEST", "SubClasses": "AcDbEntity:AcDbPolyline", "EntityHandle": "40161" }, "geometry": { "type": "LineString", "coordinates": [ [ 9.282637230823834, 54.740989069905055 ], [ 9.282661251126004, 54.740875341910098 ], [ 9.284608114287751, 54.741012977605713 ], [ 9.284817956423508, 54.74102334921173 ], [ 9.2907458659267, 54.741344782527747 ], [ 9.290538541807754, 54.74143319063257 ], [ 9.282637230823834, 54.740989069905055 ] ] } },
{ "type": "Feature", "properties": { "Layer": "WBK_WEG_BEST", "SubClasses": "AcDbEntity:AcDbHatch", "EntityHandle": "40166", "Text": "HONEY" }, "geometry": { "type": "Polygon", "coordinates": [ [ [ 9.260858389987408, 54.757695422645284 ], [ 9.260723339487519, 54.758768606885653 ], [ 9.261820603636398, 54.760841080532998 ], [ 9.261626329984132, 54.760887050484762 ], [ 9.260564933312102, 54.758842877272222 ], [ 9.260747011681735, 54.757700147758193 ], [ 9.260858389987408, 54.757695422645284 ] ] ] } },
{ "type": "Feature", "properties": { "Layer": "WBK_WEG_BEST", "SubClasses": "AcDbEntity:AcDbPolyline", "EntityHandle": "40167" }, "geometry": { "type": "LineString", "coordinates": [ [ 9.260858389987408, 54.757695422645284 ], [ 9.260723339476337, 54.758768606885226 ], [ 9.261820603618746, 54.760841080534746 ], [ 9.261626329943669, 54.760887050488371 ], [ 9.2605649333409, 54.758842877265089 ], [ 9.260747011690297, 54.757700147754115 ], [ 9.260858389987408, 54.757695422645284 ] ] } },
{ "type": "Feature", "properties": { "Layer": "WBK_WEG_BEST", "SubClasses": "AcDbEntity:AcDbHatch", "EntityHandle": "40168", "Text": "HONEY" }, "geometry": { "type": "Polygon", "coordinates": [ [ [ 9.267551832899869, 54.764542747876959 ], [ 9.263666865997351, 54.76396946551742 ], [ 9.261126335086683, 54.763330054740862 ], [ 9.259489149736217, 54.763123055292446 ], [ 9.25946331352587, 54.763193577718283 ], [ 9.260990561186748, 54.76340157628416 ], [ 9.264059491580525, 54.764156572176717 ], [ 9.267477005517138, 54.764634644746693 ], [ 9.267551832899869, 54.764542747876959 ] ] ] } },
{ "type": "Feature", "properties": { "Layer": "WBK_WEG_BEST", "SubClasses": "AcDbEntity:AcDbPolyline", "EntityHandle": "40169" }, "geometry": { "type": "LineString", "coordinates": [ [ 9.267551832899869, 54.764542747876959 ], [ 9.263666865940081, 54.763969465515494 ], [ 9.261126335086368, 54.76333005473785 ], [ 9.259489149788495, 54.763123055293441 ], [ 9.259463313451432, 54.763193577717168 ], [ 9.260990561257218, 54.763401576287059 ], [ 9.264059491542213, 54.764156572177022 ], [ 9.267477005486567, 54.764634644750736 ], [ 9.267551832899869, 54.764542747876959 ] ] } },
{ "type": "Feature", "properties": { "Layer": "WBK_WEG_BEST", "SubClasses": "AcDbEntity:AcDbHatch", "EntityHandle": "4016C", "Text": "HONEY" }, "geometry": { "type": "Polygon", "coordinates": [ [ [ 9.253436072392244, 54.76956068951506 ], [ 9.251602779491154, 54.772348347930411 ], [ 9.251504794951952, 54.772346227267427 ], [ 9.253374127659322, 54.769530471270372 ], [ 9.253436072392244, 54.76956068951506 ] ] ] } },
{ "type": "Feature", "properties": { "Layer": "WBK_WEG_BEST", "SubClasses": "AcDbEntity:AcDbPolyline", "EntityHandle": "4016D" }, "geometry": { "type": "LineString", "coordinates": [ [ 9.253436072392244, 54.76956068951506 ], [ 9.251602779502658, 54.772348347926361 ], [ 9.251504794911629, 54.772346227259995 ], [ 9.253374127737763, 54.769530471273832 ], [ 9.253436072392244, 54.76956068951506 ] ] } },
{ "type": "Feature", "properties": { "Layer": "WBK_WEG_BEST", "SubClasses": "AcDbEntity:AcDbHatch", "EntityHandle": "4016E", "Text": "HONEY" }, "geometry": { "type": "Polygon", "coordinates": [ [ [ 9.25617919157477, 54.776053324353327 ], [ 9.256176233404791, 54.776121754896707 ], [ 9.254799273375795, 54.776107036462555 ], [ 9.254582549236154, 54.776139970177447 ], [ 9.254536771265332, 54.776175465062806 ], [ 9.254293363062137, 54.776510856721721 ], [ 9.254084917378837, 54.776568168226703 ], [ 9.251127620391408, 54.777035789152379 ], [ 9.251096860268397, 54.776974186094527 ], [ 9.254035129573273, 54.776551186340505 ], [ 9.254282800085933, 54.776447899784429 ], [ 9.254404390139451, 54.77627649186423 ], [ 9.254550419622669, 54.776076393783406 ], [ 9.254847489194105, 54.776034066010929 ], [ 9.25617919157477, 54.776053324353327 ] ] ] } },
{ "type": "Feature", "properties": { "Layer": "WBK_WEG_BEST", "SubClasses": "AcDbEntity:AcDbPolyline", "EntityHandle": "4016F" }, "geometry": { "type": "LineString", "coordinates": [ [ 9.25617919157477, 54.776053324353327 ], [ 9.256176233419033, 54.776121754891726 ], [ 9.254799273365455, 54.776107036464261 ], [ 9.254582549200917, 54.776139970178306 ], [ 9.25453677128905, 54.776175465062551 ], [ 9.254293363054526, 54.776510856719611 ], [ 9.254084917366633, 54.776568168230959 ], [ 9.251127620383965, 54.777035789150233 ], [ 9.251096860235181, 54.776974186096155 ], [ 9.254035129637522, 54.776551186344008 ], [ 9.254282800037487, 54.776447899786014 ], [ 9.254404390192848, 54.776276491855896 ], [ 9.254550419565566, 54.776076393786525 ], [ 9.254847489195971, 54.776034066005757 ], [ 9.25617919157477, 54.776053324353327 ] ] } },
{ "type": "Feature", "properties": { "Layer": "WBK_WEG_BEST", "SubClasses": "AcDbEntity:AcDbHatch", "EntityHandle": "40172", "Text": "HONEY" }, "geometry": { "type": "Polygon", "coordinates": [ [ [ 9.240134064177374, 54.796185020154141 ], [ 9.239922528697084, 54.796223724703196 ], [ 9.242631923428091, 54.803778007657421 ], [ 9.24285695442326, 54.803734341452618 ], [ 9.240134064177374, 54.796185020154141 ] ] ] } },
{ "type": "Feature", "properties": { "Layer": "WBK_WEG_BEST", "SubClasses": "AcDbEntity:AcDbPolyline", "EntityHandle": "40173" }, "geometry": { "type": "LineString", "coordinates": [ [ 9.240134064177374, 54.796185020154141 ], [ 9.239922528674182, 54.796223724705357 ], [ 9.242631923475038, 54.803778007649086 ], [ 9.242856954413753, 54.803734341450223 ], [ 9.240134064177374, 54.796185020154141 ] ] } },
{ "type": "Feature", "properties": { "Layer": "WBK_WEG_BEST", "SubClasses": "AcDbEntity:AcDbHatch", "EntityHandle": "40174", "Text": "HONEY" }, "geometry": { "type": "Polygon", "coordinates": [ [ [ 9.236732921697453, 54.807973917073724 ], [ 9.238374775529769, 54.808288623536995 ], [ 9.238347893938776, 54.808368611592478 ], [ 9.236676834953485, 54.808047209565146 ], [ 9.236732921697453, 54.807973917073724 ] ] ] } },
{ "type": "Feature", "properties": { "Layer": "WBK_WEG_BEST", "SubClasses": "AcDbEntity:AcDbPolyline", "EntityHandle": "40175" }, "geometry": { "type": "LineString", "coordinates": [ [ 9.236732921697453, 54.807973917073724 ], [ 9.238374775484086, 54.808288623538346 ], [ 9.238347893962974, 54.808368611602035 ], [ 9.236676834982624, 54.808047209564236 ], [ 9.236732921697453, 54.807973917073724 ] ] } },
{ "type": "Feature", "properties": { "Layer": "WBK_WEG_BEST", "SubClasses": "AcDbEntity:AcDbHatch", "EntityHandle": "40178", "Text": "HONEY" }, "geometry": { "type": "Polygon", "coordinates": [ [ [ 9.214870770269448, 54.833112917254255 ], [ 9.213784183553203, 54.833128736226108 ], [ 9.213783952937845, 54.833197435598478 ], [ 9.214747163682308, 54.833198509290241 ], [ 9.214870770269448, 54.833112917254255 ] ] ] } },
{ "type": "Feature", "properties": { "Layer": "WBK_WEG_BEST", "SubClasses": "AcDbEntity:AcDbPolyline", "EntityHandle": "40179" }, "geometry": { "type": "LineString", "coordinates": [ [ 9.214870770269448, 54.833112917254255 ], [ 9.213784183575909, 54.833128736220885 ], [ 9.213783952906624, 54.833197435597953 ], [ 9.21474716375932, 54.833198509296679 ], [ 9.214870770269448, 54.833112917254255 ] ] } },
{ "type": "Feature", "properties": { "Layer": "WBK_WEG_BEST", "SubClasses": "AcDbEntity:AcDbHatch", "EntityHandle": "40180", "Text": "HONEY" }, "geometry": { "type": "Polygon", "coordinates": [ [ [ 9.312218067900341, 54.72725763680544 ], [ 9.312107084587071, 54.727369755822941 ], [ 9.311976589384034, 54.728512621826596 ], [ 9.311883613557553, 54.728505223206504 ], [ 9.312053075826297, 54.7273521487624 ], [ 9.312191425679508, 54.727221501285676 ], [ 9.312218067900341, 54.72725763680544 ] ] ] } },
{ "type": "Feature", "properties": { "Layer": "WBK_WEG_BEST", "SubClasses": "AcDbEntity:AcDbPolyline", "EntityHandle": "40181" }, "geometry": { "type": "LineString", "coordinates": [ [ 9.312218067900341, 54.72725763680544 ], [ 9.312107084608636, 54.72736975582545 ], [ 9.311976589363088, 54.728512621824997 ], [ 9.311883613585673, 54.728505223210611 ], [ 9.312053075838611, 54.72735214875599 ], [ 9.312191425656138, 54.727221501298644 ], [ 9.312218067900341, 54.72725763680544 ] ] } },
{ "type": "Feature", "properties": { "Layer": "WBK_WEG_BEST", "SubClasses": "AcDbEntity:AcDbHatch", "EntityHandle": "40188", "Text": "HONEY" }, "geometry": { "type": "Polygon", "coordinates": [ [ [ 9.327082894309385, 54.718566894451477 ], [ 9.327051137784796, 54.718402080763994 ], [ 9.330805172771933, 54.718182103439354 ], [ 9.337644166985243, 54.719072458708588 ], [ 9.337607324375153, 54.719169807386521 ], [ 9.330653254182653, 54.718275406200192 ], [ 9.327289832232928, 54.718443799952702 ], [ 9.327082894309385, 54.718566894451477 ] ] ] } },
{ "type": "Feature", "properties": { "Layer": "WBK_WEG_BEST", "SubClasses": "AcDbEntity:AcDbPolyline", "EntityHandle": "40189" }, "geometry": { "type": "LineString", "coordinates": [ [ 9.327082894309385, 54.718566894451477 ], [ 9.327051137742567, 54.71840208075826 ], [ 9.330805172791353, 54.718182103448235 ], [ 9.337644166988587, 54.719072458706542 ], [ 9.337607324350799, 54.719169807385207 ], [ 9.330653254163773, 54.718275406198124 ], [ 9.327289832297618, 54.718443799955608 ], [ 9.327082894309385, 54.718566894451477 ] ] } },
{ "type": "Feature", "properties": { "Layer": "WBK_WEG_BEST", "SubClasses": "AcDbEntity:AcDbHatch", "EntityHandle": "4018C", "Text": "HONEY" }, "geometry": { "type": "MultiLineString", "coordinates": [ [ [ 9.337644166988587, 54.719072458706542 ], [ 9.340454390242581, 54.719456016470218 ] ], [ [ 9.340454390229597, 54.719456016467042 ], [ 9.338810375296154, 54.715272235578624 ] ], [ [ 9.338810375350473, 54.715272235582461 ], [ 9.338813430673925, 54.715229148667248 ] ], [ [ 9.338813430622688, 54.715229148659624 ], [ 9.340879488645909, 54.71507862451567 ] ], [ [ 9.340879488622988, 54.715078624521475 ], [ 9.340967965431025, 54.715153533547557 ] ], [ [ 9.340967965449314, 54.715153533543045 ], [ 9.339030529544361, 54.715286209453204 ] ], [ [ 9.339030529586083, 54.715286209452785 ], [ 9.338985541155424, 54.715324879923969 ] ], [ [ 9.33898554113266, 54.715324879925831 ], [ 9.34060476598216, 54.719533746526452 ] ], [ [ 9.340604766009442, 54.719533746527539 ], [ 9.340441886458665, 54.719595297002229 ] ], [ [ 9.340441886434972, 54.719595297006165 ], [ 9.340227792802118, 54.719499241728116 ] ], [ [ 9.340227792763496, 54.719499241727526 ], [ 9.337607324344534, 54.719169807386749 ] ], [ [ 9.337607324350799, 54.719169807385207 ], [ 9.337648564631477, 54.719073087066079 ] ] ] } },
{ "type": "Feature", "properties": { "Layer": "WBK_WEG_BEST", "SubClasses": "AcDbEntity:AcDbPolyline", "EntityHandle": "4018D" }, "geometry": { "type": "LineString", "coordinates": [ [ 9.337644166988587, 54.719072458706542 ], [ 9.340454390229597, 54.719456016467042 ], [ 9.338810375350473, 54.715272235582461 ], [ 9.338813430622688, 54.715229148659624 ], [ 9.340879488622988, 54.715078624521475 ], [ 9.340967965449314, 54.715153533543045 ], [ 9.339030529586083, 54.715286209452785 ], [ 9.33898554113266, 54.715324879925831 ], [ 9.340604766009442, 54.719533746527539 ], [ 9.340441886434972, 54.719595297006165 ], [ 9.340227792763496, 54.719499241727526 ], [ 9.337607324350799, 54.719169807385207 ], [ 9.337648564609554, 54.719073087067237 ] ] } },
{ "type": "Feature", "properties": { "Layer": "WBK_WEG_BEST", "SubClasses": "AcDbEntity:AcDbHatch", "EntityHandle": "4018E", "Text": "HONEY" }, "geometry": { "type": "Polygon", "coordinates": [ [ [ 9.352512236779743, 54.715862239207887 ], [ 9.353281093502313, 54.715362298649751 ], [ 9.354621870015862, 54.712512167521623 ], [ 9.354317447390695, 54.712060562418095 ], [ 9.354267967311181, 54.710730015956173 ], [ 9.354176520524659, 54.710771183475707 ], [ 9.354156438276835, 54.712074958564692 ], [ 9.354495500380731, 54.712415515649923 ], [ 9.354492442988319, 54.712491975634734 ], [ 9.353233294215112, 54.715246800005602 ], [ 9.352450800726926, 54.715791278275432 ], [ 9.352512236779743, 54.715862239207887 ] ] ] } },
{ "type": "Feature", "properties": { "Layer": "WBK_WEG_BEST", "SubClasses": "AcDbEntity:AcDbPolyline", "EntityHandle": "4018F" }, "geometry": { "type": "LineString", "coordinates": [ [ 9.352512236779743, 54.715862239207887 ], [ 9.353281093490301, 54.715362298642326 ], [ 9.354626319255438, 54.71244491047392 ], [ 9.354317447399993, 54.712060562410649 ], [ 9.354267967293115, 54.710730015955299 ], [ 9.354176520561658, 54.710771183478357 ], [ 9.354156438250222, 54.712074958558425 ], [ 9.354495500455705, 54.712415515650072 ], [ 9.35449244292483, 54.712491975634904 ], [ 9.353233294206037, 54.715246800012892 ], [ 9.352450800751123, 54.715791278269243 ], [ 9.352512236779743, 54.715862239207887 ] ] } },
{ "type": "Feature", "properties": { "Layer": "WBK_WEG_BEST", "SubClasses": "AcDbEntity:AcDbHatch", "EntityHandle": "40190", "Text": "HONEY" }, "geometry": { "type": "Polygon", "coordinates": [ [ [ 9.363047423298411, 54.700814381135103 ], [ 9.365363004349756, 54.701101564727537 ], [ 9.366123566089023, 54.70132087305204 ], [ 9.36832824775297, 54.702515968060986 ], [ 9.368115613048108, 54.70426994159893 ], [ 9.368065129235047, 54.704273930781113 ], [ 9.368218236545561, 54.702548095060585 ], [ 9.366098357813598, 54.701394723489798 ], [ 9.365750083614026, 54.701263552342589 ], [ 9.362990711084141, 54.700886757272485 ], [ 9.363047423298411, 54.700814381135103 ] ] ] } },
{ "type": "Feature", "properties": { "Layer": "WBK_WEG_BEST", "SubClasses": "AcDbEntity:AcDbPolyline", "EntityHandle": "40191" }, "geometry": { "type": "LineString", "coordinates": [ [ 9.363047423298411, 54.700814381135103 ], [ 9.365363004360267, 54.701101564730422 ], [ 9.366123566074151, 54.701320873053234 ], [ 9.368328247783797, 54.702515968063551 ], [ 9.368137724688726, 54.704268194350696 ], [ 9.368065129232834, 54.704273930780666 ], [ 9.36821823653818, 54.702548095058134 ], [ 9.366098357828282, 54.701394723493756 ], [ 9.365750083594966, 54.701263552343008 ], [ 9.362990711146589, 54.700886757265849 ], [ 9.363047423298411, 54.700814381135103 ] ] } },
{ "type": "Feature", "properties": { "Layer": "WBK_WEG_BEST", "SubClasses": "AcDbEntity:AcDbHatch", "EntityHandle": "40194", "Text": "HONEY" }, "geometry": { "type": "MultiLineString", "coordinates": [ [ [ 9.406426825152417, 54.691516082733287 ], [ 9.406858716064811, 54.689329043443024 ] ], [ [ 9.406858716036503, 54.689329043441404 ], [ 9.407024833106817, 54.689268872653152 ] ], [ [ 9.407024833115663, 54.689268872644988 ], [ 9.407936806587218, 54.689359216510539 ] ], [ [ 9.407936806591334, 54.689359216511491 ], [ 9.40794751042114, 54.689309276965218 ] ], [ [ 9.407947510412301, 54.689309276973248 ], [ 9.403326337621916, 54.688699228009668 ] ], [ [ 9.403326337623025, 54.688699228007536 ], [ 9.403302617727498, 54.688770546289327 ] ], [ [ 9.403302617707398, 54.688770546280779 ], [ 9.406627065109049, 54.689237290294493 ] ], [ [ 9.406627065096657, 54.689237290300831 ], [ 9.406715486065664, 54.689356289771418 ] ], [ [ 9.406715486104524, 54.689356289774686 ], [ 9.406304192041965, 54.691566663627569 ] ], [ [ 9.406304192039521, 54.691566663631569 ], [ 9.406417739080233, 54.691519830351503 ] ] ] } },
{ "type": "Feature", "properties": { "Layer": "WBK_WEG_BEST", "SubClasses": "AcDbEntity:AcDbPolyline", "EntityHandle": "40195" }, "geometry": { "type": "LineString", "coordinates": [ [ 9.406426825152417, 54.691516082733287 ], [ 9.406858716036503, 54.689329043441404 ], [ 9.407024833115663, 54.689268872644988 ], [ 9.407936806591334, 54.689359216511491 ], [ 9.407947510412301, 54.689309276973248 ], [ 9.403326337623025, 54.688699228007536 ], [ 9.403302617707398, 54.688770546280779 ], [ 9.406627065096657, 54.689237290300831 ], [ 9.406715486104524, 54.689356289774686 ], [ 9.406304192039521, 54.691566663631569 ], [ 9.406417739068765, 54.691519830342251 ] ] } },
{ "type": "Feature", "properties": { "Layer": "WBK_WEG_BEST", "SubClasses": "AcDbEntity:AcDbHatch", "EntityHandle": "40198", "Text": "HONEY" }, "geometry": { "type": "Polygon", "coordinates": [ [ [ 9.398021689303004, 54.691450462641868 ], [ 9.398230656093499, 54.690511551275272 ], [ 9.398227299312236, 54.690105777446561 ], [ 9.398630993732411, 54.688487294371193 ], [ 9.398708366976724, 54.688428369849234 ], [ 9.401124614009914, 54.688502378839999 ], [ 9.402956562335296, 54.68871995190738 ], [ 9.402979494602148, 54.688657308855923 ], [ 9.401143552188511, 54.688426673435849 ], [ 9.398539983445668, 54.68833184553484 ], [ 9.398083659458191, 54.69019743079717 ], [ 9.398058411447087, 54.690704913394363 ], [ 9.397904086429101, 54.691430880481811 ], [ 9.398007565793343, 54.69144940780356 ], [ 9.398021689303004, 54.691450462641868 ] ] ] } },
{ "type": "Feature", "properties": { "Layer": "WBK_WEG_BEST", "SubClasses": "AcDbEntity:AcDbPolyline", "EntityHandle": "40199" }, "geometry": { "type": "LineString", "coordinates": [ [ 9.398021689303004, 54.691450462641868 ], [ 9.398230656108234, 54.690511551276181 ], [ 9.398227299334057, 54.69010577745081 ], [ 9.398630993772361, 54.68848729436764 ], [ 9.39870836698293, 54.688428369852225 ], [ 9.401124613979398, 54.688502378842706 ], [ 9.402956562316245, 54.688719951900339 ], [ 9.402979494582285, 54.688657308858915 ], [ 9.401143552218786, 54.688426673428822 ], [ 9.39853998346547, 54.688331845544695 ], [ 9.398083659399116, 54.690197430799905 ], [ 9.39805841149543, 54.690704913396019 ], [ 9.397904086436595, 54.691430880474591 ], [ 9.398007565739629, 54.691449407800711 ], [ 9.398021689303004, 54.691450462641868 ] ] } },
{ "type": "Feature", "properties": { "Layer": "WBK_WEG_BEST", "SubClasses": "AcDbEntity:AcDbHatch", "EntityHandle": "4019C", "Text": "HONEY" }, "geometry": { "type": "Polygon", "coordinates": [ [ [ 9.408486299486631, 54.687289732255671 ], [ 9.408560658586021, 54.687282112083295 ], [ 9.408958115111609, 54.687338439023804 ], [ 9.40922360138973, 54.686265736535461 ], [ 9.409078575209433, 54.68616053004348 ], [ 9.408878931958162, 54.687214282926043 ], [ 9.408803219426025, 54.687240771358042 ], [ 9.408444426020909, 54.687205210009679 ], [ 9.408480061810122, 54.687292497855054 ], [ 9.408486299486631, 54.687289732255671 ] ] ] } },
{ "type": "Feature", "properties": { "Layer": "WBK_WEG_BEST", "SubClasses": "AcDbEntity:AcDbPolyline", "EntityHandle": "4019D" }, "geometry": { "type": "LineString", "coordinates": [ [ 9.408486299486631, 54.687289732255671 ], [ 9.408560658610652, 54.687282112080759 ], [ 9.40895811506828, 54.687338439024934 ], [ 9.409223601448923, 54.686265736532697 ], [ 9.409078575205301, 54.686160530047502 ], [ 9.408878931985457, 54.687214282927947 ], [ 9.408803219450602, 54.687240771351298 ], [ 9.408444425964417, 54.68720521001368 ], [ 9.408480061811291, 54.687292497857037 ], [ 9.408486299486631, 54.687289732255671 ] ] } },
{ "type": "Feature", "properties": { "Layer": "WBK_WEG_BEST", "SubClasses": "AcDbEntity:AcDbHatch", "EntityHandle": "401A0", "Text": "HONEY" }, "geometry": { "type": "Polygon", "coordinates": [ [ [ 9.417798985090434, 54.676301592779026 ], [ 9.417493165313006, 54.6761536179093 ], [ 9.417429193893877, 54.676263793418613 ], [ 9.417405309069805, 54.67632398026273 ], [ 9.417555610520326, 54.67651390359584 ], [ 9.418039081231068, 54.676661983892835 ], [ 9.419940388503676, 54.677948179512839 ], [ 9.42032952266546, 54.678246309328941 ], [ 9.417000461951126, 54.682111983926163 ], [ 9.417037603045998, 54.682208581865922 ], [ 9.420461068228885, 54.678242842321048 ], [ 9.419929634851984, 54.677779456073139 ], [ 9.418113177110884, 54.676571265715417 ], [ 9.417675650400289, 54.676413411198503 ], [ 9.41764103147138, 54.676363141016935 ], [ 9.417636610212055, 54.676305871413348 ], [ 9.417798985090434, 54.676301592779026 ] ] ] } },
{ "type": "Feature", "properties": { "Layer": "WBK_WEG_BEST", "SubClasses": "AcDbEntity:AcDbPolyline", "EntityHandle": "401A1" }, "geometry": { "type": "LineString", "coordinates": [ [ 9.417798985090434, 54.676301592779026 ], [ 9.417493165343163, 54.676153617908284 ], [ 9.417429193855984, 54.676263793419956 ], [ 9.417405309060355, 54.676323980261515 ], [ 9.41755561049961, 54.676513903599705 ], [ 9.418039081272937, 54.676661983889289 ], [ 9.419940388487584, 54.677948179517962 ], [ 9.420329522661406, 54.678246309326092 ], [ 9.41700046195249, 54.682111983925225 ], [ 9.417037603045319, 54.682208581863854 ], [ 9.420461068195696, 54.678242842318383 ], [ 9.419929634945344, 54.677779456082305 ], [ 9.418113177046614, 54.676571265711772 ], [ 9.417675650357463, 54.676413411199697 ], [ 9.41764103156979, 54.676363141014839 ], [ 9.417636610140665, 54.676305871407571 ], [ 9.417798985090434, 54.676301592779026 ], [ 9.417493165343163, 54.676153617908284 ] ] } },
{ "type": "Feature", "properties": { "Layer": "WBK_WEG_BEST", "SubClasses": "AcDbEntity:AcDbHatch", "EntityHandle": "401A8", "Text": "HONEY" }, "geometry": { "type": "Polygon", "coordinates": [ [ [ 9.423332962980499, 54.440804588891659 ], [ 9.423373545529168, 54.440722059109149 ], [ 9.433288110437086, 54.442377909320214 ], [ 9.433290677721123, 54.44262087257556 ], [ 9.429489131120098, 54.444297784784403 ], [ 9.421630464307595, 54.445612328419294 ], [ 9.421629441713108, 54.445512889016484 ], [ 9.429435222172389, 54.444204641075054 ], [ 9.43319403238533, 54.442663507309753 ], [ 9.433126964414134, 54.442493833112245 ], [ 9.423332962980499, 54.440804588891659 ] ] ] } },
{ "type": "Feature", "properties": { "Layer": "WBK_WEG_BEST", "SubClasses": "AcDbEntity:AcDbPolyline", "EntityHandle": "401A9" }, "geometry": { "type": "LineString", "coordinates": [ [ 9.423332962980499, 54.440804588891659 ], [ 9.423373545535455, 54.44072205910792 ], [ 9.433288110464819, 54.442377909309982 ], [ 9.433334427338426, 54.442653992335529 ], [ 9.429489131100112, 54.444297784792319 ], [ 9.421630464303121, 54.445612328421781 ], [ 9.421629441713062, 54.445512889013109 ], [ 9.429435222225736, 54.444204641080951 ], [ 9.433186055560311, 54.442643326998763 ], [ 9.433126964357898, 54.442493833116302 ], [ 9.423332962980499, 54.440804588891659 ] ] } },
{ "type": "Feature", "properties": { "Layer": "WBK_WEG_BEST", "SubClasses": "AcDbEntity:AcDbHatch", "EntityHandle": "401AA", "Text": "HONEY" }, "geometry": { "type": "Polygon", "coordinates": [ [ [ 9.423004877082359, 54.450357862264823 ], [ 9.423006062714931, 54.450472761207273 ], [ 9.425231082004363, 54.450286393282532 ], [ 9.426765331433788, 54.450075674348454 ], [ 9.426835162076191, 54.450223564373104 ], [ 9.427055146266435, 54.451857174833883 ], [ 9.427248367600351, 54.451847934713442 ], [ 9.427050714623983, 54.450093210332028 ], [ 9.426838497753014, 54.449941873161428 ], [ 9.425008790656175, 54.450198067483917 ], [ 9.423004877082359, 54.450357862264823 ] ] ] } },
{ "type": "Feature", "properties": { "Layer": "WBK_WEG_BEST", "SubClasses": "AcDbEntity:AcDbPolyline", "EntityHandle": "401AB" }, "geometry": { "type": "LineString", "coordinates": [ [ 9.423004877082359, 54.450357862264823 ], [ 9.423006062714933, 54.450472761208445 ], [ 9.425231082027111, 54.450286393282468 ], [ 9.426765331417629, 54.450075674352526 ], [ 9.426835162084712, 54.450223564371996 ], [ 9.427055146223706, 54.451857174832064 ], [ 9.427248367665683, 54.451847934717669 ], [ 9.427050714612713, 54.450093210324702 ], [ 9.426838497731518, 54.449941873165443 ], [ 9.425008790624968, 54.45019806748342 ], [ 9.423004877082359, 54.450357862264823 ] ] } },
{ "type": "Feature", "properties": { "Layer": "WBK_WEG_BEST", "SubClasses": "AcDbEntity:AcDbHatch", "EntityHandle": "401AC", "Text": "HONEY" }, "geometry": { "type": "Polygon", "coordinates": [ [ [ 9.424894148013939, 54.456695074173879 ], [ 9.424933064867011, 54.456759543361073 ], [ 9.423902639194027, 54.456927846690178 ], [ 9.418197929695214, 54.458973547018488 ], [ 9.412341347384002, 54.458842672586727 ], [ 9.412340374342577, 54.458745963961697 ], [ 9.41800427947015, 54.458915876997786 ], [ 9.423806686697196, 54.456880034404243 ], [ 9.424894148013939, 54.456695074173879 ] ] ] } },
{ "type": "Feature", "properties": { "Layer": "WBK_WEG_BEST", "SubClasses": "AcDbEntity:AcDbPolyline", "EntityHandle": "401AD" }, "geometry": { "type": "LineString", "coordinates": [ [ 9.424894148013939, 54.456695074173879 ], [ 9.424933064866972, 54.456759543373174 ], [ 9.423902639159794, 54.456927846686746 ], [ 9.418197929699959, 54.458973547016839 ], [ 9.412341347438526, 54.458842672590009 ], [ 9.412340374342522, 54.458745963957732 ], [ 9.418004279412747, 54.458915876999122 ], [ 9.423806686748035, 54.456880034402658 ], [ 9.424894148013939, 54.456695074173879 ] ] } },
{ "type": "Feature", "properties": { "Layer": "WBK_WEG_BEST", "SubClasses": "AcDbEntity:AcDbHatch", "EntityHandle": "401AE", "Text": "HONEY" }, "geometry": { "type": "Polygon", "coordinates": [ [ [ 9.412662203903906, 54.464143020681533 ], [ 9.417957028000812, 54.464035204843093 ], [ 9.421240379350072, 54.463192286547049 ], [ 9.42347303505964, 54.463168466038333 ], [ 9.42347466536153, 54.463232561165626 ], [ 9.421418346503922, 54.463247449264067 ], [ 9.418083702226998, 54.46411655903308 ], [ 9.412637147963597, 54.464242469099538 ], [ 9.412662203903906, 54.464143020681533 ] ] ] } },
{ "type": "Feature", "properties": { "Layer": "WBK_WEG_BEST", "SubClasses": "AcDbEntity:AcDbPolyline", "EntityHandle": "401AF" }, "geometry": { "type": "LineString", "coordinates": [ [ 9.412662203903906, 54.464143020681533 ], [ 9.417957028047534, 54.464035204831774 ], [ 9.421240379296773, 54.463192286551916 ], [ 9.423473035092059, 54.463168466043356 ], [ 9.423474665297958, 54.463232561165029 ], [ 9.421418346557951, 54.463247449253345 ], [ 9.418083702201919, 54.464116559038722 ], [ 9.412637147921412, 54.464242469101656 ], [ 9.412662203903906, 54.464143020681533 ] ] } },
{ "type": "Feature", "properties": { "Layer": "WBK_WEG_BEST", "SubClasses": "AcDbEntity:AcDbHatch", "EntityHandle": "401B0", "Text": "HONEY" }, "geometry": { "type": "Polygon", "coordinates": [ [ [ 9.426541246011016, 54.468763193983712 ], [ 9.426527847018637, 54.468691469327844 ], [ 9.427111965341904, 54.465830405402592 ], [ 9.427407187767399, 54.465538277795332 ], [ 9.427702133545393, 54.464409412139112 ], [ 9.427919723128673, 54.464069148422695 ], [ 9.429274038308332, 54.462993179389301 ], [ 9.430497548276628, 54.462448150988003 ], [ 9.430267400153753, 54.46242849843992 ], [ 9.429248764263452, 54.462892648154657 ], [ 9.428766428464204, 54.463205122606645 ], [ 9.428039721320467, 54.463790136802331 ], [ 9.427546967874719, 54.464348075596156 ], [ 9.427300246163371, 54.465457631916671 ], [ 9.426920406289717, 54.46576232156891 ], [ 9.426375424648935, 54.468752941373218 ], [ 9.426541246011016, 54.468763193983712 ] ] ] } },
{ "type": "Feature", "properties": { "Layer": "WBK_WEG_BEST", "SubClasses": "AcDbEntity:AcDbPolyline", "EntityHandle": "401B1" }, "geometry": { "type": "LineString", "coordinates": [ [ 9.426541246011016, 54.468763193983712 ], [ 9.426527847013862, 54.468691469325691 ], [ 9.427111965353514, 54.465830405400744 ], [ 9.427407187699792, 54.465538277800036 ], [ 9.42770213355301, 54.464409412130117 ], [ 9.427919723132543, 54.464069148426574 ], [ 9.42927403838906, 54.462993179392392 ], [ 9.430497548178341, 54.462448150982269 ], [ 9.43026740022994, 54.462428498442442 ], [ 9.429248764297684, 54.462892648148248 ], [ 9.428766428409434, 54.463205122612607 ], [ 9.428039721345508, 54.463790136802807 ], [ 9.427546967838685, 54.464348075592163 ], [ 9.427300246128462, 54.465457631924728 ], [ 9.426920406337526, 54.46576232156545 ], [ 9.426375424696916, 54.468752941371399 ], [ 9.426541246011016, 54.468763193983712 ] ] } },
{ "type": "Feature", "properties": { "Layer": "WBK_WEG_BEST", "SubClasses": "AcDbEntity:AcDbHatch", "EntityHandle": "401B6", "Text": "HONEY" }, "geometry": { "type": "Polygon", "coordinates": [ [ [ 9.422457830621918, 54.475514414469707 ], [ 9.422173017085898, 54.475531686389907 ], [ 9.425372227141843, 54.472124225504345 ], [ 9.425148875693214, 54.472097973730349 ], [ 9.425157315386967, 54.472073616436639 ], [ 9.425505502122656, 54.47212564325946 ], [ 9.422441556451634, 54.475491122624227 ], [ 9.422457830621918, 54.475514414469707 ] ] ] } },
{ "type": "Feature", "properties": { "Layer": "WBK_WEG_BEST", "SubClasses": "AcDbEntity:AcDbPolyline", "EntityHandle": "401B7" }, "geometry": { "type": "LineString", "coordinates": [ [ 9.422457830621918, 54.475514414469707 ], [ 9.4221730170547, 54.47553168639071 ], [ 9.425372227163189, 54.472124225500622 ], [ 9.425148875688238, 54.472097973726669 ], [ 9.425157315350566, 54.472073616446977 ], [ 9.425505502164144, 54.472125643259922 ], [ 9.422441556441491, 54.475491122610634 ], [ 9.422457830621918, 54.475514414469707 ], [ 9.422457830621918, 54.475514414469707 ] ] } },
{ "type": "Feature", "properties": { "Layer": "WBK_WEG_BEST", "SubClasses": "AcDbEntity:AcDbHatch", "EntityHandle": "401B8", "Text": "HONEY" }, "geometry": { "type": "Polygon", "coordinates": [ [ [ 9.432500064864392, 54.475817278591769 ], [ 9.432578120888294, 54.477754390428288 ], [ 9.430798726359345, 54.478915349458561 ], [ 9.430654069734288, 54.47890609027899 ], [ 9.430653535828766, 54.478855323926773 ], [ 9.432486966736956, 54.477720355414448 ], [ 9.432377917811751, 54.475834692858051 ], [ 9.432332404780967, 54.475805126096979 ], [ 9.432500064864392, 54.475817278591769 ] ] ] } },
{ "type": "Feature", "properties": { "Layer": "WBK_WEG_BEST", "SubClasses": "AcDbEntity:AcDbPolyline", "EntityHandle": "401B9" }, "geometry": { "type": "LineString", "coordinates": [ [ 9.432500064864392, 54.475817278591769 ], [ 9.432578120904699, 54.477754390429745 ], [ 9.430798726326509, 54.478915349456592 ], [ 9.430654069706701, 54.478906090276467 ], [ 9.430653535828757, 54.478855323926545 ], [ 9.432486966781925, 54.477720355417802 ], [ 9.432377917769365, 54.475834692861696 ], [ 9.432332404803621, 54.475805126100049 ], [ 9.432500064864392, 54.475817278591769 ] ] } },
{ "type": "Feature", "properties": { "Layer": "WBK_WEG_BEST", "SubClasses": "AcDbEntity:AcDbHatch", "EntityHandle": "401BC", "Text": "HONEY" }, "geometry": { "type": "Polygon", "coordinates": [ [ [ 9.423793474992561, 54.486263278016345 ], [ 9.423772562098849, 54.486193671776292 ], [ 9.42917047430389, 54.485627157071974 ], [ 9.42894494658394, 54.485851649736489 ], [ 9.426488593451682, 54.489207864586007 ], [ 9.426469730966494, 54.489119128710747 ], [ 9.428868038435162, 54.485802430348954 ], [ 9.428859060056322, 54.48578526073269 ], [ 9.428772982335751, 54.485751432974098 ], [ 9.423793474992561, 54.486263278016345 ] ] ] } },
{ "type": "Feature", "properties": { "Layer": "WBK_WEG_BEST", "SubClasses": "AcDbEntity:AcDbPolyline", "EntityHandle": "401BD" }, "geometry": { "type": "LineString", "coordinates": [ [ 9.423793474992561, 54.486263278016345 ], [ 9.42377256212032, 54.486193671771318 ], [ 9.4291704742925, 54.485627157069551 ], [ 9.428944946569807, 54.485851649743402 ], [ 9.426488593490957, 54.489207864584692 ], [ 9.426469730942904, 54.489119128707145 ], [ 9.428868038397777, 54.485802430354262 ], [ 9.428859060068572, 54.48578526073598 ], [ 9.428772982316826, 54.485751432970524 ], [ 9.423793474992561, 54.486263278016345 ] ] } },
{ "type": "Feature", "properties": { "Layer": "WBK_WEG_BEST", "SubClasses": "AcDbEntity:AcDbHatch", "EntityHandle": "401BE", "Text": "HONEY" }, "geometry": { "type": "Polygon", "coordinates": [ [ [ 9.421228924838051, 54.499523041031232 ], [ 9.4239641614754, 54.49947081839148 ], [ 9.424340133426547, 54.499378206404501 ], [ 9.42776521251311, 54.499810146162602 ], [ 9.427759606511447, 54.499765009927472 ], [ 9.424381069026579, 54.499308465939237 ], [ 9.423925129893137, 54.499417523141197 ], [ 9.421222125314841, 54.499477517721083 ], [ 9.421228924838051, 54.499523041031232 ] ] ] } },
{ "type": "Feature", "properties": { "Layer": "WBK_WEG_BEST", "SubClasses": "AcDbEntity:AcDbPolyline", "EntityHandle": "401BF" }, "geometry": { "type": "LineString", "coordinates": [ [ 9.421228924838051, 54.499523041031232 ], [ 9.423964161485134, 54.499470818386357 ], [ 9.424340133400385, 54.499378206405233 ], [ 9.42776521256377, 54.499810146162368 ], [ 9.427759606513417, 54.49976500993472 ], [ 9.424381068972286, 54.499308465937879 ], [ 9.423925129864022, 54.4994175231379 ], [ 9.421222125394049, 54.499477517722845 ], [ 9.421228924838051, 54.499523041031232 ] ] } },
{ "type": "Feature", "properties": { "Layer": "WBK_WEG_BEST", "SubClasses": "AcDbEntity:AcDbHatch", "EntityHandle": "401C8", "Text": "HONEY" }, "geometry": { "type": "Polygon", "coordinates": [ [ [ 9.432764258717917, 54.516277271808264 ], [ 9.432743064226969, 54.516341444132763 ], [ 9.432533698720517, 54.516574538837162 ], [ 9.43138498900599, 54.520535608745519 ], [ 9.431195964501894, 54.521002474165279 ], [ 9.431115130746685, 54.522553701643176 ], [ 9.431382055214359, 54.525080833113883 ], [ 9.431219305590737, 54.525095613730933 ], [ 9.43098561500724, 54.521264400441346 ], [ 9.430670151821753, 54.52119025748798 ], [ 9.430669426351335, 54.521121384677606 ], [ 9.431016449977349, 54.521120147247075 ], [ 9.432430087834581, 54.516262983464074 ], [ 9.432764258717917, 54.516277271808264 ] ] ] } },
{ "type": "Feature", "properties": { "Layer": "WBK_WEG_BEST", "SubClasses": "AcDbEntity:AcDbPolyline", "EntityHandle": "401C9" }, "geometry": { "type": "LineString", "coordinates": [ [ 9.432764258717917, 54.516277271808264 ], [ 9.432743064244901, 54.516341444137453 ], [ 9.432533698682702, 54.516574538835407 ], [ 9.431384989048755, 54.520535608745504 ], [ 9.431195964507967, 54.521002474165762 ], [ 9.431115130746083, 54.522553701639836 ], [ 9.431382055160734, 54.525080833113122 ], [ 9.431219305652659, 54.52509561373639 ], [ 9.430985614959139, 54.521264400438035 ], [ 9.430670151804758, 54.521190257483504 ], [ 9.430669426351425, 54.521121384684882 ], [ 9.431016449999202, 54.521120147246982 ], [ 9.432430087868214, 54.516262983455327 ], [ 9.432764258717917, 54.516277271808264 ] ] } },
{ "type": "Feature", "properties": { "Layer": "WBK_WEG_BEST", "SubClasses": "AcDbEntity:AcDbHatch", "EntityHandle": "401CA", "Text": "HONEY" }, "geometry": { "type": "Polygon", "coordinates": [ [ [ 9.431382055160734, 54.525080833113122 ], [ 9.429938630985106, 54.525169032421438 ], [ 9.429937050310357, 54.525258931946802 ], [ 9.431209258372744, 54.525217470326702 ], [ 9.431617250703596, 54.531347381668468 ], [ 9.431813761852794, 54.531337744078606 ], [ 9.431382055160734, 54.525080833113122 ] ] ] } },
{ "type": "Feature", "properties": { "Layer": "WBK_WEG_BEST", "SubClasses": "AcDbEntity:AcDbPolyline", "EntityHandle": "401CB" }, "geometry": { "type": "LineString", "coordinates": [ [ 9.431382055160734, 54.525080833113122 ], [ 9.429938631049456, 54.525169032420777 ], [ 9.429937050350992, 54.525258931950745 ], [ 9.431209258256388, 54.5252174703229 ], [ 9.431617250785816, 54.53134738166829 ], [ 9.431813761796697, 54.531337744076133 ], [ 9.431382055160734, 54.525080833113122 ] ] } },
{ "type": "Feature", "properties": { "Layer": "WBK_WEG_BEST", "SubClasses": "AcDbEntity:AcDbHatch", "EntityHandle": "401CC", "Text": "HONEY" }, "geometry": { "type": "Polygon", "coordinates": [ [ [ 9.431948695359734, 54.531472241925954 ], [ 9.431855553552435, 54.531517052160297 ], [ 9.431687269094086, 54.535631171428129 ], [ 9.42812072018021, 54.535775970076237 ], [ 9.428132301154827, 54.535686498151627 ], [ 9.43134315281918, 54.535552001349444 ], [ 9.431482386605033, 54.53546733084714 ], [ 9.431667403272886, 54.531464611825889 ], [ 9.431948695359734, 54.531472241925954 ] ] ] } },
{ "type": "Feature", "properties": { "Layer": "WBK_WEG_BEST", "SubClasses": "AcDbEntity:AcDbPolyline", "EntityHandle": "401CD" }, "geometry": { "type": "LineString", "coordinates": [ [ 9.431948695359734, 54.531472241925954 ], [ 9.431855553557002, 54.531517052153369 ], [ 9.431687269080802, 54.535631171425614 ], [ 9.42812072016339, 54.535775970081446 ], [ 9.428132301204906, 54.535686498155314 ], [ 9.431343152783928, 54.535552001351029 ], [ 9.431482386620198, 54.535467330843197 ], [ 9.431667403275595, 54.53146461181931 ], [ 9.431948695359734, 54.531472241925954 ] ] } },
{ "type": "Feature", "properties": { "Layer": "WBK_WEG_BEST", "SubClasses": "AcDbEntity:AcDbHatch", "EntityHandle": "401D2", "Text": "HONEY" }, "geometry": { "type": "Polygon", "coordinates": [ [ [ 9.431711853492525, 54.535632251930728 ], [ 9.431587542317788, 54.536919881794212 ], [ 9.431300609672615, 54.537021826970893 ], [ 9.43048957773213, 54.537009153238216 ], [ 9.430216360642104, 54.537047404798635 ], [ 9.429494144022264, 54.537334928505885 ], [ 9.428902144194344, 54.537987510104905 ], [ 9.427040885397474, 54.539507930684202 ], [ 9.425497243920187, 54.54015934936848 ], [ 9.423411336577953, 54.542716599166177 ], [ 9.423399826480994, 54.542783512610463 ], [ 9.423185740853784, 54.542748430813752 ], [ 9.425376702445915, 54.54012531815934 ], [ 9.426919533443401, 54.539436271403332 ], [ 9.428771889861352, 54.537914403729161 ], [ 9.4293713074431, 54.537260178712152 ], [ 9.430250353976849, 54.536901305888186 ], [ 9.431294470637573, 54.536928481775021 ], [ 9.431391541251919, 54.536888600928954 ], [ 9.431434148986661, 54.536782993882895 ], [ 9.431522709254191, 54.535637854753773 ], [ 9.431711853492525, 54.535632251930728 ] ] ] } },
{ "type": "Feature", "properties": { "Layer": "WBK_WEG_BEST", "SubClasses": "AcDbEntity:AcDbPolyline", "EntityHandle": "401D3" }, "geometry": { "type": "LineString", "coordinates": [ [ 9.431711853492525, 54.535632251930728 ], [ 9.431587542283768, 54.536919881793715 ], [ 9.431300609713963, 54.537021826974815 ], [ 9.43048957779212, 54.537009153241392 ], [ 9.430216360555159, 54.537047404794656 ], [ 9.42949414404829, 54.537334928501664 ], [ 9.428902144213001, 54.53798751011098 ], [ 9.427040885352199, 54.539507930680905 ], [ 9.425497243917626, 54.540159349376687 ], [ 9.42341133662311, 54.542716599164173 ], [ 9.423399826477185, 54.542783512603236 ], [ 9.42318574083297, 54.542748430820602 ], [ 9.425376702512777, 54.540125318151034 ], [ 9.42691953342081, 54.53943627141053 ], [ 9.428771889810299, 54.537914403721679 ], [ 9.429371307484969, 54.537260178718128 ], [ 9.430250353915932, 54.536901305884307 ], [ 9.431294470700321, 54.536928481773245 ], [ 9.431391541195412, 54.53688860093208 ], [ 9.43143414901226, 54.536782993892992 ], [ 9.431522709256956, 54.535637854750725 ], [ 9.431711853492525, 54.535632251930728 ] ] } },
{ "type": "Feature", "properties": { "Layer": "WBK_WEG_BEST", "SubClasses": "AcDbEntity:AcDbHatch", "EntityHandle": "401DB", "Text": "HONEY" }, "geometry": { "type": "Polygon", "coordinates": [ [ [ 9.419888512476177, 54.558174402176185 ], [ 9.420601423548831, 54.555728432001075 ], [ 9.421783054930367, 54.553130485567777 ], [ 9.421902987694549, 54.553069786028907 ], [ 9.422017183496489, 54.553060665391207 ], [ 9.425680827708131, 54.553348094305491 ], [ 9.425754787957537, 54.553258882005011 ], [ 9.421684528737714, 54.552935944102153 ], [ 9.420457881073782, 54.555543442232704 ], [ 9.419746003666546, 54.558174456751033 ], [ 9.419888512476177, 54.558174402176185 ] ] ] } },
{ "type": "Feature", "properties": { "Layer": "WBK_WEG_BEST", "SubClasses": "AcDbEntity:AcDbPolyline", "EntityHandle": "401DC" }, "geometry": { "type": "LineString", "coordinates": [ [ 9.419888512476177, 54.558174402176185 ], [ 9.420601423499997, 54.555728431995462 ], [ 9.421783054950826, 54.553130485569667 ], [ 9.421902987648433, 54.553069786034584 ], [ 9.422017183561628, 54.553060665389786 ], [ 9.425680827742779, 54.553348094291486 ], [ 9.425754787958656, 54.553258882009771 ], [ 9.421684528681853, 54.552935944101122 ], [ 9.420457881069737, 54.555543442233656 ], [ 9.419746003621542, 54.558174456755417 ], [ 9.419888512476177, 54.558174402176185 ] ] } },
{ "type": "Feature", "properties": { "Layer": "WBK_WEG_BEST", "SubClasses": "AcDbEntity:AcDbHatch", "EntityHandle": "401DD", "Text": "HONEY" }, "geometry": { "type": "Polygon", "coordinates": [ [ [ 9.417198272207612, 54.558434151624951 ], [ 9.414606435828416, 54.561752824445421 ], [ 9.41828502090018, 54.563076144196856 ], [ 9.418208471389576, 54.563152163894493 ], [ 9.414523471441699, 54.561878029429238 ], [ 9.414477153776167, 54.561699392026263 ], [ 9.417060340337937, 54.55840096691292 ], [ 9.417198272207612, 54.558434151624951 ] ] ] } },
{ "type": "Feature", "properties": { "Layer": "WBK_WEG_BEST", "SubClasses": "AcDbEntity:AcDbPolyline", "EntityHandle": "401DE" }, "geometry": { "type": "LineString", "coordinates": [ [ 9.417198272207612, 54.558434151624951 ], [ 9.414606435797905, 54.561752824443978 ], [ 9.418285020920832, 54.563076144196209 ], [ 9.418208471377687, 54.563152163893193 ], [ 9.414523471448915, 54.561878029430297 ], [ 9.414477153786951, 54.561699392032665 ], [ 9.417060340306085, 54.558400966905232 ], [ 9.417198272207612, 54.558434151624951 ] ] } },
{ "type": "Feature", "properties": { "Layer": "WBK_WEG_BEST", "SubClasses": "AcDbEntity:AcDbHatch", "EntityHandle": "401E1", "Text": "HONEY" }, "geometry": { "type": "Polygon", "coordinates": [ [ [ 9.410919593227149, 54.565018637721131 ], [ 9.410972876162027, 54.565151051917383 ], [ 9.411555365450241, 54.565429210864387 ], [ 9.414090822688966, 54.566167176116977 ], [ 9.416291987847439, 54.566660510813684 ], [ 9.416294517838395, 54.566779670740118 ], [ 9.413468782727213, 54.566110071473091 ], [ 9.410635832616787, 54.565266800504062 ], [ 9.410919593227149, 54.565018637721131 ] ] ] } },
{ "type": "Feature", "properties": { "Layer": "WBK_WEG_BEST", "SubClasses": "AcDbEntity:AcDbPolyline", "EntityHandle": "401E2" }, "geometry": { "type": "LineString", "coordinates": [ [ 9.410919593227149, 54.565018637721131 ], [ 9.410972876219583, 54.565151051913674 ], [ 9.411555365379714, 54.565429210863535 ], [ 9.414090822710026, 54.566167176116025 ], [ 9.41629198785609, 54.566660510818444 ], [ 9.416294517825152, 54.566779670734448 ], [ 9.41346878275176, 54.56611007147329 ], [ 9.410635832599835, 54.565266800500396 ], [ 9.410919593227149, 54.565018637721131 ] ] } },
{ "type": "Feature", "properties": { "Layer": "WBK_WEG_BEST", "SubClasses": "AcDbEntity:AcDbHatch", "EntityHandle": "401E3", "Text": "HONEY" }, "geometry": { "type": "Polygon", "coordinates": [ [ [ 9.411618420084155, 54.573172201480546 ], [ 9.411605595385359, 54.573274175442968 ], [ 9.406554412434234, 54.573055844149835 ], [ 9.406428380570746, 54.57313047434269 ], [ 9.406392906940571, 54.572949370588738 ], [ 9.406529047505741, 54.572987929069519 ], [ 9.411618420084155, 54.573172201480546 ] ] ] } },
{ "type": "Feature", "properties": { "Layer": "WBK_WEG_BEST", "SubClasses": "AcDbEntity:AcDbPolyline", "EntityHandle": "401E4" }, "geometry": { "type": "LineString", "coordinates": [ [ 9.411618420084155, 54.573172201480546 ], [ 9.411605595399141, 54.57327417544461 ], [ 9.406554412430792, 54.573055844159086 ], [ 9.4064283805385, 54.573130474337205 ], [ 9.40639290698067, 54.572949370589292 ], [ 9.406529047451579, 54.572987929070734 ], [ 9.411618420084155, 54.573172201480546 ] ] } },
{ "type": "Feature", "properties": { "Layer": "WBK_WEG_BEST", "SubClasses": "AcDbEntity:AcDbHatch", "EntityHandle": "401E5", "Text": "HONEY" }, "geometry": { "type": "Polygon", "coordinates": [ [ [ 9.408347356985272, 54.586150127435999 ], [ 9.408252526789274, 54.586152568599687 ], [ 9.405975248375599, 54.585344832642861 ], [ 9.405952514653009, 54.585423001483619 ], [ 9.408343913989885, 54.586294632760485 ], [ 9.408347356985272, 54.586150127435999 ] ] ] } },
{ "type": "Feature", "properties": { "Layer": "WBK_WEG_BEST", "SubClasses": "AcDbEntity:AcDbPolyline", "EntityHandle": "401E6" }, "geometry": { "type": "LineString", "coordinates": [ [ 9.408347356985272, 54.586150127435999 ], [ 9.408252526837408, 54.586152568601037 ], [ 9.405975248323335, 54.58534483263076 ], [ 9.405952514634109, 54.585423001489353 ], [ 9.4083439139836, 54.586294632759902 ], [ 9.408347356985272, 54.586150127435999 ] ] } },
{ "type": "Feature", "properties": { "Layer": "WBK_WEG_BEST", "SubClasses": "AcDbEntity:AcDbHatch", "EntityHandle": "401ED", "Text": "HONEY" }, "geometry": { "type": "MultiLineString", "coordinates": [ [ [ 9.407779526788691, 54.59816221016041 ], [ 9.412398607226507, 54.599167802069545 ] ], [ [ 9.412398607226507, 54.599167802069545 ], [ 9.411659789327457, 54.602418903740968 ] ], [ [ 9.411659789327457, 54.602418903740968 ], [ 9.411464344058095, 54.602529834005544 ] ], [ [ 9.411464344058095, 54.602529834005544 ], [ 9.412221375206101, 54.599189205634396 ] ], [ [ 9.412221375206101, 54.599189205634396 ], [ 9.407755058667716, 54.598191940869611 ] ], [ [ 9.407755058667716, 54.598191940869611 ], [ 9.407779014536958, 54.598162846855871 ] ] ] } },
{ "type": "Feature", "properties": { "Layer": "WBK_WEG_BEST", "SubClasses": "AcDbEntity:AcDbPolyline", "EntityHandle": "401EE" }, "geometry": { "type": "LineString", "coordinates": [ [ 9.407779526788691, 54.59816221016041 ], [ 9.412398607226507, 54.599167802069545 ], [ 9.411667740445131, 54.602439807449635 ], [ 9.411464344058095, 54.602529834005544 ], [ 9.412221375206101, 54.599189205634396 ], [ 9.407755058667716, 54.598191940869611 ], [ 9.407779014555386, 54.598162846848162 ] ] } },
{ "type": "Feature", "properties": { "Layer": "WBK_WEG_BEST", "SubClasses": "AcDbEntity:AcDbHatch", "EntityHandle": "401EF", "Text": "HONEY" }, "geometry": { "type": "MultiLineString", "coordinates": [ [ [ 9.416241816831352, 54.610900277997089 ], [ 9.420148405754842, 54.6068715251226 ] ], [ [ 9.420148405810178, 54.606871525126195 ], [ 9.421290583579669, 54.605881478309016 ] ], [ [ 9.421290583549993, 54.605881478307062 ], [ 9.421619884721043, 54.605309574118202 ] ], [ [ 9.421619884761888, 54.605309574120994 ], [ 9.421890933550722, 54.604628095705138 ] ], [ [ 9.421890933540451, 54.604628095703269 ], [ 9.422248269478972, 54.604363506459769 ] ], [ [ 9.422248269452567, 54.60436350644823 ], [ 9.423220771468088, 54.604030377908408 ] ], [ [ 9.4232207714384, 54.604030377915343 ], [ 9.42398924447725, 54.603830870540278 ] ], [ [ 9.423989244522948, 54.603830870540286 ], [ 9.424432603585071, 54.603530173367851 ] ], [ [ 9.424432603574898, 54.60353017336768 ], [ 9.42420124755656, 54.603476718304009 ] ], [ [ 9.424201247552254, 54.603476718310269 ], [ 9.423973955773175, 54.603701969330459 ] ], [ [ 9.42397395573758, 54.603701969322721 ], [ 9.423801395264972, 54.603780949953318 ] ], [ [ 9.423801395291354, 54.603780949955684 ], [ 9.422782125034631, 54.604051000509571 ] ], [ [ 9.422782125041723, 54.604051000512634 ], [ 9.422097123139642, 54.604308197680496 ] ], [ [ 9.422097123140237, 54.604308197678129 ], [ 9.421708417809551, 54.604635921845805 ] ], [ [ 9.421708417818785, 54.604635921845194 ], [ 9.421403476879396, 54.605399668297402 ] ], [ [ 9.421403476885837, 54.605399668296165 ], [ 9.421231361098499, 54.605730316194212 ] ], [ [ 9.421231361085193, 54.605730316194247 ], [ 9.420479578705452, 54.606431461729542 ] ], [ [ 9.420479578703247, 54.606431461734886 ], [ 9.419607732448767, 54.607204789397571 ] ], [ [ 9.419607732415217, 54.607204789395233 ], [ 9.416184279204602, 54.610774769704513 ] ], [ [ 9.41618427928193, 54.610774769694238 ], [ 9.416241686499241, 54.610900002516495 ] ] ] } },
{ "type": "Feature", "properties": { "Layer": "WBK_WEG_BEST", "SubClasses": "AcDbEntity:AcDbPolyline", "EntityHandle": "401F0" }, "geometry": { "type": "LineString", "coordinates": [ [ 9.416241816831352, 54.610900277997089 ], [ 9.420148405810178, 54.606871525126195 ], [ 9.421290583549993, 54.605881478307062 ], [ 9.421619884761888, 54.605309574120994 ], [ 9.421890933540451, 54.604628095703269 ], [ 9.422248269452567, 54.60436350644823 ], [ 9.4232207714384, 54.604030377915343 ], [ 9.423989244522948, 54.603830870540286 ], [ 9.424432603574898, 54.60353017336768 ], [ 9.424201247552254, 54.603476718310269 ], [ 9.42397395573758, 54.603701969322721 ], [ 9.423801395291354, 54.603780949955684 ], [ 9.422782125041723, 54.604051000512634 ], [ 9.422097123140237, 54.604308197678129 ], [ 9.421708417818785, 54.604635921845194 ], [ 9.421403476885837, 54.605399668296165 ], [ 9.421231361085193, 54.605730316194247 ], [ 9.420479578703247, 54.606431461734886 ], [ 9.419607732415217, 54.607204789395233 ], [ 9.41618427928193, 54.610774769694238 ], [ 9.416241686502911, 54.610900002521987 ] ] } },
{ "type": "Feature", "properties": { "Layer": "WBK_WEG_BEST", "SubClasses": "AcDbEntity:AcDbHatch", "EntityHandle": "401F1", "Text": "HONEY" }, "geometry": { "type": "Polygon", "coordinates": [ [ [ 9.416627010199687, 54.614821627752413 ], [ 9.421307291658678, 54.615699673928354 ], [ 9.420208506484583, 54.61776777857046 ], [ 9.42012187077369, 54.617642369307042 ], [ 9.421008195919173, 54.615855700008986 ], [ 9.420854234581537, 54.615749955453197 ], [ 9.416552879922801, 54.614886256237369 ], [ 9.416627010199687, 54.614821627752413 ] ] ] } },
{ "type": "Feature", "properties": { "Layer": "WBK_WEG_BEST", "SubClasses": "AcDbEntity:AcDbPolyline", "EntityHandle": "401F2" }, "geometry": { "type": "LineString", "coordinates": [ [ 9.416627010199687, 54.614821627752413 ], [ 9.421307291662632, 54.615699673925477 ], [ 9.420208506504949, 54.617767778566908 ], [ 9.420121870782175, 54.617642369311703 ], [ 9.421008195933828, 54.615855700011487 ], [ 9.420854234527582, 54.615749955452145 ], [ 9.416552879926279, 54.61488625623862 ], [ 9.416627010199687, 54.614821627752413 ] ] } },
{ "type": "Feature", "properties": { "Layer": "WBK_WEG_BEST", "SubClasses": "AcDbEntity:AcDbHatch", "EntityHandle": "401F3", "Text": "HONEY" }, "geometry": { "type": "Polygon", "coordinates": [ [ [ 9.425663060332012, 54.620855657921865 ], [ 9.420955908415172, 54.623070968970644 ], [ 9.420840295213925, 54.622996275909301 ], [ 9.425517770747957, 54.620810618455451 ], [ 9.425663060332012, 54.620855657921865 ] ] ] } },
{ "type": "Feature", "properties": { "Layer": "WBK_WEG_BEST", "SubClasses": "AcDbEntity:AcDbPolyline", "EntityHandle": "401F4" }, "geometry": { "type": "LineString", "coordinates": [ [ 9.425663060332012, 54.620855657921865 ], [ 9.42095590837117, 54.623070968958928 ], [ 9.420840295244128, 54.622996275913664 ], [ 9.425517770719965, 54.620810618452211 ], [ 9.425663060332012, 54.620855657921865 ] ] } },
{ "type": "Feature", "properties": { "Layer": "WBK_WEG_BEST", "SubClasses": "AcDbEntity:AcDbHatch", "EntityHandle": "401F5", "Text": "HONEY" }, "geometry": { "type": "Polygon", "coordinates": [ [ [ 9.417093489189082, 54.639103317980393 ], [ 9.417319749307124, 54.638769507677623 ], [ 9.417601552233668, 54.638392053238782 ], [ 9.417985087242085, 54.637140057000408 ], [ 9.41789991915774, 54.637140351195868 ], [ 9.417489780316668, 54.638404845470973 ], [ 9.416953536558218, 54.639049267416929 ], [ 9.417093489189082, 54.639103317980393 ] ] ] } },
{ "type": "Feature", "properties": { "Layer": "WBK_WEG_BEST", "SubClasses": "AcDbEntity:AcDbPolyline", "EntityHandle": "401F6" }, "geometry": { "type": "LineString", "coordinates": [ [ 9.417093489189082, 54.639103317980393 ], [ 9.417319749322379, 54.638769507679264 ], [ 9.417601552198816, 54.638392053238015 ], [ 9.41798508726402, 54.637140057001162 ], [ 9.417899919131722, 54.63714035119596 ], [ 9.417489780364201, 54.63840484547238 ], [ 9.416953536539038, 54.639049267413519 ], [ 9.417093489189082, 54.639103317980393 ] ] } },
{ "type": "Feature", "properties": { "Layer": "WBK_WEG_BEST", "SubClasses": "AcDbEntity:AcDbHatch", "EntityHandle": "40201", "Text": "HONEY" }, "geometry": { "type": "MultiLineString", "coordinates": [ [ [ 9.422828273992915, 54.651324662536261 ], [ 9.422078736925817, 54.653148026511481 ] ], [ [ 9.422078736973745, 54.653148026518586 ], [ 9.420335418590934, 54.656121002387579 ] ], [ [ 9.420335418554565, 54.65612100238036 ], [ 9.420151936045819, 54.65605534052397 ] ], [ [ 9.420151936041345, 54.656055340518435 ], [ 9.421897578054011, 54.653158184373403 ] ], [ [ 9.421897578028414, 54.653158184375719 ], [ 9.422538657598363, 54.651390901414707 ] ], [ [ 9.422538657606317, 54.651390901419241 ], [ 9.422597896193361, 54.651280455117302 ] ], [ [ 9.422597896271377, 54.651280455118517 ], [ 9.422815373894695, 54.65131967491746 ] ] ] } },
{ "type": "Feature", "properties": { "Layer": "WBK_WEG_BEST", "SubClasses": "AcDbEntity:AcDbPolyline", "EntityHandle": "40202" }, "geometry": { "type": "LineString", "coordinates": [ [ 9.422828273992915, 54.651324662536261 ], [ 9.422078736973745, 54.653148026518586 ], [ 9.420335418554565, 54.65612100238036 ], [ 9.420151936041345, 54.656055340518435 ], [ 9.421897578028414, 54.653158184375719 ], [ 9.422538657606317, 54.651390901419241 ], [ 9.422597896271377, 54.651280455118517 ], [ 9.422815373871721, 54.65131967491569 ] ] } },
{ "type": "Feature", "properties": { "Layer": "WBK_WEG_BEST", "SubClasses": "AcDbEntity:AcDbPolyline", "EntityHandle": "8A46E" }, "geometry": { "type": "LineString", "coordinates": [ [ 9.217849597920782, 54.828552704746237 ], [ 9.218789168989858, 54.82879764784068 ], [ 9.218856429839496, 54.828733949330299 ], [ 9.217882714546592, 54.828498367290535 ], [ 9.217849597920782, 54.828552704746237 ] ] } },
{ "type": "Feature", "properties": { "Layer": "WBK_WEG_BEST", "SubClasses": "AcDbEntity:AcDbHatch", "EntityHandle": "8A470", "Text": "HONEY" }, "geometry": { "type": "Polygon", "coordinates": [ [ [ 9.217849597920782, 54.828552704746237 ], [ 9.218789168989858, 54.82879764784068 ], [ 9.218856429839496, 54.828733949330299 ], [ 9.217882714546592, 54.828498367290535 ], [ 9.217849597920782, 54.828552704746237 ] ] ] } },
{ "type": "Feature", "properties": { "Layer": "WBK_WEG_BEST", "SubClasses": "AcDbEntity:AcDbHatch", "EntityHandle": "8F73A", "Text": "HONEY" }, "geometry": { "type": "Polygon", "coordinates": [ [ [ 9.22492506068628, 54.818394764737107 ], [ 9.2286320891254, 54.818959080356684 ], [ 9.228604173278558, 54.818909489574295 ], [ 9.22847749360346, 54.818879903070247 ], [ 9.227346007091878, 54.818683471635602 ], [ 9.224988371224722, 54.818339361327219 ], [ 9.22492506068628, 54.818394764737107 ] ] ] } }
]
}
