{
"type": "FeatureCollection",
"name": "entities",
"crs": { "type": "name", "properties": { "name": "urn:ogc:def:crs:OGC:1.3:CRS84" } },
"features": [
{ "type": "Feature", "properties": { "Layer": "WBK_SCHUTZNETZ", "SubClasses": "AcDbEntity:AcDbHatch", "EntityHandle": "3FF63", "Text": "HEX" }, "geometry": { "type": "MultiPolygon", "coordinates": [ [ [ [ 9.28987962330782, 54.738316222818789 ], [ 9.289781189058179, 54.738360635857006 ], [ 9.287021241737873, 54.73814827082542 ], [ 9.287020814499842, 54.738087927681477 ], [ 9.28987962330782, 54.738316222818789 ] ] ], [ [ [ 9.287020814499842, 54.738087927681477 ], [ 9.287021241737873, 54.73814827082542 ], [ 9.28449644428386, 54.73795394249256 ], [ 9.284489921828623, 54.737885760466341 ], [ 9.287020814499842, 54.738087927681477 ] ] ], [ [ [ 9.291794072753577, 54.738469065361031 ], [ 9.291863514230549, 54.738520817978269 ], [ 9.290031692243598, 54.738379907684518 ], [ 9.290128752711242, 54.738336114154563 ], [ 9.291794072753577, 54.738469065361031 ] ] ], [ [ [ 9.290128752711242, 54.738336114154563 ], [ 9.290031692243598, 54.738379907684518 ], [ 9.289781189058179, 54.738360635857006 ], [ 9.28987962330782, 54.738316222818789 ], [ 9.290128752711242, 54.738336114154563 ] ] ], [ [ [ 9.295121346306958, 54.738734627879047 ], [ 9.295046359620985, 54.738765585664495 ], [ 9.291863514230549, 54.738520817978269 ], [ 9.291794072753577, 54.738469065361031 ], [ 9.295121346306958, 54.738734627879047 ] ] ], [ [ [ 9.295289581067454, 54.738748052813065 ], [ 9.295285374450485, 54.738750087857895 ], [ 9.295262032367775, 54.738761380499398 ], [ 9.295240557828411, 54.738771769902918 ], [ 9.295224957524796, 54.738779317669028 ], [ 9.295046359620985, 54.738765585664495 ], [ 9.295121346306958, 54.738734627879047 ], [ 9.295289581067454, 54.738748052813065 ] ] ], [ [ [ 9.295439588034952, 54.73876002300328 ], [ 9.295497677913559, 54.738800209927291 ], [ 9.295497679532644, 54.738800262330706 ], [ 9.295497637134567, 54.738800282866229 ], [ 9.295225151053703, 54.738779332538591 ], [ 9.29524000484888, 54.738772146732799 ], [ 9.295261468163272, 54.738761763819333 ], [ 9.295284798268654, 54.738750478226642 ], [ 9.295289779551799, 54.738748068654751 ], [ 9.295439588034952, 54.73876002300328 ] ] ] ] } },
{ "type": "Feature", "properties": { "Layer": "WBK_SCHUTZNETZ", "SubClasses": "AcDbEntity:AcDbHatch", "EntityHandle": "3FF66", "Text": "HONEY" }, "geometry": { "type": "MultiPolygon", "coordinates": [ [ [ [ 9.304228792327045, 54.734872246740167 ], [ 9.304160051050095, 54.734907612795887 ], [ 9.304153914405052, 54.734910728259905 ], [ 9.304153925839353, 54.734910704219885 ], [ 9.304241928721465, 54.734740990691201 ], [ 9.304285169580965, 54.73465139895761 ], [ 9.304307980770538, 54.734586911046364 ], [ 9.30431966539162, 54.734530475649407 ], [ 9.304582674847074, 54.734403157082383 ], [ 9.304582215874605, 54.734439397204817 ], [ 9.3045590937567, 54.734547416537687 ], [ 9.30452328949286, 54.734658216456872 ], [ 9.304485766802049, 54.734740037344146 ], [ 9.304284793041623, 54.734843435348495 ], [ 9.304247114045943, 54.734836896296812 ], [ 9.304228792327045, 54.734872246740167 ] ] ], [ [ [ 9.30456906404538, 54.73419182028843 ], [ 9.304583855529375, 54.734309924972038 ], [ 9.304582674847074, 54.734403157082383 ], [ 9.30431966539162, 54.734530475649407 ], [ 9.304329458699149, 54.734483175544611 ], [ 9.304342352100136, 54.734394149386546 ], [ 9.304344482189512, 54.734305642277242 ], [ 9.304337914345268, 54.734244434946689 ], [ 9.304554888079991, 54.734149075095566 ], [ 9.30456906404538, 54.73419182028843 ] ] ] ] } },
{ "type": "Feature", "properties": { "Layer": "WBK_SCHUTZNETZ", "SubClasses": "AcDbEntity:AcDbHatch", "EntityHandle": "3FF68", "Text": "HONEY" }, "geometry": { "type": "MultiPolygon", "coordinates": [ [ [ [ 9.28987962330782, 54.738316222818789 ], [ 9.289781189058179, 54.738360635857006 ], [ 9.28449644428386, 54.73795394249256 ], [ 9.284489921828623, 54.737885760466341 ], [ 9.28987962330782, 54.738316222818789 ] ] ], [ [ [ 9.290128752711242, 54.738336114154563 ], [ 9.290031692243598, 54.738379907684518 ], [ 9.289781189058179, 54.738360635857006 ], [ 9.28987962330782, 54.738316222818789 ], [ 9.290128752711242, 54.738336114154563 ] ] ], [ [ [ 9.291794072753577, 54.738469065361031 ], [ 9.291863514230549, 54.738520817978269 ], [ 9.290031692243598, 54.738379907684518 ], [ 9.290128752711242, 54.738336114154563 ], [ 9.291794072753577, 54.738469065361031 ] ] ], [ [ [ 9.295496573789004, 54.738764570274618 ], [ 9.295497680256409, 54.738800286191157 ], [ 9.291863514230549, 54.738520817978269 ], [ 9.291794072753577, 54.738469065361031 ], [ 9.295496573789004, 54.738764570274618 ] ] ] ] } },
{ "type": "Feature", "properties": { "Layer": "WBK_SCHUTZNETZ", "SubClasses": "AcDbEntity:AcDbHatch", "EntityHandle": "3FF73", "Text": "HONEY" }, "geometry": { "type": "Polygon", "coordinates": [ [ [ 9.34985171785895, 54.713244100393204 ], [ 9.350104858812985, 54.713129776920788 ], [ 9.34980267189999, 54.712784607312038 ], [ 9.34954602874193, 54.712896088354597 ], [ 9.34985171785895, 54.713244100393204 ] ] ] } },
{ "type": "Feature", "properties": { "Layer": "WBK_SCHUTZNETZ", "SubClasses": "AcDbEntity:AcDbPolyline", "EntityHandle": "3FF74" }, "geometry": { "type": "LineString", "coordinates": [ [ 9.34985171785895, 54.713244100393204 ], [ 9.350104858812985, 54.713129776920788 ], [ 9.34980267189999, 54.712784607312038 ], [ 9.34954602874193, 54.712896088354597 ], [ 9.34985171785895, 54.713244100393204 ] ] } },
{ "type": "Feature", "properties": { "Layer": "WBK_SCHUTZNETZ", "SubClasses": "AcDbEntity:AcDbHatch", "EntityHandle": "3FF7E", "Text": "HONEY" }, "geometry": { "type": "Polygon", "coordinates": [ [ [ 9.394868219363611, 54.692729401870643 ], [ 9.395112119995275, 54.69261609037278 ], [ 9.396233217645223, 54.692641743253503 ], [ 9.395982957614915, 54.692752555380416 ], [ 9.394868219363611, 54.692729401870643 ] ] ] } },
{ "type": "Feature", "properties": { "Layer": "WBK_SCHUTZNETZ", "SubClasses": "AcDbEntity:AcDbPolyline", "EntityHandle": "3FF7F" }, "geometry": { "type": "LineString", "coordinates": [ [ 9.394868219363611, 54.692729401870643 ], [ 9.395112119995275, 54.69261609037278 ], [ 9.396233217645223, 54.692641743253503 ], [ 9.395982957614915, 54.692752555380416 ], [ 9.394868219363611, 54.692729401870643 ] ] } },
{ "type": "Feature", "properties": { "Layer": "WBK_SCHUTZNETZ", "SubClasses": "AcDbEntity:AcDbHatch", "EntityHandle": "3FF8C", "Text": "HONEY" }, "geometry": { "type": "Polygon", "coordinates": [ [ [ 9.419808947099728, 54.664441514282345 ], [ 9.419795967670959, 54.66422626975811 ], [ 9.42044006015381, 54.664104747599509 ], [ 9.420397385200383, 54.6643224221773 ], [ 9.419808947099728, 54.664441514282345 ] ] ] } },
{ "type": "Feature", "properties": { "Layer": "WBK_SCHUTZNETZ", "SubClasses": "AcDbEntity:AcDbPolyline", "EntityHandle": "3FF8D" }, "geometry": { "type": "LineString", "coordinates": [ [ 9.419808947099728, 54.664441514282345 ], [ 9.419795967670959, 54.66422626975811 ], [ 9.42044006015381, 54.664104747599509 ], [ 9.420397385200383, 54.6643224221773 ], [ 9.419808947099728, 54.664441514282345 ] ] } },
{ "type": "Feature", "properties": { "Layer": "WBK_SCHUTZNETZ", "SubClasses": "AcDbEntity:AcDbHatch", "EntityHandle": "3FF93", "Text": "HONEY" }, "geometry": { "type": "MultiLineString", "coordinates": [ [ [ 9.420597716939698, 54.650995712318924 ], [ 9.42059935058181, 54.65084936761663 ] ], [ [ 9.42059935058181, 54.65084936761663 ], [ 9.421360826338988, 54.650967548309318 ] ], [ [ 9.421360826338988, 54.650967548309318 ], [ 9.421346623013505, 54.651103098551985 ] ], [ [ 9.421346623013505, 54.651103098551985 ], [ 9.420595086627225, 54.650995335154327 ] ] ] } },
{ "type": "Feature", "properties": { "Layer": "WBK_SCHUTZNETZ", "SubClasses": "AcDbEntity:AcDbPolyline", "EntityHandle": "3FF94" }, "geometry": { "type": "LineString", "coordinates": [ [ 9.420597716939698, 54.650995712318924 ], [ 9.42059935058181, 54.65084936761663 ], [ 9.421360826338988, 54.650967548309318 ], [ 9.421346623013505, 54.651103098551985 ], [ 9.420595086627225, 54.650995335154327 ] ] } },
{ "type": "Feature", "properties": { "Layer": "WBK_SCHUTZNETZ", "SubClasses": "AcDbEntity:AcDbHatch", "EntityHandle": "3FF9A", "Text": "HONEY" }, "geometry": { "type": "Polygon", "coordinates": [ [ [ 9.421450389210507, 54.639251046758915 ], [ 9.421454710652251, 54.639158874669597 ], [ 9.422168644243534, 54.639123403965307 ], [ 9.42216107922488, 54.639211876999198 ], [ 9.421450389210507, 54.639251046758915 ] ] ] } },
{ "type": "Feature", "properties": { "Layer": "WBK_SCHUTZNETZ", "SubClasses": "AcDbEntity:AcDbPolyline", "EntityHandle": "3FF9B" }, "geometry": { "type": "LineString", "coordinates": [ [ 9.421450389210507, 54.639251046758915 ], [ 9.421454710652251, 54.639158874669597 ], [ 9.422168644243534, 54.639123403965307 ], [ 9.42216107922488, 54.639211876999198 ], [ 9.421450389210507, 54.639251046758915 ] ] } },
{ "type": "Feature", "properties": { "Layer": "WBK_SCHUTZNETZ", "SubClasses": "AcDbEntity:AcDbPolyline", "EntityHandle": "3FFA3" }, "geometry": { "type": "LineString", "coordinates": [ [ 9.42264328251891, 54.622294999888332 ], [ 9.423252639617596, 54.622011095086009 ], [ 9.423245933118633, 54.621898398675931 ], [ 9.4230918180267, 54.621972708430093 ], [ 9.422668414644107, 54.622161768738053 ], [ 9.42264328251891, 54.622294999888332 ] ] } },
{ "type": "Feature", "properties": { "Layer": "WBK_SCHUTZNETZ", "SubClasses": "AcDbEntity:AcDbHatch", "EntityHandle": "3FFAD", "Text": "HONEY" }, "geometry": { "type": "Polygon", "coordinates": [ [ [ 9.408255775662997, 54.597042660598277 ], [ 9.408394451661646, 54.597332569680532 ], [ 9.408633720445629, 54.597017839297884 ], [ 9.408799600499439, 54.59673911682696 ], [ 9.408598406916513, 54.596478597199606 ], [ 9.408466740157468, 54.596727779677067 ], [ 9.408382509576732, 54.596865280254349 ], [ 9.408255775662997, 54.597042660598277 ] ] ] } },
{ "type": "Feature", "properties": { "Layer": "WBK_SCHUTZNETZ", "SubClasses": "AcDbEntity:AcDbPolyline", "EntityHandle": "3FFAE" }, "geometry": { "type": "LineString", "coordinates": [ [ 9.408255775662997, 54.597042660598277 ], [ 9.408394451661646, 54.597332569680532 ], [ 9.408633720445629, 54.597017839297884 ], [ 9.408799600499439, 54.59673911682696 ], [ 9.408598406916513, 54.596478597199606 ], [ 9.408466740157468, 54.596727779677067 ], [ 9.408382509576732, 54.596865280254349 ], [ 9.408255775662997, 54.597042660598277 ] ] } },
{ "type": "Feature", "properties": { "Layer": "WBK_SCHUTZNETZ", "SubClasses": "AcDbEntity:AcDbHatch", "EntityHandle": "3FFB7", "Text": "HONEY" }, "geometry": { "type": "Polygon", "coordinates": [ [ [ 9.40799118885352, 54.578368155072909 ], [ 9.407880360493319, 54.578694113481966 ], [ 9.40827381694961, 54.579727862857929 ], [ 9.408393331605138, 54.579266925544026 ], [ 9.40799118885352, 54.578368155072909 ] ] ] } },
{ "type": "Feature", "properties": { "Layer": "WBK_SCHUTZNETZ", "SubClasses": "AcDbEntity:AcDbPolyline", "EntityHandle": "3FFB8" }, "geometry": { "type": "LineString", "coordinates": [ [ 9.40799118885352, 54.578368155072909 ], [ 9.407880360493319, 54.578694113481966 ], [ 9.40827381694961, 54.579727862857929 ], [ 9.408393331605138, 54.579266925544026 ], [ 9.40799118885352, 54.578368155072909 ] ] } },
{ "type": "Feature", "properties": { "Layer": "WBK_SCHUTZNETZ", "SubClasses": "AcDbEntity:AcDbPolyline", "EntityHandle": "3FFCB" }, "geometry": { "type": "LineString", "coordinates": [ [ 9.429666426413013, 54.531384672627766 ], [ 9.429644419085212, 54.531506941479577 ], [ 9.428764580509826, 54.531582429910692 ], [ 9.428782123792658, 54.531459512954321 ], [ 9.429666426413013, 54.531384672627766 ] ] } },
{ "type": "Feature", "properties": { "Layer": "WBK_SCHUTZNETZ", "SubClasses": "AcDbEntity:AcDbHatch", "EntityHandle": "3FFD0", "Text": "HONEY" }, "geometry": { "type": "Polygon", "coordinates": [ [ [ 9.433573335034431, 54.516356683769018 ], [ 9.433616497250499, 54.516168246945334 ], [ 9.434534648603956, 54.516258310421151 ], [ 9.434485697268885, 54.516445363420416 ], [ 9.433573335034431, 54.516356683769018 ] ] ] } },
{ "type": "Feature", "properties": { "Layer": "WBK_SCHUTZNETZ", "SubClasses": "AcDbEntity:AcDbPolyline", "EntityHandle": "3FFD1" }, "geometry": { "type": "LineString", "coordinates": [ [ 9.433573335034431, 54.516356683769018 ], [ 9.433616497250499, 54.516168246945334 ], [ 9.434534648603956, 54.516258310421151 ], [ 9.434485697268885, 54.516445363420416 ], [ 9.433573335034431, 54.516356683769018 ] ] } },
{ "type": "Feature", "properties": { "Layer": "WBK_SCHUTZNETZ", "SubClasses": "AcDbEntity:AcDbHatch", "EntityHandle": "3FFDD", "Text": "HONEY" }, "geometry": { "type": "Polygon", "coordinates": [ [ [ 9.424779418947285, 54.468803062879275 ], [ 9.424779266211731, 54.468688976965133 ], [ 9.425484357290291, 54.468721053256616 ], [ 9.425500283564972, 54.468834429275077 ], [ 9.424779418947285, 54.468803062879275 ] ] ] } },
{ "type": "Feature", "properties": { "Layer": "WBK_SCHUTZNETZ", "SubClasses": "AcDbEntity:AcDbPolyline", "EntityHandle": "3FFDE" }, "geometry": { "type": "LineString", "coordinates": [ [ 9.424779418947285, 54.468803062879275 ], [ 9.424779266211731, 54.468688976965133 ], [ 9.425484357290291, 54.468721053256616 ], [ 9.425500283564972, 54.468834429275077 ], [ 9.424779418947285, 54.468803062879275 ] ] } },
{ "type": "Feature", "properties": { "Layer": "WBK_SCHUTZNETZ", "SubClasses": "AcDbEntity:AcDbHatch", "EntityHandle": "3FFE4", "Text": "HONEY" }, "geometry": { "type": "Polygon", "coordinates": [ [ [ 9.423186615766907, 54.445154948284788 ], [ 9.423184226722297, 54.445350514219179 ], [ 9.423723763402879, 54.44526308912976 ], [ 9.423697919699459, 54.445071810366478 ], [ 9.423186615766907, 54.445154948284788 ] ] ] } },
{ "type": "Feature", "properties": { "Layer": "WBK_SCHUTZNETZ", "SubClasses": "AcDbEntity:AcDbPolyline", "EntityHandle": "3FFE5" }, "geometry": { "type": "LineString", "coordinates": [ [ 9.423186615766907, 54.445154948284788 ], [ 9.423184226722297, 54.445350514219179 ], [ 9.423723763402879, 54.44526308912976 ], [ 9.423697919699459, 54.445071810366478 ], [ 9.423186615766907, 54.445154948284788 ] ] } },
{ "type": "Feature", "properties": { "Layer": "WBK_SCHUTZNETZ", "SubClasses": "AcDbEntity:AcDbPolyline", "EntityHandle": "400D6" }, "geometry": { "type": "LineString", "coordinates": [ [ 9.304516077539972, 54.734724442856937 ], [ 9.304153888015097, 54.734910783557318 ], [ 9.304257224327024, 54.734694273334924 ], [ 9.304307941006213, 54.734534221455583 ], [ 9.304331487433929, 54.734393842551739 ], [ 9.304337914345268, 54.734244434946689 ], [ 9.304582242963258, 54.734137052592395 ], [ 9.304612984994151, 54.734254913408535 ], [ 9.30459361328124, 54.734397857867002 ], [ 9.30457860563944, 54.734538694290457 ], [ 9.304516077539972, 54.734724442856937 ], [ 9.304153888015097, 54.734910783557318 ] ] } },
{ "type": "Feature", "properties": { "Layer": "WBK_SCHUTZNETZ", "SubClasses": "AcDbEntity:AcDbHatch", "EntityHandle": "40106", "Text": "HONEY" }, "geometry": { "type": "MultiLineString", "coordinates": [ [ [ 9.263517606658006, 54.754050905352038 ], [ 9.263821317791933, 54.753885319866342 ] ], [ [ 9.263821317805187, 54.753885319864231 ], [ 9.264506288716486, 54.754029683877349 ] ], [ [ 9.26450628874702, 54.754029683875714 ], [ 9.264151257125544, 54.754183371073005 ] ], [ [ 9.264151257038227, 54.754183371075378 ], [ 9.26351760650927, 54.754050905327951 ] ] ] } },
{ "type": "Feature", "properties": { "Layer": "WBK_SCHUTZNETZ", "SubClasses": "AcDbEntity:AcDbPolyline", "EntityHandle": "40107" }, "geometry": { "type": "LineString", "coordinates": [ [ 9.263517606658006, 54.754050905352038 ], [ 9.263821317805187, 54.753885319864231 ], [ 9.26450628874702, 54.754029683875714 ], [ 9.264151257038227, 54.754183371075378 ], [ 9.263517606588666, 54.754050905332299 ] ] } },
{ "type": "Feature", "properties": { "Layer": "WBK_SCHUTZNETZ", "SubClasses": "AcDbEntity:AcDbPolyline", "EntityHandle": "4010F" }, "geometry": { "type": "LineString", "coordinates": [ [ 9.255961152862787, 54.772419151252073 ], [ 9.256053364410858, 54.772238246752913 ], [ 9.256668988982002, 54.772148302394271 ], [ 9.256618521880936, 54.772332487104144 ], [ 9.255961152862787, 54.772419151252073 ] ] } },
{ "type": "Feature", "properties": { "Layer": "WBK_SCHUTZNETZ", "SubClasses": "AcDbEntity:AcDbHatch", "EntityHandle": "40207", "Text": "HONEY" }, "geometry": { "type": "Polygon", "coordinates": [ [ [ 9.424493685736962, 54.463810474892128 ], [ 9.425054353194534, 54.4637966572203 ], [ 9.425060742849295, 54.46382760066782 ], [ 9.424492161302316, 54.463836584718543 ], [ 9.424493685736962, 54.463810474892128 ] ] ] } },
{ "type": "Feature", "properties": { "Layer": "WBK_SCHUTZNETZ", "SubClasses": "AcDbEntity:AcDbPolyline", "EntityHandle": "40208" }, "geometry": { "type": "LineString", "coordinates": [ [ 9.424493685736962, 54.463810474892128 ], [ 9.425054353239982, 54.463796657220271 ], [ 9.425060742846737, 54.463827600672538 ], [ 9.424492161252362, 54.463836584717264 ], [ 9.424493685736962, 54.463810474892128 ] ] } },
{ "type": "Feature", "properties": { "Layer": "WBK_SCHUTZNETZ", "SubClasses": "AcDbEntity:AcDbCircle", "EntityHandle": "4023F" }, "geometry": { "type": "LineString", "coordinates": [ [ 9.409528971792806, 54.685665061361767 ], [ 9.409528028974522, 54.685651660637035 ], [ 9.409525474982022, 54.685638330659131 ], [ 9.409521322259661, 54.68562513637027 ], [ 9.409515591040572, 54.685612142051525 ], [ 9.409508309248073, 54.685599411009704 ], [ 9.409499512359606, 54.685587005268879 ], [ 9.409489243233855, 54.685574985268239 ], [ 9.409477551901933, 54.685563409567663 ], [ 9.409464495323611, 54.685552334562395 ], [ 9.409450137109804, 54.685541814208335 ], [ 9.409434547212644, 54.685531899759113 ], [ 9.40941780158469, 54.685522639516499 ], [ 9.409399981808878, 54.685514078594998 ], [ 9.409381174701068, 54.685506258702098 ], [ 9.409361471887077, 54.68549921793511 ], [ 9.409340969356322, 54.685492990595527 ], [ 9.409319766994157, 54.685487607021948 ], [ 9.409297968095276, 54.685483093442272 ], [ 9.409275678860485, 54.685479471845909 ], [ 9.409253007879336, 54.685476759876678 ], [ 9.409230065601097, 54.685474970746832 ], [ 9.409206963796709, 54.685474113172738 ], [ 9.409183815014256, 54.685474191332332 ], [ 9.409160732030683, 54.685475204844849 ], [ 9.409137827302393, 54.685477148772648 ], [ 9.40911521241739, 54.68548001364519 ], [ 9.409092997551678, 54.68548378550534 ], [ 9.409071290932507, 54.685488445977207 ], [ 9.409050198311139, 54.685493972355744 ], [ 9.409029822447655, 54.68550033771735 ], [ 9.409010262610337, 54.685507511050986 ], [ 9.408991614092075, 54.685515457409338 ], [ 9.408973967746103, 54.685524138078939 ], [ 9.408957409543387, 54.685533510768934 ], [ 9.408942020153797, 54.685543529816961 ], [ 9.408927874553083, 54.68555414641169 ], [ 9.408915041657597, 54.685565308830569 ], [ 9.408903583988531, 54.685576962691854 ], [ 9.408893557367319, 54.685589051219473 ], [ 9.408885010643651, 54.685601515519714 ], [ 9.408877985457467, 54.685614294868053 ], [ 9.408872516036071, 54.685627327005079 ], [ 9.408868629027356, 54.685640548439714 ], [ 9.408866343369942, 54.685653894758623 ], [ 9.408865670200884, 54.685667300939954 ], [ 9.408866612801393, 54.685680701670165 ], [ 9.408869166580795, 54.685694031662223 ], [ 9.408873319098893, 54.68570722597363 ], [ 9.408879050126526, 54.685720220322864 ], [ 9.4088863317441, 54.685732951402542 ], [ 9.408895128477582, 54.685745357187834 ], [ 9.408905397471301, 54.685757377238708 ], [ 9.408917088696716, 54.685768952994266 ], [ 9.40893014519613, 54.685780028058247 ], [ 9.408944503360162, 54.685790548473591 ], [ 9.408960093237651, 54.685800462985462 ], [ 9.408976838876418, 54.68580972329088 ], [ 9.408994658693317, 54.685818284274106 ], [ 9.409013465871691, 54.685826104226464 ], [ 9.409033168784344, 54.685833145049479 ], [ 9.409053671439946, 54.685839372440576 ], [ 9.409074873950706, 54.685844756060149 ], [ 9.409096673019043, 54.685849269679387 ], [ 9.40911896244085, 54.685852891308137 ], [ 9.409141633622939, 54.685855603301931 ], [ 9.409164576112122, 54.685857392448035 ], [ 9.40918767813336, 54.685858250029789 ], [ 9.409210827134348, 54.685858171869086 ], [ 9.409233910333883, 54.685857158346728 ], [ 9.409256815271364, 54.685855214400547 ], [ 9.40927943035471, 54.685852349501424 ], [ 9.40930164540406, 54.685848577607011 ], [ 9.409323352188588, 54.685843917093884 ], [ 9.409344444953815, 54.685838390667882 ], [ 9.409364820936858, 54.685832025253532 ], [ 9.409384380867108, 54.685824851862904 ], [ 9.409403029449869, 54.685816905444419 ], [ 9.409420675830651, 54.685808224712709 ], [ 9.409437234037807, 54.685798851959824 ], [ 9.409452623401384, 54.685788832849369 ], [ 9.409466768946137, 54.685778216193924 ], [ 9.409479601756804, 54.685767053717143 ], [ 9.40949105931384, 54.685755399801977 ], [ 9.409501085797999, 54.68574331122548 ], [ 9.409509632362251, 54.68573084688235 ], [ 9.409516657369764, 54.685718067497938 ], [ 9.409522126596709, 54.685705035332376 ], [ 9.409526013398981, 54.685691813877277 ], [ 9.409528298841973, 54.685678467546374 ], [ 9.409528971792806, 54.685665061361767 ] ] } },
{ "type": "Feature", "properties": { "Layer": "WBK_SCHUTZNETZ", "SubClasses": "AcDbEntity:AcDbPolyline", "EntityHandle": "8F6B7" }, "geometry": { "type": "LineString", "coordinates": [ [ 9.201273189609841, 54.846958471085671 ], [ 9.200488783615862, 54.847668715243792 ], [ 9.199171517026633, 54.848221838402253 ], [ 9.199508020429771, 54.847856057899463 ], [ 9.201273189609859, 54.846958471085664 ] ] } },
{ "type": "Feature", "properties": { "Layer": "WBK_SCHUTZNETZ", "SubClasses": "AcDbEntity:AcDbHatch", "EntityHandle": "8F6B9", "Text": "HONEY" }, "geometry": { "type": "Polygon", "coordinates": [ [ [ 9.201273189609841, 54.846958471085671 ], [ 9.200488783615862, 54.847668715243792 ], [ 9.199171517026633, 54.848221838402253 ], [ 9.199508020429771, 54.847856057899463 ], [ 9.201273189609841, 54.846958471085671 ] ] ] } },
{ "type": "Feature", "properties": { "Layer": "WBK_SCHUTZNETZ", "SubClasses": "AcDbEntity:AcDbLine", "EntityHandle": "8F6E4" }, "geometry": { "type": "LineString", "coordinates": [ [ 9.199111563364177, 54.848299686117798 ], [ 9.199490270313984, 54.848604854402645 ] ] } },
{ "type": "Feature", "properties": { "Layer": "WBK_SCHUTZNETZ", "SubClasses": "AcDbEntity:AcDbLine", "EntityHandle": "8F6E4" }, "geometry": { "type": "LineString", "coordinates": [ [ 9.200524374462743, 54.847715902038324 ], [ 9.200903086585754, 54.848021065942596 ] ] } },
{ "type": "Feature", "properties": { "Layer": "WBK_SCHUTZNETZ", "SubClasses": "AcDbEntity:AcDbLine", "EntityHandle": "8F6E4" }, "geometry": { "type": "LineString", "coordinates": [ [ 9.199510592117338, 54.848582641119897 ], [ 9.200860097282323, 54.848025013445834 ] ] } },
{ "type": "Feature", "properties": { "Layer": "WBK_SCHUTZNETZ", "SubClasses": "AcDbEntity:AcDbTrace", "EntityHandle": "8F6E4" }, "geometry": { "type": "Polygon", "coordinates": [ [ [ 9.199514370157804, 54.848585685497561 ], [ 9.19950681407744, 54.848579596742113 ], [ 9.199478936194355, 54.848595721267074 ], [ 9.199514370157804, 54.848585685497561 ] ] ] } },
{ "type": "Feature", "properties": { "Layer": "WBK_SCHUTZNETZ", "SubClasses": "AcDbEntity:AcDbTrace", "EntityHandle": "8F6E4" }, "geometry": { "type": "Polygon", "coordinates": [ [ [ 9.200863875372086, 54.848028057781761 ], [ 9.200856319193132, 54.848021969109809 ], [ 9.200891752311302, 54.848011932938135 ], [ 9.200863875372086, 54.848028057781761 ] ] ] } },
{ "type": "Feature", "properties": { "Layer": "WBK_SCHUTZNETZ", "SubClasses": "AcDbEntity:AcDbMText", "EntityHandle": "8F6E4", "Text": "111,58" }, "geometry": { "type": "Point", "coordinates": [ 9.200204639140591, 54.848319372822196 ] } },
{ "type": "Feature", "properties": { "Layer": "WBK_SCHUTZNETZ", "SubClasses": "AcDbEntity:AcDbHatch", "EntityHandle": "8FAB9", "Text": "HONEY" }, "geometry": { "type": "Polygon", "coordinates": [ [ [ 9.255961152862787, 54.772419151252073 ], [ 9.256053364410858, 54.772238246752913 ], [ 9.256668988982002, 54.772148302394271 ], [ 9.256618521880936, 54.772332487104144 ], [ 9.255961152862787, 54.772419151252073 ] ] ] } }
]
}
