{
"type": "FeatureCollection",
"name": "wbk_arbeitsflaeche",
"crs": { "type": "name", "properties": { "name": "urn:ogc:def:crs:OGC:1.3:CRS84" } },
"features": [
{ "type": "Feature", "properties": { "layer": "WBK_ARBEITSFLAECHE" }, "geometry": { "type": "Polygon", "coordinates": [ [ [ 9.192897320517735, 54.859091103771014, 0.0 ], [ 9.193445240046541, 54.859160990436358, 0.0 ], [ 9.193369678230832, 54.859330284526699, 0.0 ], [ 9.192822469502286, 54.85924900524094, 0.0 ], [ 9.192897320517735, 54.859091103771014, 0.0 ] ] ] } },
{ "type": "Feature", "properties": { "layer": "WBK_ARBEITSFLAECHE" }, "geometry": { "type": "LineString", "coordinates": [ [ 9.192897320517735, 54.859091103771014 ], [ 9.193445240046541, 54.859160990436358 ], [ 9.193369678230832, 54.859330284526699 ], [ 9.192822469502286, 54.85924900524094 ], [ 9.192897320517735, 54.859091103771014 ] ] } },
{ "type": "Feature", "properties": { "layer": "WBK_ARBEITSFLAECHE" }, "geometry": { "type": "Polygon", "coordinates": [ [ [ 9.194667255181058, 54.852892270411097, 0.0 ], [ 9.19513812991414, 54.853164484841102, 0.0 ], [ 9.195001347442934, 54.853249817974962, 0.0 ], [ 9.194508308416056, 54.852983805700823, 0.0 ], [ 9.194667255181058, 54.852892270411097, 0.0 ] ] ] } },
{ "type": "Feature", "properties": { "layer": "WBK_ARBEITSFLAECHE" }, "geometry": { "type": "LineString", "coordinates": [ [ 9.194667255181058, 54.852892270411097 ], [ 9.19513812991414, 54.853164484841102 ], [ 9.195001347442934, 54.853249817974962 ], [ 9.194508308416056, 54.852983805700823 ], [ 9.194667255181058, 54.852892270411097 ] ] } },
{ "type": "Feature", "properties": { "layer": "WBK_ARBEITSFLAECHE" }, "geometry": { "type": "Polygon", "coordinates": [ [ [ 9.244379932195935, 54.801754788875243, -41.665032712367818 ], [ 9.244862646778564, 54.801816232575298, -41.665032712367818 ], [ 9.244771088481091, 54.80198412248464, -41.665032712367818 ], [ 9.244315646155723, 54.801916582344909, -41.665032712367818 ], [ 9.244379932195935, 54.801754788875243, -41.665032712367818 ] ] ] } },
{ "type": "Feature", "properties": { "layer": "WBK_ARBEITSFLAECHE" }, "geometry": { "type": "LineString", "coordinates": [ [ 9.244379932195935, 54.801754788875243, -41.665032712367818 ], [ 9.244862646778564, 54.801816232575298, -41.665032712367818 ], [ 9.244771088481091, 54.80198412248464, -41.665032712367818 ], [ 9.244315646155723, 54.801916582344909, -41.665032712367818 ], [ 9.244379932195935, 54.801754788875243, -41.665032712367818 ] ] } },
{ "type": "Feature", "properties": { "layer": "WBK_ARBEITSFLAECHE" }, "geometry": { "type": "Polygon", "coordinates": [ [ [ 9.243811445039711, 54.802692744975388, -41.842070420050788 ], [ 9.244237288615587, 54.802746950632681, -41.842070420050788 ], [ 9.244176313782464, 54.802917695841145, -41.842070420050788 ], [ 9.243752708409463, 54.802850474720493, -41.842070420050788 ], [ 9.243811445039711, 54.802692744975388, -41.842070420050788 ] ] ] } },
{ "type": "Feature", "properties": { "layer": "WBK_ARBEITSFLAECHE" }, "geometry": { "type": "LineString", "coordinates": [ [ 9.243811445039711, 54.802692744975388, -41.842070420050788 ], [ 9.244237288615587, 54.802746950632681, -41.842070420050788 ], [ 9.244176313782464, 54.802917695841145, -41.842070420050788 ], [ 9.243752708409463, 54.802850474720493, -41.842070420050788 ], [ 9.243811445039711, 54.802692744975388, -41.842070420050788 ] ] } },
{ "type": "Feature", "properties": { "layer": "WBK_ARBEITSFLAECHE" }, "geometry": { "type": "Polygon", "coordinates": [ [ [ 9.262931447111846, 54.754790701759802, 0.0 ], [ 9.26308524263141, 54.754807102666405, 0.0 ], [ 9.263023285612512, 54.754948007286281, 0.0 ], [ 9.262857128442359, 54.754939811723808, 0.0 ], [ 9.262931447111846, 54.754790701759802, 0.0 ] ] ] } },
{ "type": "Feature", "properties": { "layer": "WBK_ARBEITSFLAECHE" }, "geometry": { "type": "LineString", "coordinates": [ [ 9.262931447111846, 54.754790701759802 ], [ 9.26308524263141, 54.754807102666405 ], [ 9.263023285612512, 54.754948007286281 ], [ 9.262857128442359, 54.754939811723808 ], [ 9.262931447111846, 54.754790701759802 ] ] } },
{ "type": "Feature", "properties": { "layer": "WBK_ARBEITSFLAECHE" }, "geometry": { "type": "Polygon", "coordinates": [ [ [ 9.31243364057754, 54.727665140438738, 0.0 ], [ 9.312827817937663, 54.727723477429883, 0.0 ], [ 9.312741232404724, 54.727781779639962, 0.0 ], [ 9.312380274934277, 54.727728367584845, 0.0 ], [ 9.31243364057754, 54.727665140438738, 0.0 ] ] ] } },
{ "type": "Feature", "properties": { "layer": "WBK_ARBEITSFLAECHE" }, "geometry": { "type": "LineString", "coordinates": [ [ 9.31243364057754, 54.727665140438738 ], [ 9.312827817937663, 54.727723477429883 ], [ 9.312741232404724, 54.727781779639962 ], [ 9.312380274934277, 54.727728367584845 ], [ 9.31243364057754, 54.727665140438738 ] ] } },
{ "type": "Feature", "properties": { "layer": "WBK_ARBEITSFLAECHE" }, "geometry": { "type": "Polygon", "coordinates": [ [ [ 9.31376661184985, 54.726274300091347, 0.0 ], [ 9.314399287863868, 54.726354604367948, 0.0 ], [ 9.314268529333743, 54.726517514692958, 0.0 ], [ 9.313692474845574, 54.726432278486541, 0.0 ], [ 9.31376661184985, 54.726274300091347, 0.0 ] ] ] } },
{ "type": "Feature", "properties": { "layer": "WBK_ARBEITSFLAECHE" }, "geometry": { "type": "LineString", "coordinates": [ [ 9.31376661184985, 54.726274300091347 ], [ 9.314399287863868, 54.726354604367948 ], [ 9.314268529333743, 54.726517514692958 ], [ 9.313692474845574, 54.726432278486541 ], [ 9.31376661184985, 54.726274300091347 ] ] } },
{ "type": "Feature", "properties": { "layer": "WBK_ARBEITSFLAECHE" }, "geometry": { "type": "Polygon", "coordinates": [ [ [ 9.332561587330233, 54.720595816710976, 0.0 ], [ 9.333034363338404, 54.720852021749259, 0.0 ], [ 9.332778130577434, 54.720953351640311, 0.0 ], [ 9.332358369279719, 54.72070966022514, 0.0 ], [ 9.332561587330233, 54.720595816710976, 0.0 ] ] ] } },
{ "type": "Feature", "properties": { "layer": "WBK_ARBEITSFLAECHE" }, "geometry": { "type": "LineString", "coordinates": [ [ 9.332561587330233, 54.720595816710976 ], [ 9.333034363338404, 54.720852021749259 ], [ 9.332778130577434, 54.720953351640311 ], [ 9.332358369279719, 54.72070966022514 ], [ 9.332561587330233, 54.720595816710976 ] ] } },
{ "type": "Feature", "properties": { "layer": "WBK_ARBEITSFLAECHE" }, "geometry": { "type": "Polygon", "coordinates": [ [ [ 9.335841750320022, 54.719007332261306, 0.0 ], [ 9.336314528434691, 54.719263524573485, 0.0 ], [ 9.336058313815958, 54.719364861388208, 0.0 ], [ 9.335638549410298, 54.719121181279434, 0.0 ], [ 9.335841750320022, 54.719007332261306, 0.0 ] ] ] } },
{ "type": "Feature", "properties": { "layer": "WBK_ARBEITSFLAECHE" }, "geometry": { "type": "LineString", "coordinates": [ [ 9.335841750320022, 54.719007332261306 ], [ 9.336314528434691, 54.719263524573485 ], [ 9.336058313815958, 54.719364861388208 ], [ 9.335638549410298, 54.719121181279434 ], [ 9.335841750320022, 54.719007332261306 ] ] } },
{ "type": "Feature", "properties": { "layer": "WBK_ARBEITSFLAECHE" }, "geometry": { "type": "Polygon", "coordinates": [ [ [ 9.337044176290648, 54.718451760685404, 0.0 ], [ 9.337516955488402, 54.7187079483408, 0.0 ], [ 9.337260747446093, 54.718809287686618, 0.0 ], [ 9.33684098153066, 54.718565611720663, 0.0 ], [ 9.337044176290648, 54.718451760685404, 0.0 ] ] ] } },
{ "type": "Feature", "properties": { "layer": "WBK_ARBEITSFLAECHE" }, "geometry": { "type": "LineString", "coordinates": [ [ 9.337044176290648, 54.718451760685404 ], [ 9.337516955488402, 54.7187079483408 ], [ 9.337260747446093, 54.718809287686618 ], [ 9.33684098153066, 54.718565611720663 ], [ 9.337044176290648, 54.718451760685404 ] ] } },
{ "type": "Feature", "properties": { "layer": "WBK_ARBEITSFLAECHE" }, "geometry": { "type": "Polygon", "coordinates": [ [ [ 9.42263973797216, 54.621488510793228, 0.0 ], [ 9.423009582467079, 54.621436826976641, 0.0 ], [ 9.423067814989381, 54.621577142193544, 0.0 ], [ 9.422695288316579, 54.621620730628131, 0.0 ], [ 9.42263973797216, 54.621488510793228, 0.0 ] ] ] } },
{ "type": "Feature", "properties": { "layer": "WBK_ARBEITSFLAECHE" }, "geometry": { "type": "LineString", "coordinates": [ [ 9.42263973797216, 54.621488510793228 ], [ 9.423009582467079, 54.621436826976641 ], [ 9.423067814989381, 54.621577142193544 ], [ 9.422695288316579, 54.621620730628131 ], [ 9.42263973797216, 54.621488510793228 ] ] } },
{ "type": "Feature", "properties": { "layer": "WBK_ARBEITSFLAECHE" }, "geometry": { "type": "Polygon", "coordinates": [ [ [ 9.404789519699897, 54.591056216088575, 36.861217912037063 ], [ 9.404849059059032, 54.59088448689208, 36.861217912037063 ], [ 9.405167627118615, 54.5909217339319, 36.861217912037063 ], [ 9.405097245033595, 54.59109167254028, 36.861217912037063 ], [ 9.404789519699897, 54.591056216088575, 36.861217912037063 ] ] ] } },
{ "type": "Feature", "properties": { "layer": "WBK_ARBEITSFLAECHE" }, "geometry": { "type": "LineString", "coordinates": [ [ 9.404789519699897, 54.591056216088575, 36.861217912037063 ], [ 9.404849059059032, 54.59088448689208, 36.861217912037063 ], [ 9.405167627118615, 54.5909217339319, 36.861217912037063 ], [ 9.405097245033595, 54.59109167254028, 36.861217912037063 ], [ 9.404789519699897, 54.591056216088575, 36.861217912037063 ] ] } },
{ "type": "Feature", "properties": { "layer": "WBK_ARBEITSFLAECHE" }, "geometry": { "type": "Polygon", "coordinates": [ [ [ 9.404484376111801, 54.589920623452322, 0.0 ], [ 9.405020650909549, 54.590005551888886, 0.0 ], [ 9.404969976123235, 54.590175481709828, 0.0 ], [ 9.404435451419067, 54.590079480347939, 0.0 ], [ 9.404484376111801, 54.589920623452322, 0.0 ] ] ] } },
{ "type": "Feature", "properties": { "layer": "WBK_ARBEITSFLAECHE" }, "geometry": { "type": "LineString", "coordinates": [ [ 9.404484376111801, 54.589920623452322 ], [ 9.405020650909549, 54.590005551888886 ], [ 9.404969976123235, 54.590175481709828 ], [ 9.404435451419067, 54.590079480347939 ], [ 9.404484376111801, 54.589920623452322 ] ] } },
{ "type": "Feature", "properties": { "layer": "WBK_ARBEITSFLAECHE" }, "geometry": { "type": "Polygon", "coordinates": [ [ [ 9.409223843037745, 54.573795085139643, 0.0 ], [ 9.409797492326902, 54.573823597061399, 0.0 ], [ 9.409771121974375, 54.57400268115196, 0.0 ], [ 9.409215102413638, 54.573977200356481, 0.0 ], [ 9.409223843037745, 54.573795085139643, 0.0 ] ] ] } },
{ "type": "Feature", "properties": { "layer": "WBK_ARBEITSFLAECHE" }, "geometry": { "type": "LineString", "coordinates": [ [ 9.409223843037745, 54.573795085139643 ], [ 9.409797492326902, 54.573823597061399 ], [ 9.409771121974375, 54.57400268115196 ], [ 9.409215102413638, 54.573977200356481 ], [ 9.409223843037745, 54.573795085139643 ] ] } },
{ "type": "Feature", "properties": { "layer": "WBK_ARBEITSFLAECHE" }, "geometry": { "type": "Polygon", "coordinates": [ [ [ 9.408848831736632, 54.574711040522004, 0.0 ], [ 9.409407345817531, 54.574792289537662, 0.0 ], [ 9.409332195228952, 54.574966644708539, 0.0 ], [ 9.408790254839198, 54.574890020020824, 0.0 ], [ 9.408848831736632, 54.574711040522004, 0.0 ] ] ] } },
{ "type": "Feature", "properties": { "layer": "WBK_ARBEITSFLAECHE" }, "geometry": { "type": "LineString", "coordinates": [ [ 9.408848831736632, 54.574711040522004 ], [ 9.409407345817531, 54.574792289537662 ], [ 9.409332195228952, 54.574966644708539 ], [ 9.408790254839198, 54.574890020020824 ], [ 9.408848831736632, 54.574711040522004 ] ] } },
{ "type": "Feature", "properties": { "layer": "WBK_ARBEITSFLAECHE" }, "geometry": { "type": "Polygon", "coordinates": [ [ [ 9.430511159017833, 54.521237534808243, 0.0 ], [ 9.4309006139478, 54.521252318890866, 0.0 ], [ 9.430878594807535, 54.521429506142034, 0.0 ], [ 9.430457031116065, 54.521441070590448, 0.0 ], [ 9.430511159017833, 54.521237534808243, 0.0 ] ] ] } },
{ "type": "Feature", "properties": { "layer": "WBK_ARBEITSFLAECHE" }, "geometry": { "type": "LineString", "coordinates": [ [ 9.430511159017833, 54.521237534808243 ], [ 9.4309006139478, 54.521252318890866 ], [ 9.430878594807535, 54.521429506142034 ], [ 9.430457031116065, 54.521441070590448 ], [ 9.430511159017833, 54.521237534808243 ] ] } },
{ "type": "Feature", "properties": { "layer": "WBK_ARBEITSFLAECHE" }, "geometry": { "type": "Polygon", "coordinates": [ [ [ 9.429208837093793, 54.509842725711749, 0.0 ], [ 9.429783368185678, 54.509853770237484, 0.0 ], [ 9.429773170105952, 54.510033412218242, 0.0 ], [ 9.429216489397247, 54.510024859056529, 0.0 ], [ 9.429208837093793, 54.509842725711749, 0.0 ] ] ] } },
{ "type": "Feature", "properties": { "layer": "WBK_ARBEITSFLAECHE" }, "geometry": { "type": "LineString", "coordinates": [ [ 9.429208837093793, 54.509842725711749 ], [ 9.429783368185678, 54.509853770237484 ], [ 9.429773170105952, 54.510033412218242 ], [ 9.429216489397247, 54.510024859056529 ], [ 9.429208837093793, 54.509842725711749 ] ] } },
{ "type": "Feature", "properties": { "layer": "WBK_ARBEITSFLAECHE" }, "geometry": { "type": "Polygon", "coordinates": [ [ [ 9.426413202169361, 54.485198850611759, 0.0 ], [ 9.42662198839029, 54.485193932561273, 0.0 ], [ 9.426643549511056, 54.485374689070525, 0.0 ], [ 9.426443789133799, 54.485380166668961, 0.0 ], [ 9.426413202169361, 54.485198850611759, 0.0 ] ] ] } },
{ "type": "Feature", "properties": { "layer": "WBK_ARBEITSFLAECHE" }, "geometry": { "type": "LineString", "coordinates": [ [ 9.426413202169361, 54.485198850611759 ], [ 9.42662198839029, 54.485193932561273 ], [ 9.426643549511056, 54.485374689070525 ], [ 9.426443789133799, 54.485380166668961 ], [ 9.426413202169361, 54.485198850611759 ] ] } },
{ "type": "Feature", "properties": { "layer": "WBK_ARBEITSFLAECHE" }, "geometry": { "type": "Polygon", "coordinates": [ [ [ 9.426068104428785, 54.485206784184591, 0.0 ], [ 9.426276890598082, 54.485201866730456, 0.0 ], [ 9.426298450338184, 54.4853826233132, 0.0 ], [ 9.426098689872992, 54.485388100331619, 0.0 ], [ 9.426068104428785, 54.485206784184591, 0.0 ] ] ] } },
{ "type": "Feature", "properties": { "layer": "WBK_ARBEITSFLAECHE" }, "geometry": { "type": "LineString", "coordinates": [ [ 9.426068104428785, 54.485206784184591 ], [ 9.426276890598082, 54.485201866730456 ], [ 9.426298450338184, 54.4853826233132 ], [ 9.426098689872992, 54.485388100331619 ], [ 9.426068104428785, 54.485206784184591 ] ] } },
{ "type": "Feature", "properties": { "layer": "WBK_ARBEITSFLAECHE" }, "geometry": { "type": "Polygon", "coordinates": [ [ [ 9.426191121992874, 54.486237121652749, 0.0 ], [ 9.42676516571435, 54.48622360030145, 0.0 ], [ 9.426777646387889, 54.486403194048627, 0.0 ], [ 9.426221708774355, 54.48641843773531, 0.0 ], [ 9.426191121992874, 54.486237121652749, 0.0 ] ] ] } },
{ "type": "Feature", "properties": { "layer": "WBK_ARBEITSFLAECHE" }, "geometry": { "type": "LineString", "coordinates": [ [ 9.426191121992874, 54.486237121652749 ], [ 9.42676516571435, 54.48622360030145 ], [ 9.426777646387889, 54.486403194048627 ], [ 9.426221708774355, 54.48641843773531 ], [ 9.426191121992874, 54.486237121652749 ] ] } },
{ "type": "Feature", "properties": { "layer": "WBK_ARBEITSFLAECHE" }, "geometry": { "type": "Polygon", "coordinates": [ [ [ 9.422909822132075, 54.441567160211527, 0.0 ], [ 9.423464781233063, 54.441593679585033, 0.0 ], [ 9.423486258479199, 54.441704757247834, 0.0 ], [ 9.422905352305945, 54.441686062508786, 0.0 ], [ 9.422909822132075, 54.441567160211527, 0.0 ] ] ] } },
{ "type": "Feature", "properties": { "layer": "WBK_ARBEITSFLAECHE" }, "geometry": { "type": "LineString", "coordinates": [ [ 9.422909822132075, 54.441567160211527 ], [ 9.423464781233063, 54.441593679585033 ], [ 9.423486258479199, 54.441704757247834 ], [ 9.422905352305945, 54.441686062508786 ], [ 9.422909822132075, 54.441567160211527 ] ] } },
{ "type": "Feature", "properties": { "layer": "WBK_ARBEITSFLAECHE" }, "geometry": { "type": "Polygon", "coordinates": [ [ [ 9.43075859519873, 54.520245601639274, 0.0 ], [ 9.431172781127277, 54.520346703614599, 0.0 ], [ 9.431150763631811, 54.52052389094888, 0.0 ], [ 9.430729209348465, 54.520535456320687, 0.0 ], [ 9.43075859519873, 54.520245601639274, 0.0 ] ] ] } },
{ "type": "Feature", "properties": { "layer": "WBK_ARBEITSFLAECHE" }, "geometry": { "type": "LineString", "coordinates": [ [ 9.43075859519873, 54.520245601639274 ], [ 9.431172781127277, 54.520346703614599 ], [ 9.431150763631811, 54.52052389094888 ], [ 9.430729209348465, 54.520535456320687 ], [ 9.43075859519873, 54.520245601639274 ] ] } },
{ "type": "Feature", "properties": { "layer": "WBK_ARBEITSFLAECHE" }, "geometry": { "type": "Polygon", "coordinates": [ [ [ 9.314111029483797, 54.728733959411848, 0.0 ], [ 9.314991615866148, 54.728809389544772, 0.0 ], [ 9.314953480918165, 54.728863642019597, 0.0 ], [ 9.314087140231143, 54.728784863065414, 0.0 ], [ 9.314111029483797, 54.728733959411848, 0.0 ] ] ] } },
{ "type": "Feature", "properties": { "layer": "WBK_ARBEITSFLAECHE" }, "geometry": { "type": "LineString", "coordinates": [ [ 9.314111029483797, 54.728733959411848 ], [ 9.314991615866148, 54.728809389544772 ], [ 9.314953480918165, 54.728863642019597 ], [ 9.314087140231143, 54.728784863065414 ], [ 9.314111029483797, 54.728733959411848 ] ] } },
{ "type": "Feature", "properties": { "layer": "WBK_ARBEITSFLAECHE" }, "geometry": { "type": "Polygon", "coordinates": [ [ [ 9.264716980639502, 54.753502757548077, 0.0 ], [ 9.264998287317965, 54.753644148125858, 0.0 ], [ 9.264758909682861, 54.753763059388575, 0.0 ], [ 9.264512692953142, 54.753592631475783, 0.0 ], [ 9.264716980639502, 54.753502757548077, 0.0 ] ] ] } },
{ "type": "Feature", "properties": { "layer": "WBK_ARBEITSFLAECHE" }, "geometry": { "type": "LineString", "coordinates": [ [ 9.264716980639502, 54.753502757548077 ], [ 9.264998287317965, 54.753644148125858 ], [ 9.264758909682861, 54.753763059388575 ], [ 9.264512692953142, 54.753592631475783 ], [ 9.264716980639502, 54.753502757548077 ] ] } },
{ "type": "Feature", "properties": { "layer": "WBK_ARBEITSFLAECHE" }, "geometry": { "type": "Polygon", "coordinates": [ [ [ 9.197259779793685, 54.851865323975872, 0.0 ], [ 9.197384756092982, 54.852086948528182, 0.0 ], [ 9.197296290955942, 54.85212204207869, 0.0 ], [ 9.197165665342109, 54.851900625606682, 0.0 ], [ 9.197259779793685, 54.851865323975872, 0.0 ] ] ] } },
{ "type": "Feature", "properties": { "layer": "WBK_ARBEITSFLAECHE" }, "geometry": { "type": "LineString", "coordinates": [ [ 9.197259779793685, 54.851865323975872 ], [ 9.197384756092982, 54.852086948528182 ], [ 9.197296290955942, 54.85212204207869 ], [ 9.197165665342109, 54.851900625606682 ], [ 9.197259779793685, 54.851865323975872 ] ] } },
{ "type": "Feature", "properties": { "layer": "WBK_ARBEITSFLAECHE" }, "geometry": { "type": "Polygon", "coordinates": [ [ [ 9.197094183195468, 54.85164713734023, 0.0 ], [ 9.197219919824883, 54.851803697330595, 0.0 ], [ 9.197132711372793, 54.851836634717571, 0.0 ], [ 9.196993151443317, 54.851670722504522, 0.0 ], [ 9.197094183195468, 54.85164713734023, 0.0 ] ] ] } },
{ "type": "Feature", "properties": { "layer": "WBK_ARBEITSFLAECHE" }, "geometry": { "type": "LineString", "coordinates": [ [ 9.197094183195468, 54.85164713734023 ], [ 9.197219919824883, 54.851803697330595 ], [ 9.197132711372793, 54.851836634717571 ], [ 9.196993151443317, 54.851670722504522 ], [ 9.197094183195468, 54.85164713734023 ] ] } },
{ "type": "Feature", "properties": { "layer": "WBK_ARBEITSFLAECHE" }, "geometry": { "type": "Polygon", "coordinates": [ [ [ 9.198085916372737, 54.849573404119518, 0.0 ], [ 9.198250924654349, 54.849816479412041, 0.0 ], [ 9.1979280406777, 54.850037262530982, 0.0 ], [ 9.197780178712962, 54.849802774121024, 0.0 ], [ 9.198085916372737, 54.849573404119518, 0.0 ] ] ] } },
{ "type": "Feature", "properties": { "layer": "WBK_ARBEITSFLAECHE" }, "geometry": { "type": "LineString", "coordinates": [ [ 9.198085916372737, 54.849573404119518 ], [ 9.198250924654349, 54.849816479412041 ], [ 9.1979280406777, 54.850037262530982 ], [ 9.197780178712962, 54.849802774121024 ], [ 9.198085916372737, 54.849573404119518 ] ] } },
{ "type": "Feature", "properties": { "layer": "WBK_ARBEITSFLAECHE" }, "geometry": { "type": "Polygon", "coordinates": [ [ [ 9.197938949447376, 54.849333895408961, 0.0 ], [ 9.198079965923341, 54.849547090463929, 0.0 ], [ 9.197738743093577, 54.849737688935896, 0.0 ], [ 9.197607373604059, 54.849531211566678, 0.0 ], [ 9.197938949447376, 54.849333895408961, 0.0 ] ] ] } },
{ "type": "Feature", "properties": { "layer": "WBK_ARBEITSFLAECHE" }, "geometry": { "type": "LineString", "coordinates": [ [ 9.197938949447376, 54.849333895408961 ], [ 9.198079965923341, 54.849547090463929 ], [ 9.197738743093577, 54.849737688935896 ], [ 9.197607373604059, 54.849531211566678 ], [ 9.197938949447376, 54.849333895408961 ] ] } },
{ "type": "Feature", "properties": { "layer": "WBK_ARBEITSFLAECHE" }, "geometry": { "type": "Polygon", "coordinates": [ [ [ 9.312993479302749, 54.727711061350981, 0.0 ], [ 9.313330103934883, 54.727770373592712, 0.0 ], [ 9.313279705692517, 54.727818777254164, 0.0 ], [ 9.31294011454011, 54.727774288741699, 0.0 ], [ 9.312993479302749, 54.727711061350981, 0.0 ] ] ] } },
{ "type": "Feature", "properties": { "layer": "WBK_ARBEITSFLAECHE" }, "geometry": { "type": "LineString", "coordinates": [ [ 9.312993479302749, 54.727711061350981 ], [ 9.313330103934883, 54.727770373592712 ], [ 9.313279705692517, 54.727818777254164 ], [ 9.31294011454011, 54.727774288741699 ], [ 9.312993479302749, 54.727711061350981 ] ] } },
{ "type": "Feature", "properties": { "layer": "WBK_ARBEITSFLAECHE" }, "geometry": { "type": "Polygon", "coordinates": [ [ [ 9.313995863363774, 54.729408547631351, 0.0 ], [ 9.31437519219697, 54.729581091638934, 0.0 ], [ 9.314124083708284, 54.729734066081164, 0.0 ], [ 9.313505071909669, 54.729395533511394, 0.0 ], [ 9.313995863363774, 54.729408547631351, 0.0 ] ] ] } },
{ "type": "Feature", "properties": { "layer": "WBK_ARBEITSFLAECHE" }, "geometry": { "type": "LineString", "coordinates": [ [ 9.313995863363774, 54.729408547631351 ], [ 9.31437519219697, 54.729581091638934 ], [ 9.314124083708284, 54.729734066081164 ], [ 9.313505071909669, 54.729395533511394 ], [ 9.313995863363774, 54.729408547631351 ] ] } },
{ "type": "Feature", "properties": { "layer": "WBK_ARBEITSFLAECHE" }, "geometry": { "type": "Polygon", "coordinates": [ [ [ 9.312716010648987, 54.730209017768217, 0.0 ], [ 9.313177087120783, 54.73029125972905, 0.0 ], [ 9.313037594562893, 54.730486204621933, 0.0 ], [ 9.312536441862042, 54.730369816804043, 0.0 ], [ 9.312716010648987, 54.730209017768217, 0.0 ] ] ] } },
{ "type": "Feature", "properties": { "layer": "WBK_ARBEITSFLAECHE" }, "geometry": { "type": "LineString", "coordinates": [ [ 9.312716010648987, 54.730209017768217 ], [ 9.313177087120783, 54.73029125972905 ], [ 9.313037594562893, 54.730486204621933 ], [ 9.312536441862042, 54.730369816804043 ], [ 9.312716010648987, 54.730209017768217 ] ] } },
{ "type": "Feature", "properties": { "layer": "WBK_ARBEITSFLAECHE" }, "geometry": { "type": "Polygon", "coordinates": [ [ [ 9.409365663709711, 54.686184655031987, 0.0 ], [ 9.409552611499773, 54.686235980646636, 0.0 ], [ 9.409455106239767, 54.686360149893829, 0.0 ], [ 9.409287840560058, 54.686297757159075, 0.0 ], [ 9.409365663709711, 54.686184655031987, 0.0 ] ] ] } },
{ "type": "Feature", "properties": { "layer": "WBK_ARBEITSFLAECHE" }, "geometry": { "type": "LineString", "coordinates": [ [ 9.409365663709711, 54.686184655031987 ], [ 9.409552611499773, 54.686235980646636 ], [ 9.409455106239767, 54.686360149893829 ], [ 9.409287840560058, 54.686297757159075 ], [ 9.409365663709711, 54.686184655031987 ] ] } },
{ "type": "Feature", "properties": { "layer": "WBK_ARBEITSFLAECHE" }, "geometry": { "type": "Polygon", "coordinates": [ [ [ 9.428863747520348, 54.509049357009268, 0.0 ], [ 9.42931474311057, 54.508681953381895, 0.0 ], [ 9.429443604599662, 54.508837430418048, 0.0 ], [ 9.428961317363987, 54.509161828581, 0.0 ], [ 9.428863747520348, 54.509049357009268, 0.0 ] ] ] } },
{ "type": "Feature", "properties": { "layer": "WBK_ARBEITSFLAECHE" }, "geometry": { "type": "LineString", "coordinates": [ [ 9.428863747520348, 54.509049357009268 ], [ 9.42931474311057, 54.508681953381895 ], [ 9.429443604599662, 54.508837430418048 ], [ 9.428961317363987, 54.509161828581 ], [ 9.428863747520348, 54.509049357009268 ] ] } },
{ "type": "Feature", "properties": { "layer": "WBK_ARBEITSFLAECHE" }, "geometry": { "type": "Polygon", "coordinates": [ [ [ 9.430895000109979, 54.520025098666252, 0.0 ], [ 9.431284443769835, 54.520039881536015, 0.0 ], [ 9.431262426846965, 54.520217068898681, 0.0 ], [ 9.430840875756882, 54.520228634654501, 0.0 ], [ 9.430895000109979, 54.520025098666252, 0.0 ] ] ] } },
{ "type": "Feature", "properties": { "layer": "WBK_ARBEITSFLAECHE" }, "geometry": { "type": "LineString", "coordinates": [ [ 9.430895000109979, 54.520025098666252 ], [ 9.431284443769835, 54.520039881536015 ], [ 9.431262426846965, 54.520217068898681 ], [ 9.430840875756882, 54.520228634654501 ], [ 9.430895000109979, 54.520025098666252 ] ] } },
{ "type": "Feature", "properties": { "layer": "WBK_ARBEITSFLAECHE" }, "geometry": { "type": "Polygon", "coordinates": [ [ [ 9.431533539456188, 54.520024606488704, 0.0 ], [ 9.431729554359586, 54.520020467903244, 0.0 ], [ 9.431690193792473, 54.520222358944956, 0.0 ], [ 9.431479418281503, 54.520228142756956, 0.0 ], [ 9.431533539456188, 54.520024606488704, 0.0 ] ] ] } },
{ "type": "Feature", "properties": { "layer": "WBK_ARBEITSFLAECHE" }, "geometry": { "type": "LineString", "coordinates": [ [ 9.431533539456188, 54.520024606488704 ], [ 9.431729554359586, 54.520020467903244 ], [ 9.431690193792473, 54.520222358944956 ], [ 9.431479418281503, 54.520228142756956 ], [ 9.431533539456188, 54.520024606488704 ] ] } },
{ "type": "Feature", "properties": { "layer": "WBK_ARBEITSFLAECHE" }, "geometry": { "type": "Polygon", "coordinates": [ [ [ 9.425861337383877, 54.548650152004228, 0.0 ], [ 9.426170519102842, 54.548649062210977, 0.0 ], [ 9.4261686437703, 54.548469326679374, 0.0 ], [ 9.425859463410331, 54.548470416463793, 0.0 ], [ 9.425861337383877, 54.548650152004228, 0.0 ] ] ] } },
{ "type": "Feature", "properties": { "layer": "WBK_ARBEITSFLAECHE" }, "geometry": { "type": "LineString", "coordinates": [ [ 9.425861337383877, 54.548650152004228 ], [ 9.426170519105824, 54.548649062210977 ], [ 9.426168643770275, 54.548469326677733 ], [ 9.425859463407367, 54.548470416463815 ], [ 9.425861337383877, 54.548650152004228 ] ] } },
{ "type": "Feature", "properties": { "layer": "WBK_ARBEITSFLAECHE" }, "geometry": { "type": "Polygon", "coordinates": [ [ [ 9.426513484742186, 54.548655977894668, 0.0 ], [ 9.426822666478975, 54.548654886434839, 0.0 ], [ 9.426820788279322, 54.548475150918662, 0.0 ], [ 9.426511607901634, 54.548476242379564, 0.0 ], [ 9.426513484742186, 54.548655977894668, 0.0 ] ] ] } },
{ "type": "Feature", "properties": { "layer": "WBK_ARBEITSFLAECHE" }, "geometry": { "type": "LineString", "coordinates": [ [ 9.426513484742186, 54.548655977894668 ], [ 9.426822666481959, 54.548654886434832 ], [ 9.426820788279398, 54.548475150926919 ], [ 9.426511607898682, 54.548476242379586 ], [ 9.426513484742186, 54.548655977894668 ] ] } },
{ "type": "Feature", "properties": { "layer": "WBK_ARBEITSFLAECHE" }, "geometry": { "type": "Polygon", "coordinates": [ [ [ 9.425587474464191, 54.553612555603053, 0.0 ], [ 9.425790091767162, 54.553624715489832, 0.0 ], [ 9.425763804006142, 54.553803803514661, 0.0 ], [ 9.425556463021803, 54.553788718825565, 0.0 ], [ 9.425587474464191, 54.553612555603053, 0.0 ] ] ] } },
{ "type": "Feature", "properties": { "layer": "WBK_ARBEITSFLAECHE" }, "geometry": { "type": "LineString", "coordinates": [ [ 9.425587474464191, 54.553612555603053 ], [ 9.425790091767162, 54.553624715489832 ], [ 9.425763804006142, 54.553803803514661 ], [ 9.425556463021803, 54.553788718825565 ], [ 9.425587474464191, 54.553612555603053 ] ] } },
{ "type": "Feature", "properties": { "layer": "WBK_ARBEITSFLAECHE" }, "geometry": { "type": "Polygon", "coordinates": [ [ [ 9.425064763181545, 54.553556168362277, 0.0 ], [ 9.425267380054088, 54.553568329125241, 0.0 ], [ 9.425241090037479, 54.553747417042203, 0.0 ], [ 9.42503374952731, 54.553732331446398, 0.0 ], [ 9.425064763181545, 54.553556168362277, 0.0 ] ] ] } },
{ "type": "Feature", "properties": { "layer": "WBK_ARBEITSFLAECHE" }, "geometry": { "type": "LineString", "coordinates": [ [ 9.425064763181545, 54.553556168362277 ], [ 9.425267380054088, 54.553568329125241 ], [ 9.425241090037479, 54.553747417042203 ], [ 9.42503374952731, 54.553732331446398 ], [ 9.425064763181545, 54.553556168362277 ] ] } },
{ "type": "Feature", "properties": { "layer": "WBK_ARBEITSFLAECHE" }, "geometry": { "type": "Polygon", "coordinates": [ [ [ 9.426104223617166, 54.552452685984825, 0.0 ], [ 9.42627687593528, 54.552515507149586, 0.0 ], [ 9.426117490956161, 54.55266952917956, 0.0 ], [ 9.425942816585353, 54.552602872506334, 0.0 ], [ 9.426104223617166, 54.552452685984825, 0.0 ] ] ] } },
{ "type": "Feature", "properties": { "layer": "WBK_ARBEITSFLAECHE" }, "geometry": { "type": "LineString", "coordinates": [ [ 9.426104223617166, 54.552452685984825 ], [ 9.42627687593528, 54.552515507149586 ], [ 9.426117490956161, 54.55266952917956 ], [ 9.425942816585353, 54.552602872506334 ], [ 9.426104223617166, 54.552452685984825 ] ] } },
{ "type": "Feature", "properties": { "layer": "WBK_ARBEITSFLAECHE" }, "geometry": { "type": "Polygon", "coordinates": [ [ [ 9.422745770924232, 54.622595198631082, 0.0 ], [ 9.423153120834613, 54.622586001215105, 0.0 ], [ 9.42315140989737, 54.622715253419535, 0.0 ], [ 9.422741806117406, 54.622717257261918, 0.0 ], [ 9.422745770924232, 54.622595198631082, 0.0 ] ] ] } },
{ "type": "Feature", "properties": { "layer": "WBK_ARBEITSFLAECHE" }, "geometry": { "type": "LineString", "coordinates": [ [ 9.422745770924232, 54.622595198631082 ], [ 9.423153120834613, 54.622586001215105 ], [ 9.42315140989737, 54.622715253419535 ], [ 9.422741806117406, 54.622717257261918 ], [ 9.422745770924232, 54.622595198631082 ] ] } },
{ "type": "Feature", "properties": { "layer": "WBK_ARBEITSFLAECHE" }, "geometry": { "type": "LineString", "coordinates": [ [ 9.262935271111118, 54.754791166572829, 0.0 ], [ 9.263701234954635, 54.754368655218272, 0.0 ] ] } },
{ "type": "Feature", "properties": { "layer": "WBK_ARBEITSFLAECHE" }, "geometry": { "type": "LineString", "coordinates": [ [ 9.263700269677665, 54.754369573804411, 0.0 ], [ 9.264976224561073, 54.753752524162984, 0.0 ] ] } },
{ "type": "Feature", "properties": { "layer": "WBK_ARBEITSFLAECHE" }, "geometry": { "type": "LineString", "coordinates": [ [ 9.263242793219145, 54.754206355405763, 0.0 ], [ 9.264518372916287, 54.753589886359094, 0.0 ] ] } },
{ "type": "Feature", "properties": { "layer": "WBK_ARBEITSFLAECHE" }, "geometry": { "type": "LineString", "coordinates": [ [ 9.262935357716763, 54.754791118799751 ], [ 9.263242714788342, 54.754206327637675 ] ] } },
{ "type": "Feature", "properties": { "layer": "WBK_ARBEITSFLAECHE" }, "geometry": { "type": "LineString", "coordinates": [ [ 9.263299183467876, 54.754213295452892, 0.0 ], [ 9.263299818968964, 54.754211228901823, 0.0 ], [ 9.263300228807557, 54.754209143345427, 0.0 ], [ 9.263300411365414, 54.754207047018674, 0.0 ], [ 9.263300365921728, 54.754204948199039, 0.0 ], [ 9.263300092655971, 54.75420285517388, 0.0 ], [ 9.263299592647188, 54.754200776207597, 0.0 ], [ 9.263298867869731, 54.754198719509176, 0.0 ], [ 9.263297921185465, 54.754196693199617, 0.0 ], [ 9.263296756332467, 54.754194705279907, 0.0 ], [ 9.263295377910266, 54.754192763599512, 0.0 ] ] } },
{ "type": "Feature", "properties": { "layer": "WBK_ARBEITSFLAECHE" }, "geometry": { "type": "LineString", "coordinates": [ [ 9.263241508434922, 54.754239812229152, 0.0 ], [ 9.263245194579538, 54.754239787001694, 0.0 ], [ 9.263248870432202, 54.754239625809205, 0.0 ], [ 9.263252521016339, 54.754239329308447, 0.0 ], [ 9.263256131458327, 54.754238898707449, 0.0 ], [ 9.2632596870481, 54.75423833576059, 0.0 ], [ 9.263263173299075, 54.754237642761524, 0.0 ], [ 9.263266576007181, 54.754236822533734, 0.0 ], [ 9.263269881308727, 54.754235878419081, 0.0 ], [ 9.263273075736892, 54.754234814264173, 0.0 ], [ 9.26327614627659, 54.754233634404734, 0.0 ] ] } },
{ "type": "Feature", "properties": { "layer": "WBK_ARBEITSFLAECHE" }, "geometry": { "type": "Polygon", "coordinates": [ [ [ 9.263297615740736, 54.754191954751157 ], [ 9.263293140079725, 54.754193572447775 ], [ 9.263286987088504, 54.754184997691866 ], [ 9.263297615740736, 54.754191954751157 ] ] ] } },
{ "type": "Feature", "properties": { "layer": "WBK_ARBEITSFLAECHE" }, "geometry": { "type": "Polygon", "coordinates": [ [ [ 9.263241922594904, 54.754238304875805 ], [ 9.263241094274916, 54.754241319582498 ], [ 9.263225871448975, 54.754238374977028 ], [ 9.263241922594904, 54.754238304875805 ] ] ] } },
{ "type": "Feature", "properties": { "layer": "WBK_ARBEITSFLAECHE" }, "geometry": { "type": "Point", "coordinates": [ 9.263290820423933, 54.754224858868625, 0.0 ] } },
{ "type": "Feature", "properties": { "layer": "WBK_ARBEITSFLAECHE" }, "geometry": { "type": "LineString", "coordinates": [ [ 9.263752414782351, 54.754391772968546, 0.0 ], [ 9.2637544993382, 54.75438953426238, 0.0 ], [ 9.263756325143484, 54.754387221195991, 0.0 ], [ 9.263757884312012, 54.754384843760242, 0.0 ], [ 9.263759170109285, 54.754382412224039, 0.0 ], [ 9.263760176981581, 54.754379937089951, 0.0 ], [ 9.263760900579955, 54.754377429048887, 0.0 ], [ 9.263761337779009, 54.754374898933847, 0.0 ], [ 9.263761486690392, 54.754372357673219, 0.0 ], [ 9.263761346670966, 54.754369816243504, 0.0 ], [ 9.263760918325573, 54.754367285621925, 0.0 ], [ 9.263760203504425, 54.754364776739031, 0.0 ], [ 9.263759205295111, 54.754362300431481, 0.0 ], [ 9.263757928009255, 54.754359867395202, 0.0 ], [ 9.263756377163908, 54.754357488139256, 0.0 ], [ 9.263754559457697, 54.754355172940386, 0.0 ] ] } },
{ "type": "Feature", "properties": { "layer": "WBK_ARBEITSFLAECHE" }, "geometry": { "type": "LineString", "coordinates": [ [ 9.263658393718353, 54.754404852922505, 0.0 ], [ 9.263662352734945, 54.754406217330875, 0.0 ], [ 9.263666464784018, 54.754407420839208, 0.0 ], [ 9.263670710347798, 54.754408457735074, 0.0 ], [ 9.263675069274779, 54.754409323096851, 0.0 ], [ 9.263679520875373, 54.754410012817132, 0.0 ], [ 9.263684044020115, 54.754410523622127, 0.0 ], [ 9.263688617239952, 54.754410853087336, 0.0 ], [ 9.263693218828152, 54.754410999648968, 0.0 ], [ 9.26369782694333, 54.754410962611331, 0.0 ], [ 9.263702419713118, 54.754410742150249, 0.0 ], [ 9.263706975337987, 54.754410339312138, 0.0 ], [ 9.263711472194718, 54.754409756009061, 0.0 ], [ 9.263715888939037, 54.754408995009641, 0.0 ], [ 9.263720204606926, 54.754408059925993, 0.0 ] ] } },
{ "type": "Feature", "properties": { "layer": "WBK_ARBEITSFLAECHE" }, "geometry": { "type": "Polygon", "coordinates": [ [ [ 9.26375677003003, 54.754354339386857 ], [ 9.263752348885312, 54.754356006493822 ], [ 9.263745912315052, 54.754347501657122 ], [ 9.26375677003003, 54.754354339386857 ] ] ] } },
{ "type": "Feature", "properties": { "layer": "WBK_ARBEITSFLAECHE" }, "geometry": { "type": "Polygon", "coordinates": [ [ [ 9.263660074380942, 54.754403676233004 ], [ 9.263656713055678, 54.754406029611971 ], [ 9.263646186925302, 54.754399020576002 ], [ 9.263660074380942, 54.754403676233004 ] ] ] } },
{ "type": "Feature", "properties": { "layer": "WBK_ARBEITSFLAECHE" }, "geometry": { "type": "Point", "coordinates": [ 9.263739155165178, 54.754401173389361, 0.0 ] } },
{ "type": "Feature", "properties": { "layer": "WBK_ARBEITSFLAECHE" }, "geometry": { "type": "Polygon", "coordinates": [ [ [ 9.331086699720476, 54.721206854556591, 0.0 ], [ 9.331559473577597, 54.721463065332877, 0.0 ], [ 9.331303233278438, 54.721564392097122, 0.0 ], [ 9.330883474477503, 54.721320695597029, 0.0 ], [ 9.331086699720476, 54.721206854556591, 0.0 ] ] ] } },
{ "type": "Feature", "properties": { "layer": "WBK_ARBEITSFLAECHE" }, "geometry": { "type": "LineString", "coordinates": [ [ 9.331086699720476, 54.721206854556591 ], [ 9.331559473577597, 54.721463065332877 ], [ 9.331303233278438, 54.721564392097122 ], [ 9.330883474477503, 54.721320695597029 ], [ 9.331086699720476, 54.721206854556591 ] ] } },
{ "type": "Feature", "properties": { "layer": "WBK_ARBEITSFLAECHE" }, "geometry": { "type": "Polygon", "coordinates": [ [ [ 9.196306843133589, 54.851991229748705, 47.801134192103959 ], [ 9.196614599737824, 54.852095017128406, 47.801134192103959 ], [ 9.196490471242944, 54.852221900258442, 47.801134192103959 ], [ 9.196186772873979, 54.852102020722342, 47.801134192103959 ], [ 9.196306843133589, 54.851991229748705, 47.801134192103959 ] ] ] } },
{ "type": "Feature", "properties": { "layer": "WBK_ARBEITSFLAECHE" }, "geometry": { "type": "LineString", "coordinates": [ [ 9.196306843133589, 54.851991229748705, 47.801134192103959 ], [ 9.196614599737824, 54.852095017128406, 47.801134192103959 ], [ 9.196490471242944, 54.852221900258442, 47.801134192103959 ], [ 9.196186772873979, 54.852102020722342, 47.801134192103959 ], [ 9.196306843133589, 54.851991229748705, 47.801134192103959 ] ] } },
{ "type": "Feature", "properties": { "layer": "WBK_ARBEITSFLAECHE" }, "geometry": { "type": "LineString", "coordinates": [ [ 9.414453305620036, 54.607351335286644 ], [ 9.41469249233384, 54.607304728073437 ], [ 9.414741529516332, 54.607389526967197 ], [ 9.414502342362391, 54.6074361342774 ], [ 9.414453305620036, 54.607351335286644 ] ] } },
{ "type": "Feature", "properties": { "layer": "WBK_ARBEITSFLAECHE" }, "geometry": { "type": "Polygon", "coordinates": [ [ [ 9.414453305620036, 54.607351335286644, 0.0 ], [ 9.41469249233384, 54.607304728073437, 0.0 ], [ 9.414741529516332, 54.607389526967197, 0.0 ], [ 9.414502342362391, 54.6074361342774, 0.0 ], [ 9.414453305620036, 54.607351335286644, 0.0 ] ] ] } },
{ "type": "Feature", "properties": { "layer": "WBK_ARBEITSFLAECHE" }, "geometry": { "type": "LineString", "coordinates": [ [ 9.202029111243089, 54.845457160007427, 45.3452936109232 ], [ 9.202158804708072, 54.845323362567974, 45.3452936109232 ], [ 9.202418873973041, 54.845407311597228, 45.3452936109232 ], [ 9.202289181100664, 54.845541109312087, 45.3452936109232 ], [ 9.202029111243089, 54.845457160007427, 45.3452936109232 ] ] } },
{ "type": "Feature", "properties": { "layer": "WBK_ARBEITSFLAECHE" }, "geometry": { "type": "Polygon", "coordinates": [ [ [ 9.202029111243089, 54.845457160007427, 0.0 ], [ 9.202158804708072, 54.845323362567974, 0.0 ], [ 9.202418873973041, 54.845407311597228, 0.0 ], [ 9.202289181100664, 54.845541109312087, 0.0 ], [ 9.202029111243089, 54.845457160007427, 0.0 ] ] ] } },
{ "type": "Feature", "properties": { "layer": "WBK_ARBEITSFLAECHE" }, "geometry": { "type": "LineString", "coordinates": [ [ 9.214469534377328, 54.833119519662617 ], [ 9.214080838613937, 54.833123658442787 ], [ 9.214077354663676, 54.833014614876596 ], [ 9.214466049379865, 54.833010476108406 ], [ 9.214469534377328, 54.833119519662617 ] ] } },
{ "type": "Feature", "properties": { "layer": "WBK_ARBEITSFLAECHE" }, "geometry": { "type": "Polygon", "coordinates": [ [ [ 9.214469534377328, 54.833119519662617, 0.0 ], [ 9.214080838613937, 54.833123658442787, 0.0 ], [ 9.214077354663676, 54.833014614876596, 0.0 ], [ 9.214466049379865, 54.833010476108406, 0.0 ], [ 9.214469534377328, 54.833119519662617, 0.0 ] ] ] } },
{ "type": "Feature", "properties": { "layer": "WBK_ARBEITSFLAECHE" }, "geometry": { "type": "LineString", "coordinates": [ [ 9.218482770777968, 54.828704528387284 ], [ 9.218417137514425, 54.828776504057359 ], [ 9.218723536121185, 54.82886962367494 ], [ 9.218789168989874, 54.828797647840688 ], [ 9.218482770777968, 54.828704528387284 ] ] } },
{ "type": "Feature", "properties": { "layer": "WBK_ARBEITSFLAECHE" }, "geometry": { "type": "Polygon", "coordinates": [ [ [ 9.218482770777968, 54.828704528387284, 0.0 ], [ 9.218417137514425, 54.828776504057359, 0.0 ], [ 9.218723536121185, 54.82886962367494, 0.0 ], [ 9.218789168989874, 54.828797647840688, 0.0 ], [ 9.218482770777968, 54.828704528387284, 0.0 ] ] ] } },
{ "type": "Feature", "properties": { "layer": "WBK_ARBEITSFLAECHE" }, "geometry": { "type": "LineString", "coordinates": [ [ 9.242801325667884, 54.803623148163695 ], [ 9.243157190172099, 54.803518925704402 ], [ 9.243252833711027, 54.803627903484937 ], [ 9.242896968497099, 54.803732126223458 ], [ 9.242801325667884, 54.803623148163695 ] ] } },
{ "type": "Feature", "properties": { "layer": "WBK_ARBEITSFLAECHE" }, "geometry": { "type": "Polygon", "coordinates": [ [ [ 9.242801325667884, 54.803623148163695, 0.0 ], [ 9.243157190172097, 54.803518925704424, 0.0 ], [ 9.243252833711031, 54.803627903484937, 0.0 ], [ 9.242896968497096, 54.803732126223458, 0.0 ], [ 9.242801325667884, 54.803623148163695, 0.0 ] ] ] } },
{ "type": "Feature", "properties": { "layer": "WBK_ARBEITSFLAECHE" }, "geometry": { "type": "LineString", "coordinates": [ [ 9.415132721317001, 54.677650615367483, 28.683201525951329 ], [ 9.415253055009781, 54.677461141666278, 28.683201525951329 ], [ 9.415474168280099, 54.67750829662284, 28.683201525951329 ], [ 9.415353835479698, 54.67769777054059, 28.683201525951329 ], [ 9.415132721317001, 54.677650615367483, 28.683201525951329 ] ] } },
{ "type": "Feature", "properties": { "layer": "WBK_ARBEITSFLAECHE" }, "geometry": { "type": "Polygon", "coordinates": [ [ [ 9.415132721317001, 54.677650615367483, 0.0 ], [ 9.415253055009781, 54.677461141666278, 0.0 ], [ 9.415474168280099, 54.67750829662284, 0.0 ], [ 9.415353835479698, 54.67769777054059, 0.0 ], [ 9.415132721317001, 54.677650615367483, 0.0 ] ] ] } },
{ "type": "Feature", "properties": { "layer": "WBK_ARBEITSFLAECHE" }, "geometry": { "type": "LineString", "coordinates": [ [ 9.419545575042282, 54.670747035436769 ], [ 9.419554031714556, 54.67065730087895 ], [ 9.419708858931887, 54.670662202077281 ], [ 9.419700402600045, 54.67075193664521 ], [ 9.419545575042282, 54.670747035436769 ] ] } },
{ "type": "Feature", "properties": { "layer": "WBK_ARBEITSFLAECHE" }, "geometry": { "type": "Polygon", "coordinates": [ [ [ 9.419545575042282, 54.670747035436769, 0.0 ], [ 9.419554031714556, 54.670657300878929, 0.0 ], [ 9.419708858931887, 54.670662202077281, 0.0 ], [ 9.41970040260005, 54.670751936645225, 0.0 ], [ 9.419545575042282, 54.670747035436769, 0.0 ] ] ] } },
{ "type": "Feature", "properties": { "layer": "WBK_ARBEITSFLAECHE" }, "geometry": { "type": "LineString", "coordinates": [ [ 9.408009884659855, 54.687069959537276, 28.70500142740196 ], [ 9.4081062483168, 54.687140383651652, 28.70500142740196 ], [ 9.407984689520928, 54.687196211245691, 28.70500142740196 ], [ 9.407888325941208, 54.687125787035164, 28.70500142740196 ], [ 9.408009884659855, 54.687069959537276, 28.70500142740196 ] ] } },
{ "type": "Feature", "properties": { "layer": "WBK_ARBEITSFLAECHE" }, "geometry": { "type": "Polygon", "coordinates": [ [ [ 9.408009884659855, 54.687069959537276, 0.0 ], [ 9.4081062483168, 54.687140383651652, 0.0 ], [ 9.407984689520928, 54.687196211245691, 0.0 ], [ 9.407888325941208, 54.687125787035164, 0.0 ], [ 9.408009884659855, 54.687069959537276, 0.0 ] ] ] } }
]
}
