{
"type": "FeatureCollection",
"name": "trassenachse_gesamt",
"crs": { "type": "name", "properties": { "name": "urn:ogc:def:crs:EPSG::25832" } },
"features": [
{ "type": "Feature", "properties": { "layer": "trassenachse_gesamt" }, "geometry": { "type": "LineString", "coordinates": [ [ 547272.794313598424196, 6015889.721471911296248, 0.0 ], [ 547263.283073153346777, 6015899.832216331735253, 0.0 ], [ 547250.503830693662167, 6015904.229470903985202, 0.0 ], [ 547239.925404321402311, 6015912.913230931386352, 0.0 ], [ 547413.066775403916836, 6016035.901064564473927, 0.0 ], [ 547433.66906289383769, 6016020.010610525496304, 0.0 ], [ 547604.421474248170853, 6016258.661503273062408, 0.0 ], [ 547622.856315039098263, 6016245.10772658418864, 0.0 ], [ 547789.957595851272345, 6016506.03280823584646, 0.0 ], [ 547773.346550852060318, 6016517.659352339804173, 0.0 ], [ 547969.217150185257196, 6016769.524994569830596, 0.0 ], [ 547987.602676875889301, 6016754.276633394882083, 0.0 ], [ 548271.332076609134674, 6017071.503278189338744, 0.0 ], [ 548252.459334187209606, 6017088.332327418029308, 0.0 ], [ 548490.505059763789177, 6017351.254704540595412, 0.0 ], [ 548506.668931528925896, 6017339.528481680899858, 0.0 ], [ 548630.706516832113266, 6017587.935984998010099, 0.0 ], [ 548649.978043626993895, 6017577.942858805879951, 0.0 ], [ 548785.424289174377918, 6017904.486183562316, 0.0 ], [ 548764.55660692602396, 6017913.645470551215112, 0.0 ], [ 548887.120969384908676, 6018213.503478160127997, 0.0 ], [ 548913.314130328595638, 6018210.528573629446328, 0.0 ], [ 548896.752785682678223, 6018532.569867294281721, 0.0 ], [ 548916.69525009393692, 6018539.568358443677425, 0.0 ], [ 548753.216495148837566, 6018766.112278568558395, 0.0 ], [ 548715.94871174916625, 6018781.066403401084244, 0.0 ], [ 548538.203114435076714, 6019023.238506334833801, 0.0 ], [ 548558.946769159287214, 6019038.202625357545912, 0.0 ], [ 548368.538833972066641, 6019262.756132593378425, 0.0 ], [ 548365.891510002315044, 6019302.694074157625437, 0.0 ], [ 548262.084425669163465, 6019609.054675729013979, 0.0 ], [ 548236.239203538745642, 6019601.958909885957837, 0.0 ], [ 548197.756481245160103, 6019966.4235461037606, 0.0 ], [ 548167.146563313901424, 6019986.293173568323255, 0.0 ], [ 548104.501055665314198, 6020342.774724581278861, 0.0 ], [ 548123.640300922095776, 6020376.358035701327026, 0.0 ], [ 547971.915138140320778, 6020683.666204391047359, 0.0 ], [ 547991.665999036282301, 6020695.259014495648444, 0.0 ], [ 547794.172040749341249, 6020948.031398279592395, 0.0 ], [ 547776.745061825960875, 6020934.774415409192443, 0.0 ], [ 547560.448302324861288, 6021209.952356310561299, 0.0 ], [ 547580.11085419729352, 6021225.269185140728951, 0.0 ], [ 547326.022931452840567, 6021511.48727909848094, 0.0 ], [ 547342.455127600580454, 6021529.990615393966436, 0.0 ], [ 547089.017248634248972, 6021676.041847216896713, 0.0 ], [ 547096.553557518869638, 6021695.425782611593604, 0.0 ], [ 546734.780714835971594, 6021757.953844607807696, 0.0 ], [ 546730.42985962331295, 6021733.35050623677671, 0.0 ], [ 546324.483776770532131, 6021825.442262090742588, 0.0 ], [ 546319.900796007364988, 6021802.510699166916311, 0.0 ], [ 545991.156693458557129, 6021856.383890112861991, 0.0 ], [ 545995.018451526761055, 6021881.129438419826329, 0.0 ], [ 545604.616646602749825, 6021960.830400513485074, 0.0 ], [ 545599.36503180116415, 6021938.079294654540718, 0.0 ], [ 545176.959299892187119, 6022069.907338196411729, 0.0 ], [ 545148.097825914621353, 6022049.225227475166321, 0.0 ], [ 544775.80958803743124, 6022144.424355480819941, 0.0 ], [ 544781.481454312801361, 6022166.960388869978487, 0.0 ], [ 544435.661264602094889, 6022254.71785475872457, 0.0 ], [ 544429.654102724045515, 6022230.849371301941574, 0.0 ], [ 544045.397389959543943, 6022327.098403096199036, 0.0 ], [ 544051.625303667038679, 6022351.844027527607977, 0.0 ], [ 543618.372319214046001, 6022462.184109636582434, 0.0 ], [ 543611.535690534859896, 6022435.019930679351091, 0.0 ], [ 543179.750795587897301, 6022545.02923789806664, 0.0 ], [ 543185.946877483278513, 6022569.648305089212954, 0.0 ], [ 542791.502646706998348, 6022668.901107762940228, 0.0 ], [ 542785.316080119460821, 6022644.319861462339759, 0.0 ], [ 542371.027208290994167, 6022747.883381222374737, 0.0 ], [ 542377.551412679255009, 6022773.806284611113369, 0.0 ], [ 541965.750132516026497, 6022850.902322225272655, 0.0 ], [ 541946.61704009398818, 6022882.202444512397051, 0.0 ], [ 541556.548858940601349, 6022981.6392851639539, 0.0 ], [ 541548.433449599891901, 6022955.535784898325801, 0.0 ], [ 541133.959021929651499, 6023167.673472470603883, 0.0 ], [ 541101.600125014781952, 6023156.976814849302173, 0.0 ], [ 540801.708631135523319, 6023363.967783395200968, 0.0 ], [ 540788.17998930439353, 6023401.265015620738268, 0.0 ], [ 540452.175939407199621, 6023551.937864257022738, 0.0 ], [ 540442.688868794590235, 6023529.496370795182884, 0.0 ], [ 540090.535836864262819, 6023692.893929830752313, 0.0 ], [ 540056.864984892308712, 6023682.811494193039834, 0.0 ], [ 539685.086263231933117, 6023876.154017952270806, 0.0 ], [ 539698.366312809288502, 6023901.343508831225336, 0.0 ], [ 539309.085919745266438, 6024104.61715692281723, 0.0 ], [ 539297.388821702450514, 6024082.430451257154346, 0.0 ], [ 538916.469091139733791, 6024281.72003245074302, 0.0 ], [ 538929.431570895016193, 6024306.307108663953841, 0.0 ], [ 538533.13567229360342, 6024514.322731560096145, 0.0 ], [ 538520.905569233000278, 6024491.124920291826129, 0.0 ], [ 538141.670513018965721, 6024691.009369963780046, 0.0 ], [ 538132.975344762206078, 6024726.394027456641197, 0.0 ], [ 537751.944290950894356, 6024884.591289410367608, 0.0 ], [ 537717.569849282503128, 6024869.590558427385986, 0.0 ], [ 537359.593252331018448, 6024973.130220355466008, 0.0 ], [ 537343.931705299764872, 6025005.70231294631958, 0.0 ], [ 536922.072790492326021, 6025068.545957836322486, 0.0 ], [ 536925.612989339977503, 6025092.54445543512702, 0.0 ], [ 536471.894889544695616, 6025148.0849768249318, 0.0 ], [ 536446.368544906377792, 6025123.491628379561007, 0.0 ], [ 536064.405273888260126, 6025171.083288876339793, 0.0 ], [ 536039.504769843071699, 6025198.125490706413984, 0.0 ], [ 535645.957479678094387, 6025266.295394624583423, 0.0 ], [ 535641.193660348653793, 6025241.070017701014876, 0.0 ], [ 535219.680406179279089, 6025331.134965422563255, 0.0 ], [ 535224.577590849250555, 6025354.316148362122476, 0.0 ], [ 534830.962631568312645, 6025437.466314080171287, 0.0 ], [ 534826.066985350102186, 6025414.29247150849551, 0.0 ], [ 534440.146137434989214, 6025519.947152093052864, 0.0 ], [ 534409.451832495629787, 6025501.360801819711924, 0.0 ], [ 534048.73139750212431, 6025576.746541175059974, 0.0 ], [ 534053.949955616146326, 6025601.449140316806734, 0.0 ], [ 533680.845503464341164, 6025655.028637609444559, 0.0 ], [ 533663.557553730905056, 6025684.193546423688531, 0.0 ], [ 533312.920105587691069, 6025854.336321922950447, 0.0 ], [ 533280.123459450900555, 6025847.438217742368579, 0.0 ], [ 532966.162149213254452, 6026098.695369072258472, 0.0 ], [ 532982.311601035296917, 6026118.839349227957428, 0.0 ], [ 532632.488736182451248, 6026401.114896638318896, 0.0 ], [ 532614.404346089810133, 6026378.957182059064507, 0.0 ], [ 532286.441160496324301, 6026644.760116452351213, 0.0 ], [ 532301.510467149317265, 6026663.555310071446002, 0.0 ], [ 531971.70283929631114, 6026895.28819765150547, 0.0 ], [ 531972.022564366459846, 6026930.765518439002335, 0.0 ], [ 531611.733122386038303, 6027218.954568412154913, 0.0 ], [ 531577.235747702419758, 6027211.864930655807257, 0.0 ], [ 531229.740431573241949, 6027487.465264028869569, 0.0 ], [ 531236.610332537442446, 6027521.250701800920069, 0.0 ], [ 531021.540552422404289, 6027879.911053865216672, 0.0 ], [ 531021.540552422404289, 6027879.911053865216672, 0.0 ], [ 531021.540552422404289, 6027879.911053865216672, 0.0 ], [ 530992.86730569973588, 6027867.811440760269761, 0.0 ], [ 530992.86730569973588, 6027867.811440760269761, 0.0 ], [ 530992.86730569973588, 6027867.811440760269761, 0.0 ], [ 530921.452234022319317, 6028193.829960566014051, 0.0 ], [ 530921.452234022319317, 6028193.829960566014051, 0.0 ], [ 530921.452234022319317, 6028193.829960566014051, 0.0 ], [ 530921.452234022319317, 6028193.829960566014051, 0.0 ], [ 530921.452234022319317, 6028193.829960566014051, 0.0 ], [ 530921.452234022319317, 6028193.829960566014051, 0.0 ], [ 530921.452234022319317, 6028193.829960566014051, 0.0 ], [ 530921.452234022319317, 6028193.829960566014051, 0.0 ], [ 530921.452234022319317, 6028193.829960566014051, 0.0 ], [ 530949.60592807456851, 6028199.836433271877468, 0.0 ], [ 530949.60592807456851, 6028199.836433271877468, 0.0 ], [ 530949.60592807456851, 6028199.836433271877468, 0.0 ], [ 530949.60592807456851, 6028199.836433271877468, 0.0 ], [ 530949.60592807456851, 6028199.836433271877468, 0.0 ], [ 530949.60592807456851, 6028199.836433271877468, 0.0 ], [ 530949.60592807456851, 6028199.836433271877468, 0.0 ], [ 530949.60592807456851, 6028199.836433271877468, 0.0 ], [ 530949.60592807456851, 6028199.836433271877468, 0.0 ], [ 530858.844619177281857, 6028491.288483757525682, 0.0 ], [ 530858.844619177281857, 6028491.288483757525682, 0.0 ], [ 530858.844619177281857, 6028491.288483757525682, 0.0 ], [ 530858.844619177281857, 6028491.288483757525682, 0.0 ], [ 530858.844619177281857, 6028491.288483757525682, 0.0 ], [ 530858.844619177281857, 6028491.288483757525682, 0.0 ], [ 530858.844619177281857, 6028491.288483757525682, 0.0 ], [ 530858.844619177281857, 6028491.288483757525682, 0.0 ], [ 530858.844619177281857, 6028491.288483757525682, 0.0 ], [ 530885.339856404811144, 6028500.237611879594624, 0.0 ], [ 530885.339856404811144, 6028500.237611879594624, 0.0 ], [ 530885.339856404811144, 6028500.237611879594624, 0.0 ], [ 530885.339856404811144, 6028500.237611879594624, 0.0 ], [ 530885.339856404811144, 6028500.237611879594624, 0.0 ], [ 530885.339856404811144, 6028500.237611879594624, 0.0 ], [ 530885.339856404811144, 6028500.237611879594624, 0.0 ], [ 530885.339856404811144, 6028500.237611879594624, 0.0 ], [ 530885.339856404811144, 6028500.237611879594624, 0.0 ], [ 530776.890985868871212, 6028762.771911316551268, 0.0 ], [ 530750.827094297856092, 6028750.639993891119957, 0.0 ], [ 530575.600320525467396, 6029028.034882129170001, 0.0 ], [ 530596.725657943636179, 6029050.486852310597897, 0.0 ], [ 530361.111267939209938, 6029171.362558368593454, 0.0 ], [ 530375.225628107786179, 6029199.506403990089893, 0.0 ], [ 529952.735944636166096, 6029292.129751810804009, 0.0 ], [ 529946.969359986484051, 6029266.450977235101163, 0.0 ], [ 529556.112584717571735, 6029381.531539587303996, 0.0 ], [ 529543.870072290301323, 6029356.736397652886808, 0.0 ], [ 529292.06714877858758, 6029583.276621406897902, 0.0 ], [ 529258.782630763947964, 6029584.186207710765302, 0.0 ], [ 529038.264668677002192, 6029964.547961086966097, 0.0 ], [ 529060.387105297297239, 6029977.436986614950001, 0.0 ], [ 528848.722211387008429, 6030341.348499587737024, 0.0 ], [ 528826.043002482503653, 6030328.133860442787409, 0.0 ], [ 528607.21225330978632, 6030703.436898259446025, 0.0 ], [ 528630.119666002690792, 6030716.783277225680649, 0.0 ], [ 528404.599154993891716, 6031104.586009969934821, 0.0 ], [ 528381.038618598133326, 6031090.857906082645059, 0.0 ], [ 528177.795124258846045, 6031442.933386819437146, 0.0 ], [ 528198.476309891790152, 6031454.983775868080556, 0.0 ], [ 527996.462572876363993, 6031804.947492238134146, 0.0 ], [ 527972.981525510549545, 6031791.265706636942923, 0.0 ], [ 527775.770743854343891, 6032133.325532726943493, 0.0 ], [ 527796.072337593883276, 6032145.152424530126154, 0.0 ], [ 527651.441911272704601, 6032390.919563660398126, 0.0 ], [ 527633.203245829790831, 6032380.293509088456631, 0.0 ], [ 527521.1914425753057, 6032573.194805633276701, 0.0 ], [ 527522.869059093296528, 6032612.584016239270568, 0.0 ], [ 527466.893557321280241, 6032917.269945410080254, 0.0 ], [ 527443.07822584733367, 6032914.915929983370006, 0.0 ], [ 527457.696366630494595, 6033275.117851504124701, 0.0 ], [ 527478.418679866939783, 6033274.617163750343025, 0.0 ], [ 527495.322739753872156, 6033667.141869693994522, 0.0 ], [ 527469.15194833278656, 6033691.045333890244365, 0.0 ], [ 527484.728970851749182, 6034115.021414598450065, 0.0 ], [ 527510.437857080250978, 6034114.088619498535991, 0.0 ], [ 527527.732841812074184, 6034560.719250407069921, 0.0 ], [ 527499.877916514873505, 6034561.979031570255756, 0.0 ], [ 527517.136993151158094, 6035005.050651022233069, 0.0 ], [ 527542.610537465661764, 6035004.126431648619473, 0.0 ], [ 527559.461777646094561, 6035441.390336758457124, 0.0 ], [ 527532.038994532078505, 6035442.384277655743062, 0.0 ], [ 527548.838233407586813, 6035877.052959023974836, 0.0 ], [ 527574.183362703770399, 6035876.133384523913264, 0.0 ], [ 527591.015351668000221, 6036310.710200870409608, 0.0 ], [ 527563.567121606320143, 6036311.70606126729399, 0.0 ], [ 527580.162666112184525, 6036718.999088667333126, 0.0 ], [ 527603.928847841918468, 6036718.136839179322124, 0.0 ], [ 527618.164843082427979, 6037091.069017147645354, 0.0 ], [ 527593.022186450660229, 6037092.232425183057785, 0.0 ], [ 527607.176910284906626, 6037451.529202927835286, 0.0 ], [ 527631.995358400046825, 6037478.842078223824501, 0.0 ], [ 527653.803230781108141, 6037865.329301412217319, 0.0 ], [ 527630.07831746712327, 6037892.433996342122555, 0.0 ], [ 527658.41802217438817, 6038321.515367112122476, 0.0 ], [ 527686.01414942368865, 6038319.343936857767403, 0.0 ], [ 527716.507512088865042, 6038769.136758249253035, 0.0 ], [ 527690.448804564774036, 6038770.699045208282769, 0.0 ], [ 527720.94793750718236, 6039220.394975648261607, 0.0 ], [ 527748.570461880415678, 6039218.473303498700261, 0.0 ], [ 527778.936954379081726, 6039666.971737331710756, 0.0 ], [ 527752.959441680461168, 6039668.7789715109393, 0.0 ], [ 527782.354207247495651, 6040089.961144775152206, 0.0 ], [ 527810.605628274381161, 6040110.746425609104335, 0.0 ], [ 527911.327365938574076, 6040419.28031360078603, 0.0 ], [ 527886.931855276226997, 6040430.22844298183918, 0.0 ], [ 528074.991154477000237, 6040730.107540260069072, 0.0 ], [ 528097.391652040183544, 6040722.099397934041917, 0.0 ], [ 528094.040163148194551, 6041025.355667036026716, 0.0 ], [ 528124.292499538511038, 6041026.783591145649552, 0.0 ], [ 527999.507972363382578, 6041417.132713608443737, 0.0 ], [ 527972.164053957909346, 6041409.195054578594863, 0.0 ], [ 527888.949459139257669, 6041795.829842434264719, 0.0 ], [ 527857.540293265134096, 6041812.288925205357373, 0.0 ], [ 527815.211174465715885, 6042264.906558980233967, 0.0 ], [ 527840.243466850370169, 6042267.653099123388529, 0.0 ], [ 527796.457161176949739, 6042711.391066764481366, 0.0 ], [ 527768.401214882731438, 6042708.526714405044913, 0.0 ], [ 527724.100278008729219, 6043155.769257300533354, 0.0 ], [ 527749.402466185390949, 6043158.353388192132115, 0.0 ], [ 527707.336956638842821, 6043572.427911638282239, 0.0 ], [ 527681.596054296940565, 6043569.798972229473293, 0.0 ], [ 527639.480339199304581, 6043984.776471524499357, 0.0 ], [ 527663.152504771947861, 6044011.263493717648089, 0.0 ], [ 527618.281727280467749, 6044441.625456242822111, 0.0 ], [ 527594.941285885870457, 6044439.492987502366304, 0.0 ], [ 527547.989511430263519, 6044884.755255915224552, 0.0 ], [ 527574.131729122251272, 6044888.931968854740262, 0.0 ], [ 527457.788467571139336, 6045274.286506806500256, 0.0 ], [ 527478.572737418115139, 6045281.642346622422338, 0.0 ], [ 527310.020190566778183, 6045662.901186656206846, 0.0 ], [ 527286.221534319221973, 6045652.23930899053812, 0.0 ], [ 527125.143447287380695, 6046073.15193928591907, 0.0 ], [ 527091.801738932728767, 6046086.367988516576588, 0.0 ], [ 526916.651375938206911, 6046472.836331502534449, 0.0 ], [ 526942.11730857565999, 6046484.242802013643086, 0.0 ], [ 526759.133267551660538, 6046889.873243447393179, 0.0 ], [ 526735.912330586463213, 6046879.197299244813621, 0.0 ], [ 526562.116533175110817, 6047266.306637277826667, 0.0 ], [ 526578.041156765073538, 6047297.17166362144053, 0.0 ], [ 526450.687914349138737, 6047691.731241189874709, 0.0 ], [ 526428.023472715169191, 6047686.343537739478052, 0.0 ], [ 526365.007966827601194, 6048061.910280832089484, 0.0 ], [ 526387.14765726774931, 6048065.398008747026324, 0.0 ], [ 526325.564274720847607, 6048430.468420887365937, 0.0 ], [ 526297.55393186211586, 6048454.324547914788127, 0.0 ], [ 526248.305462632328272, 6048747.926361619494855, 0.0 ], [ 526269.982473224401474, 6048751.58942698687315, 0.0 ], [ 526191.968720030039549, 6049073.570770464837551, 0.0 ], [ 526213.365263164043427, 6049099.694937256164849, 0.0 ], [ 526219.568469732999802, 6049429.794551649130881, 0.0 ], [ 526208.995808519423008, 6049467.135537695139647, 0.0 ], [ 526306.834316186606884, 6049773.19396320451051, 0.0 ], [ 526331.221562635153532, 6049765.200651803985238, 0.0 ], [ 526440.884635947644711, 6050184.251833032816648, 0.0 ], [ 526474.163589153438807, 6050196.171329006552696, 0.0 ], [ 526614.168995354324579, 6050626.720961478538811, 0.0 ], [ 526597.563958622515202, 6050658.733917615376413, 0.0 ], [ 526716.321769930422306, 6051019.928742273710668, 0.0 ], [ 526739.290847156196833, 6051012.397321565076709, 0.0 ], [ 526849.155083574354649, 6051348.677373607642949, 0.0 ], [ 526826.867480203509331, 6051355.984311581589282, 0.0 ], [ 526949.137746326625347, 6051734.436800171621144, 0.0 ], [ 526974.73308077827096, 6051726.045384931378067, 0.0 ], [ 527115.56078827008605, 6052155.859258118085563, 0.0 ], [ 527090.119868289679289, 6052164.200056875124574, 0.0 ], [ 527224.716112393885851, 6052572.386049813590944, 0.0 ], [ 527258.003316789865494, 6052589.56675179861486, 0.0 ], [ 527317.217760484665632, 6053014.652922227978706, 0.0 ], [ 527290.171112146228552, 6053040.719095850363374, 0.0 ], [ 527270.233577784150839, 6053460.382703115232289, 0.0 ], [ 527296.811505571007729, 6053461.589166101999581, 0.0 ], [ 527277.620679892599583, 6053840.864759468473494, 0.0 ], [ 527254.891344510018826, 6053839.831131428480148, 0.0 ], [ 527235.578371528536081, 6054222.633547330275178, 0.0 ], [ 527262.099993418902159, 6054246.056148186326027, 0.0 ], [ 527240.121141884475946, 6054691.14743859693408, 0.0 ], [ 527217.067596927285194, 6054690.100097891874611, 0.0 ], [ 527222.210747230798006, 6055085.29435106460005, 0.0 ], [ 527196.899977155029774, 6055111.864811899140477, 0.0 ], [ 527175.419878248125315, 6055528.251306450925767, 0.0 ], [ 527203.763785049319267, 6055529.288697694428265, 0.0 ], [ 527181.78387301042676, 6055977.928064620122313, 0.0 ], [ 527156.619877263903618, 6055976.534618018195033, 0.0 ], [ 527134.720834411680698, 6056424.646270599216223, 0.0 ], [ 527163.005490239709616, 6056425.930237718857825, 0.0 ], [ 527118.240729987621307, 6056842.35738349147141, 0.0 ], [ 527141.1380575299263, 6056870.871714270673692, 0.0 ], [ 527122.598670609295368, 6057313.512741620652378, 0.0 ], [ 527096.328966941684484, 6057312.319305496290326, 0.0 ], [ 527100.890308726578951, 6057761.605140626430511, 0.0 ], [ 527075.119326911866665, 6057786.903435184620321, 0.0 ], [ 527062.455353740602732, 6058092.460237277671695, 0.0 ], [ 527082.983987726271152, 6058129.123368460685015, 0.0 ], [ 527009.249784797430038, 6058392.758398288860917, 0.0 ], [ 527028.31610955670476, 6058398.62129317317158, 0.0 ], [ 526895.51996161043644, 6058730.64148729108274, 0.0 ], [ 526872.520129013806581, 6058721.256737345829606, 0.0 ], [ 526727.190578054636717, 6059143.470857821404934, 0.0 ], [ 526694.064533177763224, 6059155.811430478468537, 0.0 ], [ 526558.987914089113474, 6059489.661211813800037, 0.0 ], [ 526580.257618900388479, 6059498.339020573534071, 0.0 ], [ 526431.93141982704401, 6059800.199501983821392, 0.0 ], [ 526443.379464540630579, 6059837.481296203099191, 0.0 ], [ 526185.887280069291592, 6060130.589235177263618, 0.0 ], [ 526202.747775178402662, 6060148.236738041043282, 0.0 ], [ 525861.153432887047529, 6060407.506731021218002, 0.0 ], [ 525846.578853655606508, 6060388.314059155993164, 0.0 ], [ 525516.752248153090477, 6060639.263891687616706, 0.0 ], [ 525530.88126065582037, 6060657.868255152367055, 0.0 ], [ 525191.918426375836134, 6060916.26750410720706, 0.0 ], [ 525176.849842268973589, 6060896.425994619727135, 0.0 ], [ 524841.356160569936037, 6061182.092720147222281, 0.0 ], [ 524805.620829205960035, 6061177.51457723416388, 0.0 ], [ 524493.737157370895147, 6061413.827249205671251, 0.0 ], [ 524508.976587872952223, 6061433.951500924304128, 0.0 ], [ 524180.642426751554012, 6061683.714493039995432, 0.0 ], [ 524164.983271759003401, 6061663.095318040810525, 0.0 ], [ 523847.259949218481779, 6061905.290267311967909, 0.0 ], [ 523862.038513731211424, 6061924.749932068400085, 0.0 ], [ 523536.051998760551214, 6062173.703545209020376, 0.0 ], [ 523519.958476789295673, 6062152.51078618504107, 0.0 ], [ 523178.821995958685875, 6062412.234594649635255, 0.0 ], [ 523194.2836834192276, 6062432.593755451962352, 0.0 ], [ 522848.43484527990222, 6062663.177458122372627, 0.0 ], [ 522845.541897438466549, 6062698.545840876176953, 0.0 ], [ 522525.202763322740793, 6062939.293351684696972, 0.0 ], [ 522512.457218620926142, 6062922.09568624664098, 0.0 ], [ 522208.870280589908361, 6063181.991731618531048, 0.0 ], [ 522173.896993279457092, 6063175.525164720602334, 0.0 ], [ 521863.44284288585186, 6063412.164514301344752, 0.0 ], [ 521857.649352759122849, 6063447.847157922573388, 0.0 ], [ 521539.402921993285418, 6063700.859748031944036, 0.0 ], [ 521539.402921993285418, 6063700.859748031944036, 0.0 ], [ 521539.402921993285418, 6063700.859748031944036, 0.0 ], [ 521524.332813180983067, 6063681.742820665240288, 0.0 ], [ 521524.332813180983067, 6063681.742820665240288, 0.0 ], [ 521524.332813180983067, 6063681.742820665240288, 0.0 ], [ 521201.443634752184153, 6063899.914196968078613, 0.0 ], [ 521215.600870210677385, 6063927.416669495403767, 0.0 ], [ 520800.728778380900621, 6064037.264314221218228, 0.0 ], [ 520793.302386973053217, 6064004.850473896600306, 0.0 ], [ 520443.149516735225916, 6064098.631934085860848, 0.0 ], [ 520429.125229578465223, 6064076.000188334845006, 0.0 ], [ 520274.504169903695583, 6064293.342726266011596, 0.0 ], [ 520251.352022718638182, 6064279.190967024303973, 0.0 ], [ 520198.836873061954975, 6064492.66573955770582, 0.0 ], [ 520188.770603645592928, 6064490.896485352888703, 0.0 ], [ 520175.926425870507956, 6064490.094739511609077, 0.0 ], [ 520162.702841628342867, 6064480.385283293202519, 0.0 ] ] } }
]
}
