{
"type": "FeatureCollection",
"name": "WBK_SCHUTZNETZ",
"crs": { "type": "name", "properties": { "name": "urn:ogc:def:crs:EPSG::25832" } },
"features": [
{ "type": "Feature", "properties": { "layer": "WBK_SCHUTZNETZ" }, "geometry": { "type": "Polygon", "coordinates": [ [ [ 519000.922097096103244, 6065758.657538301311433 ], [ 518996.079727317614015, 6065762.082022666931152 ], [ 518791.271285805793013, 6065733.98881415091455 ], [ 518786.824342144827824, 6065728.211514985188842 ], [ 519000.922097096103244, 6065758.657538301311433 ] ], [ [ 518663.635336341103539, 6065710.693278236314654 ], [ 518657.2773458029842, 6065715.609104585833848 ], [ 518479.678002530592494, 6065691.248119967989624 ], [ 518479.677960357395932, 6065684.533402104862034 ], [ 518663.635336341103539, 6065710.693278236314654 ] ], [ [ 518479.677960357395932, 6065684.533402104862034 ], [ 518479.678002530592494, 6065691.248119967989624 ], [ 518317.208659717987757, 6065668.962490123696625 ], [ 518316.819474104675464, 6065661.373920377343893 ], [ 518479.677960357395932, 6065684.533402104862034 ] ], [ [ 518786.824342144827824, 6065728.211514985188842 ], [ 518791.271285805793013, 6065733.98881415091455 ], [ 518673.396838017972186, 6065717.82018653396517 ], [ 518679.666108717618044, 6065712.972952089272439 ], [ 518786.824342144827824, 6065728.211514985188842 ] ], [ [ 518679.666108717618044, 6065712.972952089272439 ], [ 518673.396838017972186, 6065717.82018653396517 ], [ 518657.2773458029842, 6065715.609104585833848 ], [ 518663.635336341103539, 6065710.693278236314654 ], [ 518679.666108717618044, 6065712.972952089272439 ] ], [ [ 519011.747308286605403, 6065760.196948824450374 ], [ 519011.475519850384444, 6065760.422256044112146 ], [ 519009.967394224309828, 6065761.672505994327366 ], [ 519008.579930682200938, 6065762.822755729779601 ], [ 519007.572000039799605, 6065763.658397603780031 ], [ 518996.079727317614015, 6065762.082022666931152 ], [ 519000.922097096103244, 6065758.657538301311433 ], [ 519011.747308286605403, 6065760.196948824450374 ] ], [ [ 519021.399630369211081, 6065761.569569294340909 ], [ 519025.120810681721196, 6065766.057065107859671 ], [ 519025.120890367485117, 6065766.062896667048335 ], [ 519025.118151023692917, 6065766.065170235000551 ], [ 519007.584453081304673, 6065763.660104619339108 ], [ 519008.544151678099297, 6065762.864537183195353 ], [ 519009.930889460025355, 6065761.715006567537785 ], [ 519011.4382406224031, 6065760.465537707321346 ], [ 519011.760079927917104, 6065760.198765366338193 ], [ 519021.399630369211081, 6065761.569569294340909 ] ] ] } },
{ "type": "Feature", "properties": { "layer": "WBK_SCHUTZNETZ" }, "geometry": { "type": "Polygon", "coordinates": [ [ [ 519589.152159587305505, 6065331.380603795871139 ], [ 519584.708896775788162, 6065335.2967244759202 ], [ 519584.312260009814054, 6065335.641680672764778 ], [ 519584.313007850723807, 6065335.639008845202625 ], [ 519590.061326421797276, 6065316.778939314186573 ], [ 519592.888814449775964, 6065306.821818079799414 ], [ 519594.388738045294303, 6065299.652386284433305 ], [ 519595.168341887590941, 6065293.375880133360624 ], [ 519612.16498139052419, 6065279.282161676324904 ], [ 519612.117924985126592, 6065283.3146015945822 ], [ 519610.576924340683036, 6065295.327837759628892 ], [ 519608.217989493510686, 6065307.646936655975878 ], [ 519605.76241031329846, 6065316.740956029854715 ], [ 519592.771910311188549, 6065328.190291160717607 ], [ 519590.348937705915887, 6065327.452147820033133 ], [ 519589.152159587305505, 6065331.380603795871139 ] ], [ [ 519611.390646903484594, 6065255.762156437151134 ], [ 519612.286034752905834, 6065268.90822100173682 ], [ 519612.16498139052419, 6065279.282161676324904 ], [ 519595.168341887590941, 6065293.375880133360624 ], [ 519595.821757703786716, 6065288.115362712182105 ], [ 519596.69492692372296, 6065278.212703762575984 ], [ 519596.874797043099534, 6065268.36479568015784 ], [ 519596.481429933803156, 6065261.552202811464667 ], [ 519610.498493582184892, 6065251.001784292049706 ], [ 519611.390646903484594, 6065255.762156437151134 ] ] ] } },
{ "type": "Feature", "properties": { "layer": "WBK_SCHUTZNETZ" }, "geometry": { "type": "Polygon", "coordinates": [ [ [ 518663.635336341103539, 6065710.693278236314654 ], [ 518657.2773458029842, 6065715.609104585833848 ], [ 518317.208659717987757, 6065668.962490123696625 ], [ 518316.819474104675464, 6065661.373920377343893 ], [ 518663.635336341103539, 6065710.693278236314654 ] ], [ [ 518679.666108717618044, 6065712.972952089272439 ], [ 518673.396838017972186, 6065717.82018653396517 ], [ 518657.2773458029842, 6065715.609104585833848 ], [ 518663.635336341103539, 6065710.693278236314654 ], [ 518679.666108717618044, 6065712.972952089272439 ] ], [ [ 518786.824342144827824, 6065728.211514985188842 ], [ 518791.271285805793013, 6065733.98881415091455 ], [ 518673.396838017972186, 6065717.82018653396517 ], [ 518679.666108717618044, 6065712.972952089272439 ], [ 518786.824342144827824, 6065728.211514985188842 ] ], [ [ 519025.066424248681869, 6065762.091010015457869 ], [ 519025.120925784809515, 6065766.065551904030144 ], [ 518791.271285805793013, 6065733.98881415091455 ], [ 518786.824342144827824, 6065728.211514985188842 ], [ 519025.066424248681869, 6065762.091010015457869 ] ] ] } },
{ "type": "Feature", "properties": { "layer": "WBK_SCHUTZNETZ" }, "geometry": { "type": "Polygon", "coordinates": [ [ [ 521642.022123889008071, 6063570.020314998924732, 0.0 ], [ 521653.487051005184185, 6063561.559551230631769, 0.0 ], [ 521698.179741045285482, 6063571.629561121575534, 0.0 ], [ 521688.546262671879958, 6063580.895353987812996, 0.0 ], [ 521642.022123889008071, 6063570.020314998924732, 0.0 ] ] ] } },
{ "type": "Feature", "properties": { "layer": "WBK_SCHUTZNETZ" }, "geometry": { "type": "LineString", "coordinates": [ [ 521642.022123889008071, 6063570.020314998924732 ], [ 521653.487051005184185, 6063561.559551230631769 ], [ 521698.179741045285482, 6063571.629561121575534 ], [ 521688.546262671879958, 6063580.895353987812996 ], [ 521642.022123889008071, 6063570.020314998924732 ] ] } },
{ "type": "Feature", "properties": { "layer": "WBK_SCHUTZNETZ" }, "geometry": { "type": "Polygon", "coordinates": [ [ [ 522538.776927203172818, 6062938.437902369536459, 0.0 ], [ 522555.148613212397322, 6062925.798098090104759, 0.0 ], [ 522535.872018214315176, 6062887.292971763759851, 0.0 ], [ 522519.276197344006505, 6062899.615435968153179, 0.0 ], [ 522538.776927203172818, 6062938.437902369536459, 0.0 ] ] ] } },
{ "type": "Feature", "properties": { "layer": "WBK_SCHUTZNETZ" }, "geometry": { "type": "LineString", "coordinates": [ [ 522538.776927203172818, 6062938.437902369536459 ], [ 522555.148613212397322, 6062925.798098090104759 ], [ 522535.872018214315176, 6062887.292971763759851 ], [ 522519.276197344006505, 6062899.615435968153179 ], [ 522538.776927203172818, 6062938.437902369536459 ] ] } },
{ "type": "Feature", "properties": { "layer": "WBK_SCHUTZNETZ" }, "geometry": { "type": "Polygon", "coordinates": [ [ [ 525451.736755196703598, 6060671.098073614761233, 0.0 ], [ 525467.52855644421652, 6060658.578069424256682, 0.0 ], [ 525539.774051767773926, 6060661.839769504964352, 0.0 ], [ 525523.573727593291551, 6060674.079099147580564, 0.0 ], [ 525451.736755196703598, 6060671.098073614761233, 0.0 ] ] ] } },
{ "type": "Feature", "properties": { "layer": "WBK_SCHUTZNETZ" }, "geometry": { "type": "LineString", "coordinates": [ [ 525451.736755196703598, 6060671.098073614761233 ], [ 525467.52855644421652, 6060658.578069424256682 ], [ 525539.774051767773926, 6060661.839769504964352 ], [ 525523.573727593291551, 6060674.079099147580564 ], [ 525451.736755196703598, 6060671.098073614761233 ] ] } },
{ "type": "Feature", "properties": { "layer": "WBK_SCHUTZNETZ" }, "geometry": { "type": "Polygon", "coordinates": [ [ [ 526841.105109582538716, 6058757.9984878487885, 0.0 ], [ 526850.346887376857921, 6058734.580108551308513, 0.0 ], [ 526886.57862614444457, 6058776.082090659067035, 0.0 ], [ 526876.4681005992461, 6058799.616447213105857, 0.0 ], [ 526841.105109582538716, 6058757.9984878487885, 0.0 ] ] ] } },
{ "type": "Feature", "properties": { "layer": "WBK_SCHUTZNETZ" }, "geometry": { "type": "LineString", "coordinates": [ [ 526841.105109582538716, 6058757.9984878487885 ], [ 526850.346887376857921, 6058734.580108551308513 ], [ 526886.57862614444457, 6058776.082090659067035 ], [ 526876.4681005992461, 6058799.616447213105857 ], [ 526841.105109582538716, 6058757.9984878487885 ] ] } },
{ "type": "Feature", "properties": { "layer": "WBK_SCHUTZNETZ" }, "geometry": { "type": "Polygon", "coordinates": [ [ [ 527078.131992598180659, 6057532.772743377834558, 0.0 ], [ 527077.437967320322059, 6057508.817088852636516, 0.0 ], [ 527119.063551001017913, 6057495.543606882914901, 0.0 ], [ 527116.165983439190313, 6057519.748175707645714, 0.0 ], [ 527078.131992598180659, 6057532.772743377834558, 0.0 ] ] ] } },
{ "type": "Feature", "properties": { "layer": "WBK_SCHUTZNETZ" }, "geometry": { "type": "LineString", "coordinates": [ [ 527078.131992598180659, 6057532.772743377834558 ], [ 527077.437967320322059, 6057508.817088852636516 ], [ 527119.063551001017913, 6057495.543606882914901 ], [ 527116.165983439190313, 6057519.748175707645714 ], [ 527078.131992598180659, 6057532.772743377834558 ] ] } },
{ "type": "Feature", "properties": { "layer": "WBK_SCHUTZNETZ" }, "geometry": { "type": "MultiLineString", "coordinates": [ [ [ 527137.967205979628488, 6056036.939933068118989, 0.0 ], [ 527138.170114116393961, 6056020.656559121794999, 0.0 ] ], [ [ 527138.170114116393961, 6056020.656559121794999, 0.0 ], [ 527187.223349111853167, 6056034.101160133257508, 0.0 ] ], [ [ 527187.223349111853167, 6056034.101160133257508, 0.0 ], [ 527186.216450477368198, 6056049.178551464341581, 0.0 ] ], [ [ 527186.216450477368198, 6056049.178551464341581, 0.0 ], [ 527137.797744238749146, 6056036.896949201822281, 0.0 ] ] ] } },
{ "type": "Feature", "properties": { "layer": "WBK_SCHUTZNETZ" }, "geometry": { "type": "LineString", "coordinates": [ [ 527137.967205979628488, 6056036.939933068118989 ], [ 527138.170114116393961, 6056020.656559121794999 ], [ 527187.223349111853167, 6056034.101160133257508 ], [ 527186.216450477368198, 6056049.178551464341581 ], [ 527137.797744238749146, 6056036.896949201822281 ] ] } },
{ "type": "Feature", "properties": { "layer": "WBK_SCHUTZNETZ" }, "geometry": { "type": "Polygon", "coordinates": [ [ [ 527200.823482096544467, 6054730.423581372946501, 0.0 ], [ 527201.163916121353395, 6054720.169141475111246, 0.0 ], [ 527247.26544053805992, 6054716.498919320292771, 0.0 ], [ 527246.718032785342075, 6054726.340499184094369, 0.0 ], [ 527200.823482096544467, 6054730.423581372946501, 0.0 ] ] ] } },
{ "type": "Feature", "properties": { "layer": "WBK_SCHUTZNETZ" }, "geometry": { "type": "LineString", "coordinates": [ [ 527200.823482096544467, 6054730.423581372946501 ], [ 527201.163916121353395, 6054720.169141475111246 ], [ 527247.26544053805992, 6054716.498919320292771 ], [ 527246.718032785342075, 6054726.340499184094369 ], [ 527200.823482096544467, 6054730.423581372946501 ] ] } },
{ "type": "Feature", "properties": { "layer": "WBK_SCHUTZNETZ" }, "geometry": { "type": "LineString", "coordinates": [ [ 527289.162541885045357, 6052844.166544003412127 ], [ 527328.697452811524272, 6052812.812975992448628 ], [ 527328.33995733584743, 6052800.27052254602313 ], [ 527318.339257788960822, 6052808.479120548814535 ], [ 527290.874429081333801, 6052829.351536327041686 ], [ 527289.162541885045357, 6052844.166544003412127 ] ] } },
{ "type": "Feature", "properties": { "layer": "WBK_SCHUTZNETZ" }, "geometry": { "type": "Polygon", "coordinates": [ [ [ 526376.519778686459176, 6050028.824552739970386, 0.0 ], [ 526385.291863588267006, 6050061.134967485442758, 0.0 ], [ 526400.953891100129113, 6050026.204556660726666, 0.0 ], [ 526411.851355066639371, 6049995.253246277570724, 0.0 ], [ 526399.021153825102374, 6049966.189485472626984, 0.0 ], [ 526390.353260936914012, 6049993.866735884919763, 0.0 ], [ 526384.822405689978041, 6050009.134892201051116, 0.0 ], [ 526376.519778686459176, 6050028.824552739970386, 0.0 ] ] ] } },
{ "type": "Feature", "properties": { "layer": "WBK_SCHUTZNETZ" }, "geometry": { "type": "LineString", "coordinates": [ [ 526376.519778686459176, 6050028.824552739970386 ], [ 526385.291863588267006, 6050061.134967485442758 ], [ 526400.953891100129113, 6050026.204556660726666 ], [ 526411.851355066639371, 6049995.253246277570724 ], [ 526399.021153825102374, 6049966.189485472626984 ], [ 526390.353260936914012, 6049993.866735884919763 ], [ 526384.822405689978041, 6050009.134892201051116 ], [ 526376.519778686459176, 6050028.824552739970386 ] ] } },
{ "type": "Feature", "properties": { "layer": "WBK_SCHUTZNETZ" }, "geometry": { "type": "MultiLineString", "coordinates": [ [ [ 526209.318029711488634, 6048901.18075673468411, 0.0 ], [ 526213.562794380472042, 6048885.025591957382858, 0.0 ] ], [ [ 526213.562794380472042, 6048885.025591957382858, 0.0 ], [ 526248.350697168265469, 6048905.539938925765455, 0.0 ] ], [ [ 526248.350697168265469, 6048905.539938925765455, 0.0 ], [ 526246.644432031549513, 6048922.760324766859412, 0.0 ] ], [ [ 526246.644432031549513, 6048922.760324766859412, 0.0 ], [ 526209.377505557145923, 6048900.954410879872739, 0.0 ] ] ] } },
{ "type": "Feature", "properties": { "layer": "WBK_SCHUTZNETZ" }, "geometry": { "type": "LineString", "coordinates": [ [ 526209.318029711488634, 6048901.18075673468411 ], [ 526213.562794380472042, 6048885.025591957382858 ], [ 526248.350697168265469, 6048905.539938925765455 ], [ 526246.644432031549513, 6048922.760324766859412 ], [ 526209.377505557145923, 6048900.954410879872739 ] ] } },
{ "type": "Feature", "properties": { "layer": "WBK_SCHUTZNETZ" }, "geometry": { "type": "Polygon", "coordinates": [ [ [ 526371.484846347942948, 6047950.80434865038842, 0.0 ], [ 526364.110818979213946, 6047987.032274134457111, 0.0 ], [ 526388.874522043392062, 6048102.205495948903263, 0.0 ], [ 526396.897257263888605, 6048050.96172087546438, 0.0 ], [ 526371.484846347942948, 6047950.80434865038842, 0.0 ] ] ] } },
{ "type": "Feature", "properties": { "layer": "WBK_SCHUTZNETZ" }, "geometry": { "type": "LineString", "coordinates": [ [ 526371.484846347942948, 6047950.80434865038842 ], [ 526364.110818979213946, 6047987.032274134457111 ], [ 526388.874522043392062, 6048102.205495948903263 ], [ 526396.897257263888605, 6048050.96172087546438 ], [ 526371.484846347942948, 6047950.80434865038842 ] ] } },
{ "type": "Feature", "properties": { "layer": "WBK_SCHUTZNETZ" }, "geometry": { "type": "Polygon", "coordinates": [ [ [ 527240.588022647774778, 6045716.997175510041416, 0.0 ], [ 527247.270993470796384, 6045701.088362472131848, 0.0 ], [ 527304.318044392392039, 6045699.319019343703985, 0.0 ], [ 527297.319002219242975, 6045714.357103259302676, 0.0 ], [ 527240.588022647774778, 6045716.997175510041416, 0.0 ] ] ] } },
{ "type": "Feature", "properties": { "layer": "WBK_SCHUTZNETZ" }, "geometry": { "type": "LineString", "coordinates": [ [ 527240.588022647774778, 6045716.997175510041416 ], [ 527247.270993470796384, 6045701.088362472131848 ], [ 527304.318044392392039, 6045699.319019343703985 ], [ 527297.319002219242975, 6045714.357103259302676 ], [ 527240.588018192327581, 6045716.997175510041416 ] ] } },
{ "type": "Feature", "properties": { "layer": "WBK_SCHUTZNETZ" }, "geometry": { "type": "LineString", "coordinates": [ [ 527804.446238974574953, 6042731.30938465334475 ], [ 527802.939027309417725, 6042744.905460202135146 ], [ 527745.952497688005678, 6042752.957641367800534 ], [ 527747.171102577238344, 6042739.287672446109354 ], [ 527804.446238974574953, 6042731.30938465334475 ] ] } },
{ "type": "Feature", "properties": { "layer": "WBK_SCHUTZNETZ" }, "geometry": { "type": "Polygon", "coordinates": [ [ [ 528067.572171021951362, 6041060.708654058165848, 0.0 ], [ 528070.495492652640678, 6041039.758689195849001, 0.0 ], [ 528129.870464115752839, 6041050.146638707257807, 0.0 ], [ 528126.573067643446848, 6041070.94027566537261, 0.0 ], [ 528067.572171021951362, 6041060.708654058165848, 0.0 ] ] ] } },
{ "type": "Feature", "properties": { "layer": "WBK_SCHUTZNETZ" }, "geometry": { "type": "LineString", "coordinates": [ [ 528067.572171021951362, 6041060.708654058165848 ], [ 528070.495492652640678, 6041039.758689195849001 ], [ 528129.870464115752839, 6041050.146638707257807 ], [ 528126.573067643446848, 6041070.94027566537261 ], [ 528067.572171021951362, 6041060.708654058165848 ] ] } },
{ "type": "Feature", "properties": { "layer": "WBK_SCHUTZNETZ" }, "geometry": { "type": "Polygon", "coordinates": [ [ [ 527530.231172579806298, 6035766.00971679482609, 0.0 ], [ 527530.297863152460195, 6035753.315522870048881, 0.0 ], [ 527575.97356162534561, 6035757.160534676164389, 0.0 ], [ 527576.929507727967575, 6035769.781917855143547, 0.0 ], [ 527530.231172579806298, 6035766.00971679482609, 0.0 ] ] ] } },
{ "type": "Feature", "properties": { "layer": "WBK_SCHUTZNETZ" }, "geometry": { "type": "LineString", "coordinates": [ [ 527530.231172579806298, 6035766.00971679482609 ], [ 527530.297863152460195, 6035753.315522870048881 ], [ 527575.97356162534561, 6035757.160534676164389 ], [ 527576.929507727967575, 6035769.781917855143547 ], [ 527530.231172579806298, 6035766.00971679482609 ] ] } },
{ "type": "Feature", "properties": { "layer": "WBK_SCHUTZNETZ" }, "geometry": { "type": "Polygon", "coordinates": [ [ [ 527442.815004040021449, 6033134.109882690943778, 0.0 ], [ 527442.556677631684579, 6033151.939177764579654, 0.0 ], [ 527477.602719592978247, 6033142.421958212740719, 0.0 ], [ 527476.027511996566318, 6033125.058673872612417, 0.0 ], [ 527442.815004040021449, 6033134.109882690943778, 0.0 ] ] ] } },
{ "type": "Feature", "properties": { "layer": "WBK_SCHUTZNETZ" }, "geometry": { "type": "LineString", "coordinates": [ [ 527442.815004040021449, 6033134.109882690943778 ], [ 527442.556677631684579, 6033151.939177764579654 ], [ 527477.602719592978247, 6033142.421958212740719 ], [ 527476.027511996566318, 6033125.058673872612417 ], [ 527442.815004040021449, 6033134.109882690943778 ] ] } },
{ "type": "Feature", "properties": { "layer": "WBK_SCHUTZNETZ" }, "geometry": { "type": "LineString", "coordinates": [ [ 519607.721635206020437, 6065315.014170494861901 ], [ 519584.310534109710716, 6065335.647826449014246 ], [ 519591.068742937699426, 6065311.584801636636257 ], [ 519594.411602595413569, 6065293.789415556937456 ], [ 519595.995498082309496, 6065278.175527128390968 ], [ 519596.481429933803156, 6065261.552202811464667 ], [ 519612.265694360772613, 6065249.671642237342894 ], [ 519614.188259631686378, 6065262.795029075816274 ], [ 519612.871867560199462, 6065278.695556156337261 ], [ 519611.837504213675857, 6065294.362735017202795 ], [ 519607.721635206020437, 6065315.014170494861901 ], [ 519584.310534109710716, 6065335.647826449014246 ] ] } },
{ "type": "Feature", "properties": { "layer": "WBK_SCHUTZNETZ" }, "geometry": { "type": "MultiLineString", "coordinates": [ [ [ 516959.769243259099312, 6067454.860351310111582, 0.0 ], [ 516979.385075965314172, 6067436.508442232385278, 0.0 ] ], [ [ 516979.385076819278765, 6067436.508442002348602, 0.0 ], [ 517023.408733140677214, 6067452.738406001590192, 0.0 ] ], [ [ 517023.40873510640813, 6067452.738405827432871, 0.0 ], [ 517000.494853882875759, 6067469.753715913742781, 0.0 ] ], [ [ 517000.494848262285814, 6067469.75371615588665, 0.0 ], [ 516959.769233696628362, 6067454.860348594374955, 0.0 ] ] ] } },
{ "type": "Feature", "properties": { "layer": "WBK_SCHUTZNETZ" }, "geometry": { "type": "LineString", "coordinates": [ [ 516959.769243259099312, 6067454.860351310111582 ], [ 516979.385076819278765, 6067436.508442002348602 ], [ 517023.40873510640813, 6067452.738405827432871 ], [ 517000.494848262285814, 6067469.75371615588665 ], [ 516959.769238804583438, 6067454.860349097289145 ] ] } },
{ "type": "Feature", "properties": { "layer": "WBK_SCHUTZNETZ" }, "geometry": { "type": "LineString", "coordinates": [ [ 516465.985448277904652, 6069496.972898423671722 ], [ 516471.990891929424834, 6069476.86450410541147 ], [ 516511.630744338210206, 6069467.00074536819011 ], [ 516508.309196564077865, 6069487.483914737589657 ], [ 516465.985448277904652, 6069496.972898423671722 ] ] } },
{ "type": "Feature", "properties": { "layer": "WBK_SCHUTZNETZ" }, "geometry": { "type": "Polygon", "coordinates": [ [ [ 527669.959644049406052, 6038714.640669425018132, 0.0 ], [ 527669.798740465193987, 6038711.355949263088405, 0.0 ], [ 527723.419359460822307, 6038741.22309198975563, 0.0 ], [ 527723.72279623162467, 6038745.059232431463897, 0.0 ], [ 527669.959644049406052, 6038714.640669425018132, 0.0 ] ] ] } },
{ "type": "Feature", "properties": { "layer": "WBK_SCHUTZNETZ" }, "geometry": { "type": "LineString", "coordinates": [ [ 527669.959644049406052, 6038714.640669425018132 ], [ 527669.798738359007984, 6038711.35594931896776 ], [ 527723.419363324297592, 6038741.223091683350503 ], [ 527723.722792262327857, 6038745.059232326224446 ], [ 527669.959644049406052, 6038714.640669425018132 ] ] } },
{ "type": "Feature", "properties": { "layer": "WBK_SCHUTZNETZ" }, "geometry": { "type": "Polygon", "coordinates": [ [ [ 527515.062048864667304, 6035210.381968148984015, 0.0 ], [ 527551.412762386957183, 6035209.063749926164746, 0.0 ], [ 527551.806142409448512, 6035212.509269081056118, 0.0 ], [ 527514.945722419652157, 6035213.286563444882631, 0.0 ], [ 527515.062048864667304, 6035210.381968148984015, 0.0 ] ] ] } },
{ "type": "Feature", "properties": { "layer": "WBK_SCHUTZNETZ" }, "geometry": { "type": "LineString", "coordinates": [ [ 527515.062048864667304, 6035210.381968148984015 ], [ 527551.412765332730487, 6035209.06374994199723 ], [ 527551.80614224052988, 6035212.509269604459405 ], [ 527514.945719182607718, 6035213.286563282832503 ], [ 527515.062048864667304, 6035210.381968148984015 ] ] } },
{ "type": "Feature", "properties": { "layer": "WBK_SCHUTZNETZ" }, "geometry": { "type": "MultiLineString", "coordinates": [ [ [ 516482.611352548527066, 6069444.430753597989678, 0.0 ], [ 516517.09241108171409, 6069448.127889649942517, 0.0 ] ], [ [ 516517.092412557220086, 6069448.127889359369874, 0.0 ], [ 516516.617710777092725, 6069452.55515945609659, 0.0 ] ], [ [ 516516.617706568387803, 6069452.555159837007523, 0.0 ], [ 516482.136648034385871, 6069448.858023785986006, 0.0 ] ], [ [ 516482.136650956526864, 6069448.858024075627327, 0.0 ], [ 516482.611352737585548, 6069444.430753977969289, 0.0 ] ] ] } },
{ "type": "Feature", "properties": { "layer": "WBK_SCHUTZNETZ" }, "geometry": { "type": "LineString", "coordinates": [ [ 516482.611352548527066, 6069444.430753597989678 ], [ 516517.092412557220086, 6069448.127889359369874 ], [ 516516.617706568387803, 6069452.555159837007523 ], [ 516482.136650956526864, 6069448.858024075627327 ], [ 516482.611352548527066, 6069444.430753597989678 ] ] } }
]
}
