{
"type": "FeatureCollection",
"name": "WBK_ARBEITSFLAECHE",
"crs": { "type": "name", "properties": { "name": "urn:ogc:def:crs:EPSG::25832" } },
"features": [
{ "type": "Feature", "properties": { "layer": "WBK_ARBEITSFLAECHE" }, "geometry": { "type": "Polygon", "coordinates": [ [ [ 512382.556084381008986, 6079128.447657343000174, 0.0 ], [ 512417.706878325610887, 6079136.32134912814945, 0.0 ], [ 512412.804402242589276, 6079155.146362031809986, 0.0 ], [ 512377.702863815880846, 6079146.005106266587973, 0.0 ], [ 512382.556084381008986, 6079128.447657343000174, 0.0 ] ] ] } },
{ "type": "Feature", "properties": { "layer": "WBK_ARBEITSFLAECHE" }, "geometry": { "type": "LineString", "coordinates": [ [ 512382.556084381008986, 6079128.447657343000174 ], [ 512417.706878325610887, 6079136.32134912814945 ], [ 512412.804402242589276, 6079155.146362031809986 ], [ 512377.702863815880846, 6079146.005106266587973 ], [ 512382.556084381008986, 6079128.447657343000174 ] ] } },
{ "type": "Feature", "properties": { "layer": "WBK_ARBEITSFLAECHE" }, "geometry": { "type": "Polygon", "coordinates": [ [ [ 512498.088803351216484, 6078438.979693912900984, 0.0 ], [ 512528.235656799282879, 6078469.354735389351845, 0.0 ], [ 512519.427550536987837, 6078478.825824715197086, 0.0 ], [ 512487.855791832087561, 6078449.137043124996126, 0.0 ], [ 512498.088803351216484, 6078438.979693912900984, 0.0 ] ] ] } },
{ "type": "Feature", "properties": { "layer": "WBK_ARBEITSFLAECHE" }, "geometry": { "type": "LineString", "coordinates": [ [ 512498.088803351216484, 6078438.979693912900984 ], [ 512528.235656799282879, 6078469.354735389351845 ], [ 512519.427550536987837, 6078478.825824715197086 ], [ 512487.855791832087561, 6078449.137043124996126 ], [ 512498.088803351216484, 6078438.979693912900984 ] ] } },
{ "type": "Feature", "properties": { "layer": "WBK_ARBEITSFLAECHE" }, "geometry": { "type": "Polygon", "coordinates": [ [ [ 515709.591437806724571, 6072758.631015009246767, -41.665032712367818 ], [ 515740.598068425315432, 6072765.576424065046012, -41.665032712367818 ], [ 515734.647185153793544, 6072784.237824671901762, -41.665032712367818 ], [ 515705.39618269080529, 6072776.620183256454766, -41.665032712367818 ], [ 515709.591437806724571, 6072758.631015009246767, -41.665032712367818 ] ] ] } },
{ "type": "Feature", "properties": { "layer": "WBK_ARBEITSFLAECHE" }, "geometry": { "type": "LineString", "coordinates": [ [ 515709.591437806724571, 6072758.631015009246767, -41.665032712367818 ], [ 515740.598068425315432, 6072765.576424065046012, -41.665032712367818 ], [ 515734.647185153793544, 6072784.237824671901762, -41.665032712367818 ], [ 515705.39618269080529, 6072776.620183256454766, -41.665032712367818 ], [ 515709.591437806724571, 6072758.631015009246767, -41.665032712367818 ] ] } },
{ "type": "Feature", "properties": { "layer": "WBK_ARBEITSFLAECHE" }, "geometry": { "type": "Polygon", "coordinates": [ [ [ 515672.684249455691315, 6072862.874873467721045, -41.842070420050788 ], [ 515700.037254333787132, 6072869.001881374046206, -41.842070420050788 ], [ 515696.051516693201847, 6072887.987907484173775, -41.842070420050788 ], [ 515668.847532220825087, 6072880.413127509877086, -41.842070420050788 ], [ 515672.684249455691315, 6072862.874873467721045, -41.842070420050788 ] ] ] } },
{ "type": "Feature", "properties": { "layer": "WBK_ARBEITSFLAECHE" }, "geometry": { "type": "LineString", "coordinates": [ [ 515672.684249455691315, 6072862.874873467721045, -41.842070420050788 ], [ 515700.037254333787132, 6072869.001881374046206, -41.842070420050788 ], [ 515696.051516693201847, 6072887.987907484173775, -41.842070420050788 ], [ 515668.847532220825087, 6072880.413127509877086, -41.842070420050788 ], [ 515672.684249455691315, 6072862.874873467721045, -41.842070420050788 ] ] } },
{ "type": "Feature", "properties": { "layer": "WBK_ARBEITSFLAECHE" }, "geometry": { "type": "Polygon", "coordinates": [ [ [ 516921.736080555710942, 6067537.038975981064141, 0.0 ], [ 516931.62718214612687, 6067538.901078606955707, 0.0 ], [ 516927.58098171959864, 6067554.565160913392901, 0.0 ], [ 516916.890925712883472, 6067553.613128384575248, 0.0 ], [ 516921.736080555710942, 6067537.038975981064141, 0.0 ] ] ] } },
{ "type": "Feature", "properties": { "layer": "WBK_ARBEITSFLAECHE" }, "geometry": { "type": "LineString", "coordinates": [ [ 516921.736080555710942, 6067537.038975981064141 ], [ 516931.62718214612687, 6067538.901078606955707 ], [ 516927.58098171959864, 6067554.565160913392901 ], [ 516916.890925712883472, 6067553.613128384575248 ], [ 516921.736080555710942, 6067537.038975981064141 ] ] } },
{ "type": "Feature", "properties": { "layer": "WBK_ARBEITSFLAECHE" }, "geometry": { "type": "Polygon", "coordinates": [ [ [ 520121.027302338916343, 6064531.742007716558874, 0.0 ], [ 520146.38368438242469, 6064538.346450425684452, 0.0 ], [ 520140.778608626686037, 6064544.809084534645081, 0.0 ], [ 520117.559198410774115, 6064538.762209990993142, 0.0 ], [ 520121.027302338916343, 6064531.742007716558874, 0.0 ] ] ] } },
{ "type": "Feature", "properties": { "layer": "WBK_ARBEITSFLAECHE" }, "geometry": { "type": "LineString", "coordinates": [ [ 520121.027302338916343, 6064531.742007716558874 ], [ 520146.38368438242469, 6064538.346450425684452 ], [ 520140.778608626686037, 6064544.809084534645081 ], [ 520117.559198410774115, 6064538.762209990993142 ], [ 520121.027302338916343, 6064531.742007716558874 ] ] } },
{ "type": "Feature", "properties": { "layer": "WBK_ARBEITSFLAECHE" }, "geometry": { "type": "Polygon", "coordinates": [ [ [ 520207.563586054486223, 6064377.361448151059449, 0.0 ], [ 520248.269758325186558, 6064386.479532777331769, 0.0 ], [ 520239.767363586113788, 6064404.569400187581778, 0.0 ], [ 520202.71036988432752, 6064394.918897074647248, 0.0 ], [ 520207.563586054486223, 6064377.361448151059449, 0.0 ] ] ] } },
{ "type": "Feature", "properties": { "layer": "WBK_ARBEITSFLAECHE" }, "geometry": { "type": "LineString", "coordinates": [ [ 520207.563586054486223, 6064377.361448151059449 ], [ 520248.269758325186558, 6064386.479532777331769 ], [ 520239.767363586113788, 6064404.569400187581778 ], [ 520202.71036988432752, 6064394.918897074647248 ], [ 520207.563586054486223, 6064377.361448151059449 ] ] } },
{ "type": "Feature", "properties": { "layer": "WBK_ARBEITSFLAECHE" }, "geometry": { "type": "Polygon", "coordinates": [ [ [ 521421.009249076189008, 6063751.07185766659677, 0.0 ], [ 521451.326380749989767, 6063779.725016000680625, 0.0 ], [ 521434.768580229079816, 6063790.92203551530838, 0.0 ], [ 521407.85959715442732, 6063763.677588321268559, 0.0 ], [ 521421.009249076189008, 6063751.07185766659677, 0.0 ] ] ] } },
{ "type": "Feature", "properties": { "layer": "WBK_ARBEITSFLAECHE" }, "geometry": { "type": "LineString", "coordinates": [ [ 521421.009249076189008, 6063751.07185766659677 ], [ 521451.326380749989767, 6063779.725016000680625 ], [ 521434.768580229079816, 6063790.92203551530838 ], [ 521407.85959715442732, 6063763.677588321268559 ], [ 521421.009249076189008, 6063751.07185766659677 ] ] } },
{ "type": "Feature", "properties": { "layer": "WBK_ARBEITSFLAECHE" }, "geometry": { "type": "Polygon", "coordinates": [ [ [ 521633.136609037697781, 6063575.322177449241281, 0.0 ], [ 521663.453740773024037, 6063603.975335783325136, 0.0 ], [ 521646.895935796725098, 6063615.17235419806093, 0.0 ], [ 521619.986957116110716, 6063587.927908108569682, 0.0 ], [ 521633.136609037697781, 6063575.322177449241281, 0.0 ] ] ] } },
{ "type": "Feature", "properties": { "layer": "WBK_ARBEITSFLAECHE" }, "geometry": { "type": "LineString", "coordinates": [ [ 521633.136609037697781, 6063575.322177449241281 ], [ 521663.453740773024037, 6063603.975335783325136 ], [ 521646.895935796725098, 6063615.17235419806093 ], [ 521619.986957116110716, 6063587.927908108569682 ], [ 521633.136609037697781, 6063575.322177449241281 ] ] } },
{ "type": "Feature", "properties": { "layer": "WBK_ARBEITSFLAECHE" }, "geometry": { "type": "Polygon", "coordinates": [ [ [ 521710.887057042680681, 6063513.873243726789951, 0.0 ], [ 521741.204188778006937, 6063542.526403168216348, 0.0 ], [ 521724.646388257096987, 6063553.723420476540923, 0.0 ], [ 521697.737405121093616, 6063526.478974387049675, 0.0 ], [ 521710.887057042680681, 6063513.873243726789951, 0.0 ] ] ] } },
{ "type": "Feature", "properties": { "layer": "WBK_ARBEITSFLAECHE" }, "geometry": { "type": "LineString", "coordinates": [ [ 521710.887057042680681, 6063513.873243726789951 ], [ 521741.204188778006937, 6063542.526403168216348 ], [ 521724.646388257096987, 6063553.723420476540923 ], [ 521697.737405121093616, 6063526.478974387049675 ], [ 521710.887057042680681, 6063513.873243726789951 ] ] } },
{ "type": "Feature", "properties": { "layer": "WBK_ARBEITSFLAECHE" }, "geometry": { "type": "Polygon", "coordinates": [ [ [ 527289.473413528408855, 6052754.426296439953148, 0.0 ], [ 527313.388421170646325, 6052748.819076118990779, 0.0 ], [ 527317.054426734917797, 6052764.454729086719453, 0.0 ], [ 527292.971730719553307, 6052769.160106789320707, 0.0 ], [ 527289.473413528408855, 6052754.426296439953148, 0.0 ] ] ] } },
{ "type": "Feature", "properties": { "layer": "WBK_ARBEITSFLAECHE" }, "geometry": { "type": "LineString", "coordinates": [ [ 527289.473413528408855, 6052754.426296439953148 ], [ 527313.388421170646325, 6052748.819076118990779 ], [ 527317.054426734917797, 6052764.454729086719453 ], [ 527292.971730719553307, 6052769.160106789320707 ], [ 527289.473413528408855, 6052754.426296439953148 ] ] } },
{ "type": "Feature", "properties": { "layer": "WBK_ARBEITSFLAECHE" }, "geometry": { "type": "Polygon", "coordinates": [ [ [ 526156.409538232372142, 6049361.414132693782449, 36.861217912037063 ], [ 526160.366837656009011, 6049342.327887140214443, 36.861217912037063 ], [ 526180.927935234736651, 6049346.59098288230598, 36.861217912037063 ], [ 526176.271077569923364, 6049365.473933675326407, 36.861217912037063 ], [ 526156.409538232372142, 6049361.414132693782449, 36.861217912037063 ] ] ] } },
{ "type": "Feature", "properties": { "layer": "WBK_ARBEITSFLAECHE" }, "geometry": { "type": "LineString", "coordinates": [ [ 526156.409538232372142, 6049361.414132693782449, 36.861217912037063 ], [ 526160.366837656009011, 6049342.327887140214443, 36.861217912037063 ], [ 526180.927935234736651, 6049346.59098288230598, 36.861217912037063 ], [ 526176.271077569923364, 6049365.473933675326407, 36.861217912037063 ], [ 526156.409538232372142, 6049361.414132693782449, 36.861217912037063 ] ] } },
{ "type": "Feature", "properties": { "layer": "WBK_ARBEITSFLAECHE" }, "geometry": { "type": "Polygon", "coordinates": [ [ [ 526137.419136862969026, 6049234.94263803306967, 0.0 ], [ 526172.018100177054293, 6049244.592191848903894, 0.0 ], [ 526168.634639972355217, 6049263.481507210992277, 0.0 ], [ 526134.155990940751508, 6049252.600538877770305, 0.0 ], [ 526137.419136862969026, 6049234.94263803306967, 0.0 ] ] ] } },
{ "type": "Feature", "properties": { "layer": "WBK_ARBEITSFLAECHE" }, "geometry": { "type": "LineString", "coordinates": [ [ 526137.419136862969026, 6049234.94263803306967 ], [ 526172.018100177054293, 6049244.592191848903894 ], [ 526168.634639972355217, 6049263.481507210992277 ], [ 526134.155990940751508, 6049252.600538877770305 ], [ 526137.419136862969026, 6049234.94263803306967 ] ] } },
{ "type": "Feature", "properties": { "layer": "WBK_ARBEITSFLAECHE" }, "geometry": { "type": "Polygon", "coordinates": [ [ [ 526454.12157087540254, 6047442.420769879594445, 0.0 ], [ 526491.186216533184052, 6047445.809275907464325, 0.0 ], [ 526489.365394990774803, 6047465.726064340211451, 0.0 ], [ 526453.438603624003008, 6047462.681479280814528, 0.0 ], [ 526454.12157087540254, 6047442.420769879594445, 0.0 ] ] ] } },
{ "type": "Feature", "properties": { "layer": "WBK_ARBEITSFLAECHE" }, "geometry": { "type": "LineString", "coordinates": [ [ 526454.12157087540254, 6047442.420769879594445 ], [ 526491.186216533184052, 6047445.809275907464325 ], [ 526489.365394990774803, 6047465.726064340211451 ], [ 526453.438603624003008, 6047462.681479280814528 ], [ 526454.12157087540254, 6047442.420769879594445 ] ] } },
{ "type": "Feature", "properties": { "layer": "WBK_ARBEITSFLAECHE" }, "geometry": { "type": "Polygon", "coordinates": [ [ [ 526429.286605375702493, 6047544.198294675908983, 0.0 ], [ 526465.337886551395059, 6047553.448972227051854, 0.0 ], [ 526460.367006225511432, 6047572.821227216161788, 0.0 ], [ 526425.384243399486877, 6047564.091367228887975, 0.0 ], [ 526429.286605375702493, 6047544.198294675908983, 0.0 ] ] ] } },
{ "type": "Feature", "properties": { "layer": "WBK_ARBEITSFLAECHE" }, "geometry": { "type": "LineString", "coordinates": [ [ 526429.286605375702493, 6047544.198294675908983 ], [ 526465.337886551395059, 6047553.448972227051854 ], [ 526460.367006225511432, 6047572.821227216161788 ], [ 526425.384243399486877, 6047564.091367228887975 ], [ 526429.286605375702493, 6047544.198294675908983 ] ] } },
{ "type": "Feature", "properties": { "layer": "WBK_ARBEITSFLAECHE" }, "geometry": { "type": "Polygon", "coordinates": [ [ [ 527866.019015886355191, 6041602.579343472607434, 0.0 ], [ 527891.217328188358806, 6041604.378672046586871, 0.0 ], [ 527889.671348619856872, 6041624.085416415706277, 0.0 ], [ 527862.376901809242554, 6041625.205158691853285, 0.0 ], [ 527866.019015886355191, 6041602.579343472607434, 0.0 ] ] ] } },
{ "type": "Feature", "properties": { "layer": "WBK_ARBEITSFLAECHE" }, "geometry": { "type": "LineString", "coordinates": [ [ 527866.019015886355191, 6041602.579343472607434 ], [ 527891.217328188358806, 6041604.378672046586871 ], [ 527889.671348619856872, 6041624.085416415706277 ], [ 527862.376901809242554, 6041625.205158691853285 ], [ 527866.019015886355191, 6041602.579343472607434 ] ] } },
{ "type": "Feature", "properties": { "layer": "WBK_ARBEITSFLAECHE" }, "geometry": { "type": "Polygon", "coordinates": [ [ [ 527789.457186311832629, 6040334.174857848323882, 0.0 ], [ 527826.647912495885976, 6040335.630812481977046, 0.0 ], [ 527825.86555364576634, 6040355.615351555868983, 0.0 ], [ 527789.8290243325755, 6040354.44366351980716, 0.0 ], [ 527789.457186311832629, 6040334.174857848323882, 0.0 ] ] ] } },
{ "type": "Feature", "properties": { "layer": "WBK_ARBEITSFLAECHE" }, "geometry": { "type": "LineString", "coordinates": [ [ 527789.457186311832629, 6040334.174857848323882 ], [ 527826.647912495885976, 6040335.630812481977046 ], [ 527825.86555364576634, 6040355.615351555868983 ], [ 527789.8290243325755, 6040354.44366351980716 ], [ 527789.457186311832629, 6040334.174857848323882 ] ] } },
{ "type": "Feature", "properties": { "layer": "WBK_ARBEITSFLAECHE" }, "geometry": { "type": "Polygon", "coordinates": [ [ [ 527625.066605635918677, 6037590.981944376602769, 0.0 ], [ 527638.596001375815831, 6037590.516679991967976, 0.0 ], [ 527639.870919203269295, 6037610.63765090983361, 0.0 ], [ 527626.925936581217684, 6037611.168713870458305, 0.0 ], [ 527625.066605635918677, 6037590.981944376602769, 0.0 ] ] ] } },
{ "type": "Feature", "properties": { "layer": "WBK_ARBEITSFLAECHE" }, "geometry": { "type": "LineString", "coordinates": [ [ 527625.066605635918677, 6037590.981944376602769 ], [ 527638.596001375815831, 6037590.516679991967976 ], [ 527639.870919203269295, 6037610.63765090983361 ], [ 527626.925936581217684, 6037611.168713870458305 ], [ 527625.066605635918677, 6037590.981944376602769 ] ] } },
{ "type": "Feature", "properties": { "layer": "WBK_ARBEITSFLAECHE" }, "geometry": { "type": "Polygon", "coordinates": [ [ [ 527602.70433010708075, 6037591.729319864884019, 0.0 ], [ 527616.233716995688155, 6037591.264055481180549, 0.0 ], [ 527617.508643673500046, 6037611.385027503594756, 0.0 ], [ 527604.563661050517112, 6037611.91608935687691, 0.0 ], [ 527602.70433010708075, 6037591.729319864884019, 0.0 ] ] ] } },
{ "type": "Feature", "properties": { "layer": "WBK_ARBEITSFLAECHE" }, "geometry": { "type": "LineString", "coordinates": [ [ 527602.70433010708075, 6037591.729319864884019 ], [ 527616.233716995688155, 6037591.264055481180549 ], [ 527617.508643673500046, 6037611.385027503594756 ], [ 527604.563661050517112, 6037611.91608935687691 ], [ 527602.70433010708075, 6037591.729319864884019 ] ] } },
{ "type": "Feature", "properties": { "layer": "WBK_ARBEITSFLAECHE" }, "geometry": { "type": "Polygon", "coordinates": [ [ [ 527609.979796061757952, 6037706.421676777303219, 0.0 ], [ 527647.177023633033969, 6037705.142495155334473, 0.0 ], [ 527647.864394768956117, 6037725.130526590161026, 0.0 ], [ 527611.839127006009221, 6037726.608446273952723, 0.0 ], [ 527609.979796061757952, 6037706.421676777303219, 0.0 ] ] ] } },
{ "type": "Feature", "properties": { "layer": "WBK_ARBEITSFLAECHE" }, "geometry": { "type": "LineString", "coordinates": [ [ 527609.979796061757952, 6037706.421676777303219 ], [ 527647.177023633033969, 6037705.142495155334473 ], [ 527647.864394768956117, 6037725.130526590161026 ], [ 527611.839127006009221, 6037726.608446273952723 ], [ 527609.979796061757952, 6037706.421676777303219 ] ] } },
{ "type": "Feature", "properties": { "layer": "WBK_ARBEITSFLAECHE" }, "geometry": { "type": "Polygon", "coordinates": [ [ [ 527427.262813406065106, 6032734.796988823451102, 0.0 ], [ 527463.236005760845728, 6032737.964000929147005, 0.0 ], [ 527464.554557907627895, 6032750.331732793711126, 0.0 ], [ 527426.893486964865588, 6032748.025234210304916, 0.0 ], [ 527427.262813406065106, 6032734.796988823451102, 0.0 ] ] ] } },
{ "type": "Feature", "properties": { "layer": "WBK_ARBEITSFLAECHE" }, "geometry": { "type": "LineString", "coordinates": [ [ 527427.262813406065106, 6032734.796988823451102 ], [ 527463.236005760845728, 6032737.964000929147005 ], [ 527464.554557907627895, 6032750.331732793711126 ], [ 527426.893486964865588, 6032748.025234210304916 ], [ 527427.262813406065106, 6032734.796988823451102 ] ] } },
{ "type": "Feature", "properties": { "layer": "WBK_ARBEITSFLAECHE" }, "geometry": { "type": "Polygon", "coordinates": [ [ [ 527882.710637558018789, 6041492.305831356905401, 0.0 ], [ 527909.451506804209203, 6041503.719575765542686, 0.0 ], [ 527907.905527236638591, 6041523.426321242004633, 0.0 ], [ 527880.611080424976535, 6041524.546062412671745, 0.0 ], [ 527882.710637558018789, 6041492.305831356905401, 0.0 ] ] ] } },
{ "type": "Feature", "properties": { "layer": "WBK_ARBEITSFLAECHE" }, "geometry": { "type": "LineString", "coordinates": [ [ 527882.710637558018789, 6041492.305831356905401 ], [ 527909.451506804209203, 6041503.719575765542686 ], [ 527907.905527236638591, 6041523.426321242004633 ], [ 527880.611080424976535, 6041524.546062412671745 ], [ 527882.710637558018789, 6041492.305831356905401 ] ] } },
{ "type": "Feature", "properties": { "layer": "WBK_ARBEITSFLAECHE" }, "geometry": { "type": "Polygon", "coordinates": [ [ [ 520228.520081427996047, 6064651.155378585681319, 0.0 ], [ 520285.191336026997305, 6064659.802929474972188, 0.0 ], [ 520282.708393119974062, 6064665.828766724094748, 0.0 ], [ 520226.956285484775435, 6064656.812717704102397, 0.0 ], [ 520228.520081427996047, 6064651.155378585681319, 0.0 ] ] ] } },
{ "type": "Feature", "properties": { "layer": "WBK_ARBEITSFLAECHE" }, "geometry": { "type": "LineString", "coordinates": [ [ 520228.520081427996047, 6064651.155378585681319 ], [ 520285.191336026997305, 6064659.802929474972188 ], [ 520282.708393119974062, 6064665.828766724094748 ], [ 520226.956285484775435, 6064656.812717704102397 ], [ 520228.520081427996047, 6064651.155378585681319 ] ] } },
{ "type": "Feature", "properties": { "layer": "WBK_ARBEITSFLAECHE" }, "geometry": { "type": "Polygon", "coordinates": [ [ [ 517037.189898113429081, 6067394.15631587523967, 0.0 ], [ 517055.235330637777224, 6067409.957769606262445, 0.0 ], [ 517039.779137433622964, 6067423.131342210806906, 0.0 ], [ 517024.004264339921065, 6067404.10736193601042, 0.0 ], [ 517037.189898113429081, 6067394.15631587523967, 0.0 ] ] ] } },
{ "type": "Feature", "properties": { "layer": "WBK_ARBEITSFLAECHE" }, "geometry": { "type": "LineString", "coordinates": [ [ 517037.189898113429081, 6067394.15631587523967 ], [ 517055.235330637777224, 6067409.957769606262445 ], [ 517039.779137433622964, 6067423.131342210806906 ], [ 517024.004264339921065, 6067404.10736193601042 ], [ 517037.189898113429081, 6067394.15631587523967 ] ] } },
{ "type": "Feature", "properties": { "layer": "WBK_ARBEITSFLAECHE" }, "geometry": { "type": "Polygon", "coordinates": [ [ [ 512664.856366515276022, 6078325.170630430802703, 0.0 ], [ 512672.810858812590595, 6078349.854730849154294, 0.0 ], [ 512667.120091339689679, 6078353.743806948885322, 0.0 ], [ 512658.80280224501621, 6078329.081850251182914, 0.0 ], [ 512664.856366515276022, 6078325.170630430802703, 0.0 ] ] ] } },
{ "type": "Feature", "properties": { "layer": "WBK_ARBEITSFLAECHE" }, "geometry": { "type": "LineString", "coordinates": [ [ 512664.856366515276022, 6078325.170630430802703 ], [ 512672.810858812590595, 6078349.854730849154294 ], [ 512667.120091339689679, 6078353.743806948885322 ], [ 512658.80280224501621, 6078329.081850251182914 ], [ 512664.856366515276022, 6078325.170630430802703 ] ] } },
{ "type": "Feature", "properties": { "layer": "WBK_ARBEITSFLAECHE" }, "geometry": { "type": "Polygon", "coordinates": [ [ [ 512654.292715665185824, 6078300.861766538582742, 0.0 ], [ 512662.316503440903034, 6078318.305857264436781, 0.0 ], [ 512656.707064450485632, 6078321.955244124867022, 0.0 ], [ 512647.798673911718652, 6078303.467989820986986, 0.0 ], [ 512654.292715665185824, 6078300.861766538582742, 0.0 ] ] ] } },
{ "type": "Feature", "properties": { "layer": "WBK_ARBEITSFLAECHE" }, "geometry": { "type": "LineString", "coordinates": [ [ 512654.292715665185824, 6078300.861766538582742 ], [ 512662.316503440903034, 6078318.305857264436781 ], [ 512656.707064450485632, 6078321.955244124867022 ], [ 512647.798673911718652, 6078303.467989820986986 ], [ 512654.292715665185824, 6078300.861766538582742 ] ] } },
{ "type": "Feature", "properties": { "layer": "WBK_ARBEITSFLAECHE" }, "geometry": { "type": "Polygon", "coordinates": [ [ [ 512718.618472054076847, 6078070.284524803981185, 0.0 ], [ 512729.136716610926669, 6078097.362934667617083, 0.0 ], [ 512708.33587475848617, 6078121.872194603085518, 0.0 ], [ 512698.915782798198052, 6078095.752453656867146, 0.0 ], [ 512718.618472054076847, 6078070.284524803981185, 0.0 ] ] ] } },
{ "type": "Feature", "properties": { "layer": "WBK_ARBEITSFLAECHE" }, "geometry": { "type": "LineString", "coordinates": [ [ 512718.618472054076847, 6078070.284524803981185 ], [ 512729.136716610926669, 6078097.362934667617083 ], [ 512708.33587475848617, 6078121.872194603085518 ], [ 512698.915782798198052, 6078095.752453656867146 ], [ 512718.618472054076847, 6078070.284524803981185 ] ] } },
{ "type": "Feature", "properties": { "layer": "WBK_ARBEITSFLAECHE" }, "geometry": { "type": "Polygon", "coordinates": [ [ [ 512709.257376134395599, 6078043.606287758797407, 0.0 ], [ 512718.244685447018128, 6078067.355366329662502, 0.0 ], [ 512696.275757462193724, 6078088.502525717951357, 0.0 ], [ 512687.905677058210131, 6078065.502754300832748, 0.0 ], [ 512709.257376134395599, 6078043.606287758797407, 0.0 ] ] ] } },
{ "type": "Feature", "properties": { "layer": "WBK_ARBEITSFLAECHE" }, "geometry": { "type": "LineString", "coordinates": [ [ 512709.257376134395599, 6078043.606287758797407 ], [ 512718.244685447018128, 6078067.355366329662502 ], [ 512696.275757462193724, 6078088.502525717951357 ], [ 512687.905677058210131, 6078065.502754300832748 ], [ 512709.257376134395599, 6078043.606287758797407 ] ] } },
{ "type": "Feature", "properties": { "layer": "WBK_ARBEITSFLAECHE" }, "geometry": { "type": "Polygon", "coordinates": [ [ [ 520157.058546948595904, 6064537.01243994385004, 0.0 ], [ 520178.707934259495232, 6064543.709054746665061, 0.0 ], [ 520175.438214698224328, 6064549.080606174655259, 0.0 ], [ 520153.590447415423114, 6064544.032642210833728, 0.0 ], [ 520157.058546948595904, 6064537.01243994385004, 0.0 ] ] ] } },
{ "type": "Feature", "properties": { "layer": "WBK_ARBEITSFLAECHE" }, "geometry": { "type": "LineString", "coordinates": [ [ 520157.058546948595904, 6064537.01243994385004 ], [ 520178.707934259495232, 6064543.709054746665061 ], [ 520175.438214698224328, 6064549.080606174655259 ], [ 520153.590447415423114, 6064544.032642210833728 ], [ 520157.058546948595904, 6064537.01243994385004 ] ] } },
{ "type": "Feature", "properties": { "layer": "WBK_ARBEITSFLAECHE" }, "geometry": { "type": "Polygon", "coordinates": [ [ [ 520220.767634715186432, 6064726.185946773737669, 0.0 ], [ 520245.109637580928393, 6064745.494879497215152, 0.0 ], [ 520228.862633020500652, 6064762.444462977349758, 0.0 ], [ 520189.168123877083417, 6064724.596515990793705, 0.0 ], [ 520220.767634715186432, 6064726.185946773737669, 0.0 ] ] ] } },
{ "type": "Feature", "properties": { "layer": "WBK_ARBEITSFLAECHE" }, "geometry": { "type": "LineString", "coordinates": [ [ 520220.767634715186432, 6064726.185946773737669 ], [ 520245.109637580928393, 6064745.494879497215152 ], [ 520228.862633020500652, 6064762.444462977349758 ], [ 520189.168123877083417, 6064724.596515990793705 ], [ 520220.767634715186432, 6064726.185946773737669 ] ] } },
{ "type": "Feature", "properties": { "layer": "WBK_ARBEITSFLAECHE" }, "geometry": { "type": "Polygon", "coordinates": [ [ [ 520137.950789543276187, 6064814.889013242907822, 0.0 ], [ 520167.60176052962197, 6064824.172769860364497, 0.0 ], [ 520158.522153384285048, 6064845.824887143447995, 0.0 ], [ 520126.30746299168095, 6064832.730166853405535, 0.0 ], [ 520137.950789543276187, 6064814.889013242907822, 0.0 ] ] ] } },
{ "type": "Feature", "properties": { "layer": "WBK_ARBEITSFLAECHE" }, "geometry": { "type": "LineString", "coordinates": [ [ 520137.950789543276187, 6064814.889013242907822 ], [ 520167.60176052962197, 6064824.172769860364497 ], [ 520158.522153384285048, 6064845.824887143447995 ], [ 520126.30746299168095, 6064832.730166853405535 ], [ 520137.950789543276187, 6064814.889013242907822 ] ] } },
{ "type": "Feature", "properties": { "layer": "WBK_ARBEITSFLAECHE" }, "geometry": { "type": "Polygon", "coordinates": [ [ [ 526390.428953062510118, 6059948.200818718411028, 0.0 ], [ 526402.447468735394068, 6059953.982217408716679, 0.0 ], [ 526396.081104003009386, 6059967.762151941657066, 0.0 ], [ 526385.338624059571885, 6059960.756702305749059, 0.0 ], [ 526390.428953062510118, 6059948.200818718411028, 0.0 ] ] ] } },
{ "type": "Feature", "properties": { "layer": "WBK_ARBEITSFLAECHE" }, "geometry": { "type": "LineString", "coordinates": [ [ 526390.428953062510118, 6059948.200818718411028 ], [ 526402.447468735394068, 6059953.982217408716679 ], [ 526396.081104003009386, 6059967.762151941657066 ], [ 526385.338624059571885, 6059960.756702305749059 ], [ 526390.428953062510118, 6059948.200818718411028 ] ] } },
{ "type": "Feature", "properties": { "layer": "WBK_ARBEITSFLAECHE" }, "geometry": { "type": "Polygon", "coordinates": [ [ [ 527767.652242143056355, 6040245.76134576369077, 0.0 ], [ 527797.102097063791007, 6040205.058798527345061, 0.0 ], [ 527805.339943292550743, 6040222.409469589591026, 0.0 ], [ 527773.893273104447871, 6040258.314441830851138, 0.0 ], [ 527767.652242143056355, 6040245.76134576369077, 0.0 ] ] ] } },
{ "type": "Feature", "properties": { "layer": "WBK_ARBEITSFLAECHE" }, "geometry": { "type": "LineString", "coordinates": [ [ 527767.652242143056355, 6040245.76134576369077 ], [ 527797.102097063791007, 6040205.058798527345061 ], [ 527805.339943292550743, 6040222.409469589591026 ], [ 527773.893273104447871, 6040258.314441830851138 ], [ 527767.652242143056355, 6040245.76134576369077 ] ] } },
{ "type": "Feature", "properties": { "layer": "WBK_ARBEITSFLAECHE" }, "geometry": { "type": "Polygon", "coordinates": [ [ [ 527891.690239603398368, 6041467.824724793434143, 0.0 ], [ 527916.888560754945502, 6041469.624053359031677, 0.0 ], [ 527915.342576731927693, 6041489.330798833630979, 0.0 ], [ 527888.048129921080545, 6041490.450540005229414, 0.0 ], [ 527891.690239603398368, 6041467.824724793434143, 0.0 ] ] ] } },
{ "type": "Feature", "properties": { "layer": "WBK_ARBEITSFLAECHE" }, "geometry": { "type": "LineString", "coordinates": [ [ 527891.690239603398368, 6041467.824724793434143 ], [ 527916.888560754945502, 6041469.624053359031677 ], [ 527915.342576731927693, 6041489.330798833630979 ], [ 527888.048129921080545, 6041490.450540005229414 ], [ 527891.690239603398368, 6041467.824724793434143 ] ] } },
{ "type": "Feature", "properties": { "layer": "WBK_ARBEITSFLAECHE" }, "geometry": { "type": "Polygon", "coordinates": [ [ [ 527933.022761093452573, 6041468.023275889456272, 0.0 ], [ 527945.71348823106382, 6041467.640615583397448, 0.0 ], [ 527943.027877074549906, 6041490.089219965972006, 0.0 ], [ 527929.380651471670717, 6041490.649091102182865, 0.0 ], [ 527933.022761093452573, 6041468.023275889456272, 0.0 ] ] ] } },
{ "type": "Feature", "properties": { "layer": "WBK_ARBEITSFLAECHE" }, "geometry": { "type": "LineString", "coordinates": [ [ 527933.022761093452573, 6041468.023275889456272 ], [ 527945.71348823106382, 6041467.640615583397448 ], [ 527943.027877074549906, 6041490.089219965972006 ], [ 527929.380651471670717, 6041490.649091102182865 ], [ 527933.022761093452573, 6041468.023275889456272 ] ] } },
{ "type": "Feature", "properties": { "layer": "WBK_ARBEITSFLAECHE" }, "geometry": { "type": "Polygon", "coordinates": [ [ [ 527546.583103430690244, 6044650.93352082464844, 0.0 ], [ 527566.582950368057936, 6044650.933395211584866, 0.0 ], [ 527566.582824946613982, 6044630.933548274450004, 0.0 ], [ 527546.582978008547798, 6044630.933673704043031, 0.0 ], [ 527546.583103430690244, 6044650.93352082464844, 0.0 ] ] ] } },
{ "type": "Feature", "properties": { "layer": "WBK_ARBEITSFLAECHE" }, "geometry": { "type": "LineString", "coordinates": [ [ 527546.583103430690244, 6044650.93352082464844 ], [ 527566.582950560958125, 6044650.933395211584866 ], [ 527566.582824946148321, 6044630.933548090979457 ], [ 527546.582977816695347, 6044630.933673705905676 ], [ 527546.583103430690244, 6044650.93352082464844 ] ] } },
{ "type": "Feature", "properties": { "layer": "WBK_ARBEITSFLAECHE" }, "geometry": { "type": "Polygon", "coordinates": [ [ [ 527588.762675785925239, 6044651.83737548161298, 0.0 ], [ 527608.762522723292932, 6044651.837249868549407, 0.0 ], [ 527608.762397301848978, 6044631.837402931414545, 0.0 ], [ 527588.762550363899209, 6044631.837529465556145, 0.0 ], [ 527588.762675785925239, 6044651.83737548161298, 0.0 ] ] ] } },
{ "type": "Feature", "properties": { "layer": "WBK_ARBEITSFLAECHE" }, "geometry": { "type": "LineString", "coordinates": [ [ 527588.762675785925239, 6044651.83737548161298 ], [ 527608.762522916309536, 6044651.837249868549407 ], [ 527608.762397301266901, 6044631.837403851561248 ], [ 527588.762550172861665, 6044631.83752946741879 ], [ 527588.762675785925239, 6044651.83737548161298 ] ] } },
{ "type": "Feature", "properties": { "layer": "WBK_ARBEITSFLAECHE" }, "geometry": { "type": "Polygon", "coordinates": [ [ [ 527525.527329294709489, 6045202.991518475115299, 0.0 ], [ 527538.623646089108661, 6045204.423864521086216, 0.0 ], [ 527536.802820090204477, 6045224.340652953833342, 0.0 ], [ 527523.403021201607771, 6045222.581021271646023, 0.0 ], [ 527525.527329294709489, 6045202.991518475115299, 0.0 ] ] ] } },
{ "type": "Feature", "properties": { "layer": "WBK_ARBEITSFLAECHE" }, "geometry": { "type": "LineString", "coordinates": [ [ 527525.527329294709489, 6045202.991518475115299 ], [ 527538.623646089108661, 6045204.423864521086216 ], [ 527536.802820090204477, 6045224.340652953833342 ], [ 527523.403021201607771, 6045222.581021271646023 ], [ 527525.527329294709489, 6045202.991518475115299 ] ] } },
{ "type": "Feature", "properties": { "layer": "WBK_ARBEITSFLAECHE" }, "geometry": { "type": "Polygon", "coordinates": [ [ [ 527491.758292815531604, 6045196.512872779741883, 0.0 ], [ 527504.854609609930776, 6045197.945218824781477, 0.0 ], [ 527503.033783611026593, 6045217.862007256597281, 0.0 ], [ 527489.633984723361209, 6045216.102374462410808, 0.0 ], [ 527491.758292815531604, 6045196.512872779741883, 0.0 ] ] ] } },
{ "type": "Feature", "properties": { "layer": "WBK_ARBEITSFLAECHE" }, "geometry": { "type": "LineString", "coordinates": [ [ 527491.758292815531604, 6045196.512872779741883 ], [ 527504.854609609930776, 6045197.945218824781477 ], [ 527503.033783611026593, 6045217.862007256597281 ], [ 527489.633984723361209, 6045216.102374462410808 ], [ 527491.758292815531604, 6045196.512872779741883 ] ] } },
{ "type": "Feature", "properties": { "layer": "WBK_ARBEITSFLAECHE" }, "geometry": { "type": "Polygon", "coordinates": [ [ [ 527559.730593675281852, 6045074.135487644001842, 0.0 ], [ 527570.855031326063909, 6045081.19325059466064, 0.0 ], [ 527560.442511898349039, 6045098.268771724775434, 0.0 ], [ 527549.18990335369017, 6045090.783465905115008, 0.0 ], [ 527559.730593675281852, 6045074.135487644001842, 0.0 ] ] ] } },
{ "type": "Feature", "properties": { "layer": "WBK_ARBEITSFLAECHE" }, "geometry": { "type": "LineString", "coordinates": [ [ 527559.730593675281852, 6045074.135487644001842 ], [ 527570.855031326063909, 6045081.19325059466064 ], [ 527560.442511898349039, 6045098.268771724775434 ], [ 527549.18990335369017, 6045090.783465905115008 ], [ 527559.730593675281852, 6045074.135487644001842 ] ] } },
{ "type": "Feature", "properties": { "layer": "WBK_ARBEITSFLAECHE" }, "geometry": { "type": "Polygon", "coordinates": [ [ [ 527295.579000518191606, 6052877.609775528311729, 0.0 ], [ 527321.886515036225319, 6052876.744676149450243, 0.0 ], [ 527321.68943879683502, 6052891.126038127578795, 0.0 ], [ 527295.241298016160727, 6052891.189826494082808, 0.0 ], [ 527295.579000518191606, 6052877.609775528311729, 0.0 ] ] ] } },
{ "type": "Feature", "properties": { "layer": "WBK_ARBEITSFLAECHE" }, "geometry": { "type": "LineString", "coordinates": [ [ 527295.579000518191606, 6052877.609775528311729 ], [ 527321.886515036225319, 6052876.744676149450243 ], [ 527321.68943879683502, 6052891.126038127578795 ], [ 527295.241298016160727, 6052891.189826494082808 ], [ 527295.579000518191606, 6052877.609775528311729 ] ] } },
{ "type": "Feature", "properties": { "layer": "WBK_ARBEITSFLAECHE" }, "geometry": { "type": "LineString", "coordinates": [ [ 516921.981990991102066, 6067537.091619990766048, 0.0 ], [ 516971.454476286075078, 6067490.262080391868949, 0.0 ] ] } },
{ "type": "Feature", "properties": { "layer": "WBK_ARBEITSFLAECHE" }, "geometry": { "type": "LineString", "coordinates": [ [ 516971.391968311101664, 6067490.364061710424721, 0.0 ], [ 517053.769831869925838, 6067422.011848337948322, 0.0 ] ] } },
{ "type": "Feature", "properties": { "layer": "WBK_ARBEITSFLAECHE" }, "geometry": { "type": "LineString", "coordinates": [ [ 516942.017620755883399, 6067472.091513075865805, 0.0 ], [ 517024.370976907783188, 6067403.803279944695532, 0.0 ] ] } },
{ "type": "Feature", "properties": { "layer": "WBK_ARBEITSFLAECHE" }, "geometry": { "type": "LineString", "coordinates": [ [ 516921.987584665475879, 6067537.086324974894524 ], [ 516942.012584641110152, 6067472.088404267095029 ] ] } },
{ "type": "Feature", "properties": { "layer": "WBK_ARBEITSFLAECHE" }, "geometry": { "type": "LineString", "coordinates": [ [ 516945.643928560602944, 6067472.877379539422691, 0.0 ], [ 516945.685691639664583, 6067472.647579475305974, 0.0 ], [ 516945.712939304066822, 6067472.415610104799271, 0.0 ], [ 516945.725563964631874, 6067472.182387374341488, 0.0 ], [ 516945.723515772027895, 6067471.948832179419696, 0.0 ], [ 516945.706802813569084, 6067471.715866728685796, 0.0 ], [ 516945.675491081608925, 6067471.484410901553929, 0.0 ], [ 516945.629704212653451, 6067471.255378618836403, 0.0 ], [ 516945.569622999231797, 6067471.029674228280783, 0.0 ], [ 516945.495484676037449, 6067470.80818893853575, 0.0 ], [ 516945.407581983308773, 6067470.591797301545739, 0.0 ] ] } },
{ "type": "Feature", "properties": { "layer": "WBK_ARBEITSFLAECHE" }, "geometry": { "type": "LineString", "coordinates": [ [ 516941.920964571821969, 6067475.814079991541803, 0.0 ], [ 516942.158210580179002, 6067475.812162997201085, 0.0 ], [ 516942.394850982585922, 6067475.795114146545529, 0.0 ], [ 516942.629921634332277, 6067475.763002901338041, 0.0 ], [ 516942.862464786390774, 6067475.715960093773901, 0.0 ], [ 516943.091532987484243, 6067475.654177389107645, 0.0 ], [ 516943.316192944417708, 6067475.577906508930027, 0.0 ], [ 516943.535529324435629, 6067475.487458204850554, 0.0 ], [ 516943.748648484703153, 6067475.38320099003613, 0.0 ], [ 516943.954682113195304, 6067475.265559639781713, 0.0 ], [ 516944.152790766500402, 6067475.135013460181653, 0.0 ] ] } },
{ "type": "Feature", "properties": { "layer": "WBK_ARBEITSFLAECHE" }, "geometry": { "type": "Polygon", "coordinates": [ [ [ 516945.551943796221167, 6067470.502333970740438 ], [ 516945.26322017138591, 6067470.681260629557073 ], [ 516944.870802000572439, 6067469.725626424886286 ], [ 516945.551943796221167, 6067470.502333970740438 ] ] ] } },
{ "type": "Feature", "properties": { "layer": "WBK_ARBEITSFLAECHE" }, "geometry": { "type": "Polygon", "coordinates": [ [ [ 516941.948248729226179, 6067475.646450651809573 ], [ 516941.893680414708797, 6067475.98170933034271 ], [ 516940.915188539307564, 6067475.650375047698617 ], [ 516941.948248729226179, 6067475.646450651809573 ] ] ] } },
{ "type": "Feature", "properties": { "layer": "WBK_ARBEITSFLAECHE" }, "geometry": { "type": "Point", "coordinates": [ 516945.100864650215954, 6067474.162067973054945, 0.0 ] } },
{ "type": "Feature", "properties": { "layer": "WBK_ARBEITSFLAECHE" }, "geometry": { "type": "LineString", "coordinates": [ [ 516974.738661956915166, 6067492.84686887357384, 0.0 ], [ 516974.87375729723135, 6067492.598263279534876, 0.0 ], [ 516974.992230971169192, 6067492.341320716775954, 0.0 ], [ 516975.093571253644768, 6067492.077150999568403, 0.0 ], [ 516975.177340424095746, 6067491.806895161047578, 0.0 ], [ 516975.243176657066215, 6067491.531720520928502, 0.0 ], [ 516975.290795585257001, 6067491.252815644256771, 0.0 ], [ 516975.319991527474485, 6067490.971385210752487, 0.0 ], [ 516975.330638377228752, 6067490.688644804991782, 0.0 ], [ 516975.322690147499088, 6067490.405815673060715, 0.0 ], [ 516975.296181169163901, 6067490.124119442887604, 0.0 ], [ 516975.25122594286222, 6067489.844772848300636, 0.0 ], [ 516975.188018644286785, 6067489.568982475437224, 0.0 ], [ 516975.106832285702694, 6067489.297939550131559, 0.0 ], [ 516975.008017536485568, 6067489.032814791426063, 0.0 ], [ 516974.892001208674628, 6067488.774753357283771, 0.0 ] ] } },
{ "type": "Feature", "properties": { "layer": "WBK_ARBEITSFLAECHE" }, "geometry": { "type": "LineString", "coordinates": [ [ 516968.682141377241351, 6067494.279583752155304, 0.0 ], [ 516968.936366911570076, 6067494.432364613749087, 0.0 ], [ 516969.200508647889365, 6067494.567278502508998, 0.0 ], [ 516969.473312844173051, 6067494.68368505127728, 0.0 ], [ 516969.753484641958494, 6067494.781031740829349, 0.0 ], [ 516970.03969421290094, 6067494.858856516890228, 0.0 ], [ 516970.33058307034662, 6067494.916789985261858, 0.0 ], [ 516970.624770517693833, 6067494.954557166434824, 0.0 ], [ 516970.920860201469623, 6067494.971978801302612, 0.0 ], [ 516971.217446739436127, 6067494.968972195871174, 0.0 ], [ 516971.513122391013894, 6067494.945551622658968, 0.0 ], [ 516971.806483739055693, 6067494.901828246191144, 0.0 ], [ 516972.096138351305854, 6067494.838009598664939, 0.0 ], [ 516972.380711389298085, 6067494.754398592747748, 0.0 ], [ 516972.658852134307381, 6067494.651392087340355, 0.0 ] ] } },
{ "type": "Feature", "properties": { "layer": "WBK_ARBEITSFLAECHE" }, "geometry": { "type": "Polygon", "coordinates": [ [ [ 516975.034619075304363, 6067488.682535327039659 ], [ 516974.749383344780654, 6067488.866971383802593 ], [ 516974.338693038094789, 6067487.919046160764992 ], [ 516975.034619075304363, 6067488.682535327039659 ] ] ] } },
{ "type": "Feature", "properties": { "layer": "WBK_ARBEITSFLAECHE" }, "geometry": { "type": "Polygon", "coordinates": [ [ [ 516968.79079827532405, 6067494.149055213667452 ], [ 516968.573484479915351, 6067494.41011228878051 ], [ 516967.89897015230963, 6067493.627642367035151 ], [ 516968.79079827532405, 6067494.149055213667452 ] ] ] } },
{ "type": "Feature", "properties": { "layer": "WBK_ARBEITSFLAECHE" }, "geometry": { "type": "Point", "coordinates": [ 516973.88136109901825, 6067493.889683876186609, 0.0 ] } },
{ "type": "Feature", "properties": { "layer": "WBK_ARBEITSFLAECHE" }, "geometry": { "type": "Polygon", "coordinates": [ [ [ 521325.688164604594931, 6063818.614868888631463, 0.0 ], [ 521356.00529627839569, 6063847.268028330057859, 0.0 ], [ 521339.447495818079915, 6063858.465046738274395, 0.0 ], [ 521312.538512682891451, 6063831.220599543303251, 0.0 ], [ 521325.688164604594931, 6063818.614868888631463, 0.0 ] ] ] } },
{ "type": "Feature", "properties": { "layer": "WBK_ARBEITSFLAECHE" }, "geometry": { "type": "LineString", "coordinates": [ [ 521325.688164604594931, 6063818.614868888631463 ], [ 521356.00529627839569, 6063847.268028330057859 ], [ 521339.447495818079915, 6063858.465046738274395 ], [ 521312.538512682891451, 6063831.220599543303251 ], [ 521325.688164604594931, 6063818.614868888631463 ] ] } },
{ "type": "Feature", "properties": { "layer": "WBK_ARBEITSFLAECHE" }, "geometry": { "type": "Polygon", "coordinates": [ [ [ 512603.634902941121254, 6078339.00910983979702, 47.801134192103959 ], [ 512623.361598583927844, 6078350.613558518700302, 47.801134192103959 ], [ 512615.352523409819696, 6078364.710258349776268, 47.801134192103959 ], [ 512595.891435585916042, 6078351.315902274101973, 47.801134192103959 ], [ 512603.634902941121254, 6078339.00910983979702, 47.801134192103959 ] ] ] } },
{ "type": "Feature", "properties": { "layer": "WBK_ARBEITSFLAECHE" }, "geometry": { "type": "LineString", "coordinates": [ [ 512603.634902941121254, 6078339.00910983979702, 47.801134192103959 ], [ 512623.361598583927844, 6078350.613558518700302, 47.801134192103959 ], [ 512615.352523409819696, 6078364.710258349776268, 47.801134192103959 ], [ 512595.891435585916042, 6078351.315902274101973, 47.801134192103959 ], [ 512603.634902941121254, 6078339.00910983979702, 47.801134192103959 ] ] } },
{ "type": "Feature", "properties": { "layer": "WBK_ARBEITSFLAECHE" }, "geometry": { "type": "LineString", "coordinates": [ [ 526770.162807154702023, 6051178.221261012367904 ], [ 526785.642747682752088, 6051173.12636917643249 ], [ 526788.754438558593392, 6051182.580699363723397 ], [ 526773.274498030194081, 6051187.675591200590134 ], [ 526770.162807154702023, 6051178.221261012367904 ] ] } },
{ "type": "Feature", "properties": { "layer": "WBK_ARBEITSFLAECHE" }, "geometry": { "type": "Polygon", "coordinates": [ [ [ 526770.162807154702023, 6051178.221261012367904, 0.0 ], [ 526785.642747682752088, 6051173.12636917643249, 0.0 ], [ 526788.754438558593392, 6051182.580699363723397, 0.0 ], [ 526773.274498030194081, 6051187.675591200590134, 0.0 ], [ 526770.162807154702023, 6051178.221261012367904, 0.0 ] ] ] } },
{ "type": "Feature", "properties": { "layer": "WBK_ARBEITSFLAECHE" }, "geometry": { "type": "LineString", "coordinates": [ [ 512973.121676263923291, 6077612.968339161016047, 45.3452936109232 ], [ 512981.492766349518206, 6077598.103923338465393, 45.3452936109232 ], [ 512998.16593444859609, 6077607.493635914288461, 45.3452936109232 ], [ 512989.79484436288476, 6077622.358051736839116, 45.3452936109232 ], [ 512973.121676263923291, 6077612.968339161016047, 45.3452936109232 ] ] } },
{ "type": "Feature", "properties": { "layer": "WBK_ARBEITSFLAECHE" }, "geometry": { "type": "Polygon", "coordinates": [ [ [ 512973.121676263923291, 6077612.968339161016047, 0.0 ], [ 512981.492766349518206, 6077598.103923338465393, 0.0 ], [ 512998.16593444859609, 6077607.493635914288461, 0.0 ], [ 512989.79484436288476, 6077622.358051736839116, 0.0 ], [ 512973.121676263923291, 6077612.968339161016047, 0.0 ] ] ] } },
{ "type": "Feature", "properties": { "layer": "WBK_ARBEITSFLAECHE" }, "geometry": { "type": "LineString", "coordinates": [ [ 513776.172616896918043, 6076242.461760056205094 ], [ 513751.203880571003538, 6076242.845974838361144 ], [ 513751.017155682027806, 6076230.711396095342934 ], [ 513775.985892007884104, 6076230.327181312255561 ], [ 513776.172616896918043, 6076242.461760056205094 ] ] } },
{ "type": "Feature", "properties": { "layer": "WBK_ARBEITSFLAECHE" }, "geometry": { "type": "Polygon", "coordinates": [ [ [ 513776.172616896918043, 6076242.461760056205094, 0.0 ], [ 513751.203880571003538, 6076242.845974838361144, 0.0 ], [ 513751.017155682027806, 6076230.711396095342934, 0.0 ], [ 513775.985892007884104, 6076230.327181312255561, 0.0 ], [ 513776.172616896918043, 6076242.461760056205094, 0.0 ] ] ] } },
{ "type": "Feature", "properties": { "layer": "WBK_ARBEITSFLAECHE" }, "geometry": { "type": "LineString", "coordinates": [ [ 514035.488648300699424, 6075751.977099619805813 ], [ 514031.24736991681857, 6075759.973092900589108 ], [ 514050.898232626903336, 6075770.396410717628896 ], [ 514055.13951101078419, 6075762.400417437776923 ], [ 514035.488648300699424, 6075751.977099619805813 ] ] } },
{ "type": "Feature", "properties": { "layer": "WBK_ARBEITSFLAECHE" }, "geometry": { "type": "Polygon", "coordinates": [ [ [ 514035.488648300699424, 6075751.977099619805813, 0.0 ], [ 514031.24736991681857, 6075759.973092900589108, 0.0 ], [ 514050.898232626903336, 6075770.396410717628896, 0.0 ], [ 514055.13951101078419, 6075762.400417437776923, 0.0 ], [ 514035.488648300699424, 6075751.977099619805813, 0.0 ] ] ] } },
{ "type": "Feature", "properties": { "layer": "WBK_ARBEITSFLAECHE" }, "geometry": { "type": "LineString", "coordinates": [ [ 515607.393376983294729, 6072966.180199403315783 ], [ 515630.308703557879198, 6072954.662114574573934 ], [ 515636.414650717400946, 6072966.809947771951556 ], [ 515613.4993241429911, 6072978.328032596968114 ], [ 515607.393376983294729, 6072966.180199403315783 ] ] } },
{ "type": "Feature", "properties": { "layer": "WBK_ARBEITSFLAECHE" }, "geometry": { "type": "Polygon", "coordinates": [ [ [ 515607.393376983294729, 6072966.180199403315783, 0.0 ], [ 515630.308703557820991, 6072954.662114576436579, 0.0 ], [ 515636.414650717575569, 6072966.809947771951556, 0.0 ], [ 515613.499324142816477, 6072978.328032596968114, 0.0 ], [ 515607.393376983294729, 6072966.180199403315783, 0.0 ] ] ] } },
{ "type": "Feature", "properties": { "layer": "WBK_ARBEITSFLAECHE" }, "geometry": { "type": "LineString", "coordinates": [ [ 526767.823733739205636, 6059000.782562364824116, 28.683201525951329 ], [ 526775.707498416653834, 6058979.745304634794593, 28.683201525951329 ], [ 526789.933856384479441, 6058985.07666768040508, 28.683201525951329 ], [ 526782.050091707147658, 6059006.113925410434604, 28.683201525951329 ], [ 526767.823733739205636, 6059000.782562364824116, 28.683201525951329 ] ] } },
{ "type": "Feature", "properties": { "layer": "WBK_ARBEITSFLAECHE" }, "geometry": { "type": "Polygon", "coordinates": [ [ [ 526767.823733739205636, 6059000.782562364824116, 0.0 ], [ 526775.707498416653834, 6058979.745304634794593, 0.0 ], [ 526789.933856384479441, 6058985.07666768040508, 0.0 ], [ 526782.050091707147658, 6059006.113925410434604, 0.0 ], [ 526767.823733739205636, 6059000.782562364824116, 0.0 ] ] ] } },
{ "type": "Feature", "properties": { "layer": "WBK_ARBEITSFLAECHE" }, "geometry": { "type": "LineString", "coordinates": [ [ 527056.952900446602143, 6058234.298448896966875 ], [ 527057.557929196977057, 6058224.316768666729331 ], [ 527067.539609426748939, 6058224.921797418035567 ], [ 527066.934580676374026, 6058234.903477646410465 ], [ 527056.952900446602143, 6058234.298448896966875 ] ] } },
{ "type": "Feature", "properties": { "layer": "WBK_ARBEITSFLAECHE" }, "geometry": { "type": "Polygon", "coordinates": [ [ [ 527056.952900446602143, 6058234.298448896966875, 0.0 ], [ 527057.557929196860641, 6058224.316768664866686, 0.0 ], [ 527067.539609426632524, 6058224.921797418035567, 0.0 ], [ 527066.934580676606856, 6058234.903477647341788, 0.0 ], [ 527056.952900446602143, 6058234.298448896966875, 0.0 ] ] ] } },
{ "type": "Feature", "properties": { "layer": "WBK_ARBEITSFLAECHE" }, "geometry": { "type": "LineString", "coordinates": [ [ 526302.454486975679174, 6060046.201945886947215, 28.70500142740196 ], [ 526308.621011241688393, 6060054.074301219545305, 28.70500142740196 ], [ 526300.748655910021625, 6060060.240825485438108, 28.70500142740196 ], [ 526294.582131644128822, 6060052.368470151908696, 28.70500142740196 ], [ 526302.454486975679174, 6060046.201945886947215, 28.70500142740196 ] ] } },
{ "type": "Feature", "properties": { "layer": "WBK_ARBEITSFLAECHE" }, "geometry": { "type": "Polygon", "coordinates": [ [ [ 526302.454486975679174, 6060046.201945886947215, 0.0 ], [ 526308.621011241688393, 6060054.074301219545305, 0.0 ], [ 526300.748655910021625, 6060060.240825485438108, 0.0 ], [ 526294.582131644128822, 6060052.368470151908696, 0.0 ], [ 526302.454486975679174, 6060046.201945886947215, 0.0 ] ] ] } }
]
}
