{
"type": "FeatureCollection",
"name": "WBK_WEG_BEST",
"crs": { "type": "name", "properties": { "name": "urn:ogc:def:crs:EPSG::25832" } },
"features": [
{ "type": "Feature", "properties": { "layer": "WBK_WEG_BEST" }, "geometry": { "type": "Polygon", "coordinates": [ [ [ 525632.475349643849768, 6060666.984605015255511, 0.0 ], [ 525632.47532888839487, 6060663.679993982426822, 0.0 ], [ 525648.226349219563417, 6060527.709935337305069, 0.0 ], [ 525655.733312332537025, 6060530.458868134766817, 0.0 ], [ 525638.79280113754794, 6060667.31842680182308, 0.0 ], [ 525632.475349643849768, 6060666.984605015255511, 0.0 ] ] ] } },
{ "type": "Feature", "properties": { "layer": "WBK_WEG_BEST" }, "geometry": { "type": "LineString", "coordinates": [ [ 525632.475349643849768, 6060666.984605015255511 ], [ 525632.47532888839487, 6060663.679993982426822 ], [ 525648.226349219563417, 6060527.709935337305069 ], [ 525648.226349219563417, 6060527.709935337305069 ], [ 525655.733312332537025, 6060530.458868134766817 ], [ 525655.733312332537025, 6060530.458868134766817 ], [ 525638.79280113754794, 6060667.31842680182308 ], [ 525632.475349643849768, 6060666.984605015255511 ] ] } },
{ "type": "Feature", "properties": { "layer": "WBK_WEG_BEST" }, "geometry": { "type": "Polygon", "coordinates": [ [ [ 526291.009463328868151, 6060293.948188062757254, 0.0 ], [ 526325.44091355567798, 6060096.655269941315055, 0.0 ], [ 526325.392868433031254, 6060082.075593493878841, 0.0 ], [ 526332.620339717599563, 6060071.140527221374214, 0.0 ], [ 526330.379592469078489, 6060061.414444347843528, 0.0 ], [ 526320.119298140052706, 6060063.778266183100641, 0.0 ], [ 526284.816641306038946, 6060292.456487352959812, 0.0 ], [ 526291.009463328868151, 6060293.948188062757254, 0.0 ] ] ] } },
{ "type": "Feature", "properties": { "layer": "WBK_WEG_BEST" }, "geometry": { "type": "LineString", "coordinates": [ [ 526291.009463328868151, 6060293.948188062757254 ], [ 526325.44091355567798, 6060096.655269941315055 ], [ 526325.392868433031254, 6060082.075593493878841 ], [ 526332.620339717599563, 6060071.140527221374214 ], [ 526330.379592469078489, 6060061.414444347843528 ], [ 526320.119298140052706, 6060063.778266183100641 ], [ 526284.816641306038946, 6060292.456487352959812 ], [ 526291.009463328868151, 6060293.948188062757254 ] ] } },
{ "type": "Feature", "properties": { "layer": "WBK_WEG_BEST" }, "geometry": { "type": "Polygon", "coordinates": [ [ [ 514970.408379651780706, 6073830.365092753432691, 0.0 ], [ 515086.020965228613932, 6073912.232471395283937, 0.0 ], [ 515089.010190585278906, 6073908.156786678358912, 0.0 ], [ 514970.953563242394011, 6073823.537176230922341, 0.0 ], [ 514970.408379651780706, 6073830.365092753432691, 0.0 ] ] ] } },
{ "type": "Feature", "properties": { "layer": "WBK_WEG_BEST" }, "geometry": { "type": "LineString", "coordinates": [ [ 514970.408379651780706, 6073830.365092753432691 ], [ 515086.020966862910427, 6073912.232471643015742 ], [ 515089.01019121601712, 6073908.156787129119039 ], [ 514970.953562697104644, 6073823.537175494246185 ], [ 514970.408379651780706, 6073830.365092753432691 ] ] } },
{ "type": "Feature", "properties": { "layer": "WBK_WEG_BEST" }, "geometry": { "type": "Polygon", "coordinates": [ [ [ 514453.026441621710546, 6074606.06244093272835, 0.0 ], [ 514691.024019427888561, 6074669.627459635958076, 0.0 ], [ 514682.963011028594337, 6074644.551141220144928, 0.0 ], [ 514678.619939059775788, 6074642.095342720858753, 0.0 ], [ 514681.119038546574302, 6074660.78458840213716, 0.0 ], [ 514608.484911966894288, 6074638.690229847095907, 0.0 ], [ 514457.114372464595363, 6074599.910462036728859, 0.0 ], [ 514453.026441621710546, 6074606.06244093272835, 0.0 ] ] ] } },
{ "type": "Feature", "properties": { "layer": "WBK_WEG_BEST" }, "geometry": { "type": "LineString", "coordinates": [ [ 514453.026441621710546, 6074606.06244093272835 ], [ 514691.024021434073802, 6074669.627458935603499 ], [ 514682.963009545695968, 6074644.551141392439604 ], [ 514678.61993739171885, 6074642.09534212667495 ], [ 514681.119037786498666, 6074660.784589543938637 ], [ 514608.484914640081115, 6074638.690229527652264 ], [ 514457.114371271571144, 6074599.910461098887026 ], [ 514453.026441621710546, 6074606.06244093272835 ] ] } },
{ "type": "Feature", "properties": { "layer": "WBK_WEG_BEST" }, "geometry": { "type": "Polygon", "coordinates": [ [ [ 514153.750084332015831, 6075292.641584399156272, 0.0 ], [ 514337.879593048419338, 6075265.14321749098599, 0.0 ], [ 514331.803610797214787, 6075275.841870062053204, 0.0 ], [ 514317.493889803474303, 6075277.954181471839547, 0.0 ], [ 514150.1811376818805, 6075302.649010986089706, 0.0 ], [ 514153.750084332015831, 6075292.641584399156272, 0.0 ] ] ] } },
{ "type": "Feature", "properties": { "layer": "WBK_WEG_BEST" }, "geometry": { "type": "LineString", "coordinates": [ [ 514153.750084332015831, 6075292.641584399156272 ], [ 514337.879594026599079, 6075265.143217030912638 ], [ 514331.803612506773788, 6075275.841870563104749 ], [ 514317.493893484410364, 6075277.954180815257132 ], [ 514317.493893484410364, 6075277.954180815257132 ], [ 514150.181135620572604, 6075302.649010386317968 ], [ 514153.750084332015831, 6075292.641584399156272 ] ] } },
{ "type": "Feature", "properties": { "layer": "WBK_WEG_BEST" }, "geometry": { "type": "MultiLineString", "coordinates": [ [ [ 512555.93943408789346, 6078536.50057614967227, 0.0 ], [ 512506.532800463028252, 6078829.73211160954088, 0.0 ] ], [ [ 512506.532801804889459, 6078829.732111579738557, 0.0 ], [ 512465.493783667916432, 6078837.403083448298275, 0.0 ] ], [ [ 512465.493781780474819, 6078837.403083424083889, 0.0 ], [ 512459.697290365817025, 6078836.223150569014251, 0.0 ] ], [ [ 512459.697290896903723, 6078836.223150138743222, 0.0 ], [ 512501.484657280379906, 6078826.430808382108808, 0.0 ] ], [ [ 512501.484657714492641, 6078826.430808144621551, 0.0 ], [ 512548.586255018773954, 6078538.282272707670927, 0.0 ] ], [ [ 512548.586250818218105, 6078538.282272632233799, 0.0 ], [ 512555.933639783295803, 6078536.501978414133191, 0.0 ] ] ] } },
{ "type": "Feature", "properties": { "layer": "WBK_WEG_BEST" }, "geometry": { "type": "LineString", "coordinates": [ [ 512555.93943408789346, 6078536.50057614967227 ], [ 512506.532801804889459, 6078829.732111579738557 ], [ 512465.493781780474819, 6078837.403083424083889 ], [ 512459.697290896903723, 6078836.223150138743222 ], [ 512501.484657714492641, 6078826.430808144621551 ], [ 512548.586250818218105, 6078538.282272632233799 ], [ 512555.933641294890549, 6078536.501979030668736 ] ] } },
{ "type": "Feature", "properties": { "layer": "WBK_WEG_BEST" }, "geometry": { "type": "MultiLineString", "coordinates": [ [ [ 513032.074433357222006, 6078225.646630366332829, 0.0 ], [ 512998.228576824592892, 6078259.652458015829325, 0.0 ] ], [ [ 512998.228574165375903, 6078259.652457756921649, 0.0 ], [ 512928.628623059485108, 6078306.641154026612639, 0.0 ] ], [ [ 512928.628623294702265, 6078306.641154629178345, 0.0 ], [ 512873.030946588492952, 6078333.855334431864321, 0.0 ] ], [ [ 512873.030946011771448, 6078333.85533479694277, 0.0 ], [ 512820.060237022000365, 6078395.775897340849042, 0.0 ] ], [ [ 512820.060239619808272, 6078395.775897189974785, 0.0 ], [ 512671.549515325576067, 6078497.009851465001702, 0.0 ] ], [ [ 512671.549515499325935, 6078497.009851315058768, 0.0 ], [ 512555.933857781696133, 6078536.500678282231092, 0.0 ] ], [ [ 512555.933858143223915, 6078536.500677968375385, 0.0 ], [ 512557.648588690091856, 6078529.032321317121387, 0.0 ] ], [ [ 512557.648588335723616, 6078529.032321822829545, 0.0 ], [ 512666.022484946879558, 6078485.409974994137883, 0.0 ] ], [ [ 512666.02248316881014, 6078485.409974478185177, 0.0 ], [ 512804.821832040208392, 6078394.616388281807303, 0.0 ] ], [ [ 512804.821831679495517, 6078394.616387751884758, 0.0 ], [ 512863.166733025980648, 6078328.390118011273444, 0.0 ] ], [ [ 512863.16673259541858, 6078328.390118369832635, 0.0 ], [ 512874.943836209306028, 6078318.670938191004097, 0.0 ] ], [ [ 512874.943836613092571, 6078318.670938465744257, 0.0 ], [ 512959.381429068627767, 6078277.063726555556059, 0.0 ] ], [ [ 512959.381427523505408, 6078277.063726036809385, 0.0 ], [ 513012.082615057006478, 6078226.034241744317114, 0.0 ] ], [ [ 513012.08261636988027, 6078226.034242071211338, 0.0 ], [ 513014.054830142180435, 6078210.279763635247946, 0.0 ] ], [ [ 513014.054830146080349, 6078210.279764264822006, 0.0 ], [ 513032.092049526923802, 6078225.661663700826466, 0.0 ] ] ] } },
{ "type": "Feature", "properties": { "layer": "WBK_WEG_BEST" }, "geometry": { "type": "LineString", "coordinates": [ [ 513032.074433357222006, 6078225.646630366332829 ], [ 512998.228574165375903, 6078259.652457756921649 ], [ 512928.628623294702265, 6078306.641154629178345 ], [ 512873.030946011771448, 6078333.85533479694277 ], [ 512820.060239619808272, 6078395.775897189974785 ], [ 512671.549515499325935, 6078497.009851315058768 ], [ 512555.933858143223915, 6078536.500677968375385 ], [ 512557.648588335723616, 6078529.032321822829545 ], [ 512666.02248316881014, 6078485.409974478185177 ], [ 512804.821831679495517, 6078394.616387751884758 ], [ 512863.16673259541858, 6078328.390118369832635 ], [ 512874.943836613092571, 6078318.670938465744257 ], [ 512959.381427523505408, 6078277.063726036809385 ], [ 513012.08261636988027, 6078226.034242071211338 ], [ 513014.054830146080349, 6078210.279764264822006 ], [ 513032.092050992301665, 6078225.66166331525892 ] ] } },
{ "type": "Feature", "properties": { "layer": "WBK_WEG_BEST" }, "geometry": { "type": "Polygon", "coordinates": [ [ [ 513490.968840549117886, 6077091.36133861541748, 0.0 ], [ 513331.884409203601535, 6076896.413953226990998, 0.0 ], [ 513337.042348583810963, 6076893.189945952966809, 0.0 ], [ 513346.887956783815753, 6076904.604130608960986, 0.0 ], [ 513497.563333467987832, 6077086.304459591396153, 0.0 ], [ 513490.968840549117886, 6077091.36133861541748, 0.0 ] ] ] } },
{ "type": "Feature", "properties": { "layer": "WBK_WEG_BEST" }, "geometry": { "type": "LineString", "coordinates": [ [ 513490.968840549117886, 6077091.36133861541748 ], [ 513331.884408309473656, 6076896.413953675888479 ], [ 513337.042349625902716, 6076893.189945295453072 ], [ 513337.042349625902716, 6076893.189945295453072 ], [ 513346.887956201098859, 6076904.604131044819951 ], [ 513346.887956201098859, 6076904.604131044819951 ], [ 513497.563331930607092, 6077086.30445918533951 ], [ 513490.968840549117886, 6077091.36133861541748 ] ] } },
{ "type": "Feature", "properties": { "layer": "WBK_WEG_BEST" }, "geometry": { "type": "Polygon", "coordinates": [ [ [ 515440.450684176408686, 6072143.100236944854259, 0.0 ], [ 515639.401779758627526, 6072144.615632736124098, 0.0 ], [ 515768.153912252979353, 6072154.993965820409358, 0.0 ], [ 515871.303846314724069, 6072178.962107312865555, 0.0 ], [ 515880.560261725215241, 6072177.338060728274286, 0.0 ], [ 515923.001461038889829, 6072055.434654210694134, 0.0 ], [ 515923.146252442500554, 6072055.246540045365691, 0.0 ], [ 515925.211506055493373, 6072056.539146010763943, 0.0 ], [ 515918.704874478804413, 6072082.271049849689007, 0.0 ], [ 515891.181710926175583, 6072181.935959856957197, 0.0 ], [ 515873.123391415574588, 6072188.924019417725503, 0.0 ], [ 515763.918379062088206, 6072161.159638644196093, 0.0 ], [ 515440.925440727907699, 6072148.259045261889696, 0.0 ], [ 515440.450684176408686, 6072143.100236944854259, 0.0 ] ] ] } },
{ "type": "Feature", "properties": { "layer": "WBK_WEG_BEST" }, "geometry": { "type": "LineString", "coordinates": [ [ 515440.450684176408686, 6072143.100236944854259 ], [ 515639.401776592072565, 6072144.6156319770962 ], [ 515768.153918856172822, 6072154.993966381065547 ], [ 515871.303842765220907, 6072178.962106437422335 ], [ 515880.560263863997534, 6072177.338061407208443 ], [ 515923.001459554303437, 6072055.434654409997165 ], [ 515923.001459554303437, 6072055.434654409997165 ], [ 515923.146252797392663, 6072055.246540079824626 ], [ 515925.211506829597056, 6072056.539146237075329 ], [ 515918.704874307615682, 6072082.271049740724266 ], [ 515891.181709324184339, 6072181.935959478840232 ], [ 515873.123391592991538, 6072188.924018835648894 ], [ 515763.918375919223763, 6072161.159639295190573 ], [ 515440.925445976492483, 6072148.259045153856277 ], [ 515440.450684176408686, 6072143.100236944854259 ] ] } },
{ "type": "Feature", "properties": { "layer": "WBK_WEG_BEST" }, "geometry": { "type": "Polygon", "coordinates": [ [ [ 515923.158295322093181, 6072056.123518660664558, 0.0 ], [ 515925.224103728192858, 6072056.476899903267622, 0.0 ], [ 515927.07108940940816, 6072047.352764329873025, 0.0 ], [ 515931.046818807197269, 6071908.89702236559242, 0.0 ], [ 515935.709926484501921, 6071623.112079572863877, 0.0 ], [ 515935.521113694412634, 6071623.097251728177071, 0.0 ], [ 515925.462193143495824, 6071622.957341396249831, 0.0 ], [ 515922.397979357978329, 6071865.135187457315624, 0.0 ], [ 515923.064734284300357, 6072049.31141531188041, 0.0 ], [ 515923.158295322093181, 6072056.123518660664558, 0.0 ] ] ] } },
{ "type": "Feature", "properties": { "layer": "WBK_WEG_BEST" }, "geometry": { "type": "LineString", "coordinates": [ [ 515923.158295322093181, 6072056.123518660664558 ], [ 515925.224105524306651, 6072056.476899717003107 ], [ 515927.071087000484113, 6072047.352763841859996 ], [ 515931.046820749004837, 6071908.897022580727935 ], [ 515935.709927964722738, 6071623.112079521641135 ], [ 515935.521114130795468, 6071623.097252329811454 ], [ 515925.462190351972822, 6071622.95734039042145 ], [ 515925.462190351972822, 6071622.95734039042145 ], [ 515922.397981887508649, 6071865.135188401676714 ], [ 515923.064735185995232, 6072049.311414014548063 ], [ 515923.158295322093181, 6072056.123518660664558 ] ] } },
{ "type": "Feature", "properties": { "layer": "WBK_WEG_BEST" }, "geometry": { "type": "MultiLineString", "coordinates": [ [ [ 515935.520941601425875, 6071623.109449816867709, 0.0 ], [ 515940.45409336569719, 6071268.43964047729969, 0.0 ] ], [ [ 515940.454096030327491, 6071268.439641285687685, 0.0 ], [ 515979.324140826589428, 6071163.720198584720492, 0.0 ] ], [ [ 515979.324140052427538, 6071163.720198692753911, 0.0 ], [ 516090.557484597316943, 6071195.2927504517138, 0.0 ] ], [ [ 516090.557486875914037, 6071195.292750638909638, 0.0 ], [ 516092.149772597185802, 6071188.465471220202744, 0.0 ] ], [ [ 516092.149770492920652, 6071188.465470695868134, 0.0 ], [ 515972.663611083524302, 6071150.857079893350601, 0.0 ] ], [ [ 515972.663611086492892, 6071150.85708006285131, 0.0 ], [ 515930.807172467699274, 6071268.949697911739349, 0.0 ] ], [ [ 515930.807171411113814, 6071268.949697225354612, 0.0 ], [ 515925.46219129790552, 6071622.957340352237225, 0.0 ] ], [ [ 515925.462190351972822, 6071622.95734039042145, 0.0 ], [ 515935.709925611910876, 6071623.112078996375203, 0.0 ] ] ] } },
{ "type": "Feature", "properties": { "layer": "WBK_WEG_BEST" }, "geometry": { "type": "LineString", "coordinates": [ [ 515935.520941601425875, 6071623.109449816867709 ], [ 515940.454096030327491, 6071268.439641285687685 ], [ 515979.324140052427538, 6071163.720198692753911 ], [ 516090.557486875914037, 6071195.292750638909638 ], [ 516092.149770492920652, 6071188.465470695868134 ], [ 515972.663611086492892, 6071150.85708006285131 ], [ 515930.807171411113814, 6071268.949697225354612 ], [ 515925.462190351972822, 6071622.95734039042145 ], [ 515935.709927964722738, 6071623.112079521641135 ] ] } },
{ "type": "Feature", "properties": { "layer": "WBK_WEG_BEST" }, "geometry": { "type": "Polygon", "coordinates": [ [ [ 515923.99116034002509, 6070940.365255656652153, 0.0 ], [ 515968.275316669722088, 6070860.001092555932701, 0.0 ], [ 516025.09461823879974, 6070817.680558714084327, 0.0 ], [ 516118.974549177277368, 6070791.293937449343503, 0.0 ], [ 516113.318714877183083, 6070781.779280059970915, 0.0 ], [ 516005.308222941006534, 6070815.74294750392437, 0.0 ], [ 515962.367304880404845, 6070850.730700821615756, 0.0 ], [ 515919.762081721914001, 6070923.032414252869785, 0.0 ], [ 515913.232496319396887, 6070929.496285972185433, 0.0 ], [ 515923.99116034002509, 6070940.365255656652153, 0.0 ] ] ] } },
{ "type": "Feature", "properties": { "layer": "WBK_WEG_BEST" }, "geometry": { "type": "LineString", "coordinates": [ [ 515923.99116034002509, 6070940.365255656652153 ], [ 515968.275318891392089, 6070860.001091700047255 ], [ 516025.09461460087914, 6070817.680560204200447 ], [ 516118.974550139973871, 6070791.293936665169895 ], [ 516118.974550139973871, 6070791.293936665169895 ], [ 516118.974550139973871, 6070791.293936665169895 ], [ 516113.318712190492079, 6070781.779280597344041 ], [ 516113.318712190492079, 6070781.779280597344041 ], [ 516113.318712190492079, 6070781.779280597344041 ], [ 516005.308227300585713, 6070815.742947324179113 ], [ 515962.367301544814836, 6070850.730699994601309 ], [ 515919.762085791619029, 6070923.032414762303233 ], [ 515913.232492765120696, 6070929.496284939348698 ], [ 515923.99116034002509, 6070940.365255656652153 ] ] } },
{ "type": "Feature", "properties": { "layer": "WBK_WEG_BEST" }, "geometry": { "type": "MultiLineString", "coordinates": [ [ [ 516133.990392948617227, 6070739.083652072586119, 0.0 ], [ 516152.663241330592427, 6070594.56546550989151, 0.0 ] ], [ [ 516152.663237378990743, 6070594.565466351807117, 0.0 ], [ 516161.360133085225243, 6070588.557457706891, 0.0 ] ], [ [ 516161.360133210488129, 6070588.557456484995782, 0.0 ], [ 516205.938823651522398, 6070593.590137977153063, 0.0 ] ], [ [ 516205.938824527489487, 6070593.590138424187899, 0.0 ], [ 516207.713961288973223, 6070585.203113033436239, 0.0 ] ], [ [ 516207.713964381371625, 6070585.203112738206983, 0.0 ], [ 516145.169945584610105, 6070576.928182497620583, 0.0 ] ], [ [ 516145.169943773304112, 6070576.92818237002939, 0.0 ], [ 516123.887437639699783, 6070737.746639929711819, 0.0 ] ], [ [ 516123.88743794139009, 6070737.746640029363334, 0.0 ], [ 516133.994418505579233, 6070739.052477033808827, 0.0 ] ] ] } },
{ "type": "Feature", "properties": { "layer": "WBK_WEG_BEST" }, "geometry": { "type": "LineString", "coordinates": [ [ 516133.990392948617227, 6070739.083652072586119 ], [ 516152.663237378990743, 6070594.565466351807117 ], [ 516161.360133210488129, 6070588.557456484995782 ], [ 516205.938824527489487, 6070593.590138424187899 ], [ 516207.713964381371625, 6070585.203112738206983 ], [ 516145.169943773304112, 6070576.92818237002939 ], [ 516123.88743794139009, 6070737.746640029363334 ], [ 516133.994415488326922, 6070739.05247738212347 ] ] } },
{ "type": "Feature", "properties": { "layer": "WBK_WEG_BEST" }, "geometry": { "type": "Polygon", "coordinates": [ [ [ 516113.318712190492079, 6070781.779280597344041, 0.0 ], [ 516117.30666515690973, 6070779.150275670923293, 0.0 ], [ 516123.887435889104381, 6070737.7466398794204, 0.0 ], [ 516133.994418505812064, 6070739.052477033808827, 0.0 ], [ 516127.492653146910015, 6070789.375132776796818, 0.0 ], [ 516124.902294264291413, 6070789.958642521873116, 0.0 ], [ 516113.318712190492079, 6070781.779280597344041, 0.0 ] ] ] } },
{ "type": "Feature", "properties": { "layer": "WBK_WEG_BEST" }, "geometry": { "type": "LineString", "coordinates": [ [ 516113.318712190492079, 6070781.779280597344041 ], [ 516117.306667845696211, 6070779.15027450863272 ], [ 516123.88743794139009, 6070737.746640029363334 ], [ 516133.994415488326922, 6070739.05247738212347 ], [ 516127.492654787376523, 6070789.375133148394525 ], [ 516124.902295585314278, 6070789.958641663193703 ], [ 516113.318712190492079, 6070781.779280597344041 ] ] } },
{ "type": "Feature", "properties": { "layer": "WBK_WEG_BEST" }, "geometry": { "type": "Polygon", "coordinates": [ [ [ 516822.308272390684579, 6067428.342852719128132, 0.0 ], [ 516820.517674925911706, 6067440.746275240555406, 0.0 ], [ 516798.164213833108079, 6067715.404446992091835, 0.0 ], [ 516787.04414530179929, 6067860.710306279361248, 0.0 ], [ 516779.947254239290487, 6067860.260578392073512, 0.0 ], [ 516815.936516858811956, 6067425.835350177250803, 0.0 ], [ 516822.308272390684579, 6067428.342852719128132, 0.0 ] ] ] } },
{ "type": "Feature", "properties": { "layer": "WBK_WEG_BEST" }, "geometry": { "type": "LineString", "coordinates": [ [ 516822.308272390684579, 6067428.342852719128132 ], [ 516820.517673322814517, 6067440.746274974197149 ], [ 516798.164216501696501, 6067715.404447647742927 ], [ 516787.044143377919681, 6067860.710305551066995 ], [ 516787.044143377919681, 6067860.710305551066995 ], [ 516779.947255837381817, 6067860.260578817687929 ], [ 516779.947255837381817, 6067860.260578817687929 ], [ 516815.936516522720922, 6067425.83534996304661 ], [ 516822.308272390684579, 6067428.342852719128132 ] ] } },
{ "type": "Feature", "properties": { "layer": "WBK_WEG_BEST" }, "geometry": { "type": "Polygon", "coordinates": [ [ [ 516739.575278233794961, 6067364.648496647365391, 0.0 ], [ 516948.448416400875431, 6066623.359989440068603, 0.0 ], [ 517653.936487454571761, 6066814.752099381759763, 0.0 ], [ 517660.502381967904512, 6066806.029534077271819, 0.0 ], [ 516947.186123597377446, 6066610.940958259627223, 0.0 ], [ 516729.858546223782469, 6067365.044990736059844, 0.0 ], [ 516739.575278233794961, 6067364.648496647365391, 0.0 ] ] ] } },
{ "type": "Feature", "properties": { "layer": "WBK_WEG_BEST" }, "geometry": { "type": "LineString", "coordinates": [ [ 516739.575278233794961, 6067364.648496647365391 ], [ 516948.448415126127657, 6066623.359989890828729 ], [ 517653.936486537626479, 6066814.752099736593664 ], [ 517653.936486537626479, 6066814.752099736593664 ], [ 517660.502384619205259, 6066806.029534039087594 ], [ 517660.502384619205259, 6066806.029534039087594 ], [ 516947.186122662504204, 6066610.940958536230028 ], [ 516729.858546793519054, 6067365.044990845024586 ], [ 516739.575278233794961, 6067364.648496647365391 ] ] } },
{ "type": "Feature", "properties": { "layer": "WBK_WEG_BEST" }, "geometry": { "type": "MultiLineString", "coordinates": [ [ [ 518336.522712187026627, 6066010.590829606167972, 0.0 ], [ 518330.135364509711508, 6065996.606466813012958, 0.0 ] ], [ [ 518330.135364396381192, 6065996.606466718018055, 0.0 ], [ 518316.819475269818213, 6065661.37392102740705, 0.0 ] ], [ [ 518316.819474104675464, 6065661.373920377343893, 0.0 ], [ 518309.082197299576364, 6065660.27363184094429, 0.0 ] ], [ [ 518309.082197485025972, 6065660.273631979711354, 0.0 ], [ 518326.559828862489667, 6065997.74250244628638, 0.0 ] ], [ [ 518326.559828092111275, 6065997.742502559907734, 0.0 ], [ 518323.017823462723754, 6066009.381924570538104, 0.0 ] ], [ [ 518323.01782698527677, 6066009.3819241207093, 0.0 ], [ 518336.522757712577004, 6066010.590832420624793, 0.0 ] ] ] } },
{ "type": "Feature", "properties": { "layer": "WBK_WEG_BEST" }, "geometry": { "type": "LineString", "coordinates": [ [ 518336.522712187026627, 6066010.590829606167972 ], [ 518330.135364396381192, 6065996.606466718018055 ], [ 518316.819474104675464, 6065661.373920377343893 ], [ 518309.082197485025972, 6065660.273631979711354 ], [ 518326.559828092111275, 6065997.742502559907734 ], [ 518323.01782698527677, 6066009.3819241207093 ], [ 518336.522756436083, 6066010.590832925401628 ] ] } },
{ "type": "Feature", "properties": { "layer": "WBK_WEG_BEST" }, "geometry": { "type": "Polygon", "coordinates": [ [ [ 519561.966235458676238, 6065171.665025698952377, 0.0 ], [ 519717.313700490572955, 6065192.092114879749715, 0.0 ], [ 519709.384615320013836, 6065198.666989008896053, 0.0 ], [ 519575.474787193525117, 6065182.264204425737262, 0.0 ], [ 519561.966235458676238, 6065171.665025698952377, 0.0 ] ] ] } },
{ "type": "Feature", "properties": { "layer": "WBK_WEG_BEST" }, "geometry": { "type": "LineString", "coordinates": [ [ 519561.966235458676238, 6065171.665025698952377 ], [ 519717.313700567989144, 6065192.092114552855492 ], [ 519709.384618154901545, 6065198.666990069672465 ], [ 519575.474786299688276, 6065182.264203980565071 ], [ 519561.966235458676238, 6065171.665025698952377 ] ] } },
{ "type": "Feature", "properties": { "layer": "WBK_WEG_BEST" }, "geometry": { "type": "MultiLineString", "coordinates": [ [ [ 520155.321900487819221, 6064430.065570247359574, 0.0 ], [ 520133.123137282091193, 6064445.815454872325063, 0.0 ] ], [ [ 520133.123135598783847, 6064445.81545430328697, 0.0 ], [ 520124.667141529673245, 6064497.57400718331337, 0.0 ] ], [ [ 520124.667144536506385, 6064497.574007981456816, 0.0 ], [ 520115.555440433090553, 6064496.663693569600582, 0.0 ] ], [ [ 520115.555439932388254, 6064496.663693659007549, 0.0 ], [ 520116.603965868882369, 6064479.653455616906285, 0.0 ] ], [ [ 520116.603964962123428, 6064479.653454974293709, 0.0 ], [ 520107.345993490773253, 6064486.335896713659167, 0.0 ] ], [ [ 520107.345991355890874, 6064486.335896858945489, 0.0 ], [ 520105.648079476086423, 6064482.307341035455465, 0.0 ] ], [ [ 520105.648080609389581, 6064482.307342329062521, 0.0 ], [ 520117.164384043193422, 6064472.61865196377039, 0.0 ] ], [ [ 520117.164383285795338, 6064472.618650576099753, 0.0 ], [ 520122.574275309976656, 6064434.307872639037669, 0.0 ] ], [ [ 520122.574276250787079, 6064434.307872881181538, 0.0 ], [ 520118.914288921223488, 6064425.291922082193196, 0.0 ] ], [ [ 520118.914288402476814, 6064425.29192151594907, 0.0 ], [ 519394.083138034620788, 6064336.618566024117172, 0.0 ] ], [ [ 519394.08313676371472, 6064336.618567177094519, 0.0 ], [ 519415.917421861784533, 6064888.296641062945127, 0.0 ] ], [ [ 519415.917423433915246, 6064888.296641144901514, 0.0 ], [ 519539.309651488671079, 6065157.277502982877195, 0.0 ] ], [ [ 519539.309651607414708, 6065157.27750233374536, 0.0 ], [ 519524.569301195908338, 6065150.465148515067995, 0.0 ] ], [ [ 519524.569303654076066, 6065150.465148923918605, 0.0 ], [ 519408.522511955117807, 6064890.932734066620469, 0.0 ] ], [ [ 519408.522509644390084, 6064890.932733771391213, 0.0 ], [ 519386.751826674386393, 6064324.756513958796859, 0.0 ] ], [ [ 519386.751831009692978, 6064324.756513845175505, 0.0 ], [ 519398.576670095091686, 6064324.301823566667736, 0.0 ] ], [ [ 519398.576667899091262, 6064324.301823573186994, 0.0 ], [ 520156.748741983203217, 6064420.825780523940921, 0.0 ] ], [ [ 520156.748739004891831, 6064420.825780523940921, 0.0 ], [ 520155.330885962583125, 6064430.06850310228765, 0.0 ] ] ] } },
{ "type": "Feature", "properties": { "layer": "WBK_WEG_BEST" }, "geometry": { "type": "LineString", "coordinates": [ [ 520155.321900487819221, 6064430.065570247359574 ], [ 520133.123135598783847, 6064445.81545430328697 ], [ 520124.667144536506385, 6064497.574007981456816 ], [ 520115.555439932388254, 6064496.663693659007549 ], [ 520116.603964962123428, 6064479.653454974293709 ], [ 520107.345991355890874, 6064486.335896858945489 ], [ 520105.648080609389581, 6064482.307342329062521 ], [ 520117.164383285795338, 6064472.618650576099753 ], [ 520122.574276250787079, 6064434.307872881181538 ], [ 520118.914288402476814, 6064425.29192151594907 ], [ 519394.08313676371472, 6064336.618567177094519 ], [ 519415.917423433915246, 6064888.296641144901514 ], [ 519539.309651607414708, 6065157.27750233374536 ], [ 519524.569303654076066, 6065150.465148923918605 ], [ 519408.522509644390084, 6064890.932733771391213 ], [ 519386.751831009692978, 6064324.756513845175505 ], [ 519398.576667899091262, 6064324.301823573186994 ], [ 520156.748739004891831, 6064420.825780523940921 ], [ 520155.330884079681709, 6064430.068503121845424 ] ] } },
{ "type": "Feature", "properties": { "layer": "WBK_WEG_BEST" }, "geometry": { "type": "Polygon", "coordinates": [ [ [ 518196.143781888706144, 6066006.208746401593089, 0.0 ], [ 518197.741179278295022, 6065993.560033255256712, 0.0 ], [ 518323.017836190992966, 6066009.381924954243004, 0.0 ], [ 518336.522713502519764, 6066010.590828612446785, 0.0 ], [ 518718.011049079301301, 6066047.923149969428778, 0.0 ], [ 518704.622974410420284, 6066057.705365487374365, 0.0 ], [ 518196.143781888706144, 6066006.208746401593089, 0.0 ] ] ] } },
{ "type": "Feature", "properties": { "layer": "WBK_WEG_BEST" }, "geometry": { "type": "LineString", "coordinates": [ [ 518196.143781888706144, 6066006.208746401593089 ], [ 518197.74118014879059, 6065993.56003256700933 ], [ 518323.017835835693404, 6066009.381925227120519 ], [ 518336.522712187026627, 6066010.590829606167972 ], [ 518718.011049105494749, 6066047.923149524256587 ], [ 518704.622974780679215, 6066057.705364867113531 ], [ 518196.143781888706144, 6066006.208746401593089 ] ] } },
{ "type": "Feature", "properties": { "layer": "WBK_WEG_BEST" }, "geometry": { "type": "Polygon", "coordinates": [ [ [ 516787.1167801716947, 6067859.761188143864274, 0.0 ], [ 516777.982027697202284, 6067979.146554193459451, 0.0 ], [ 516847.73194376018364, 6068210.022349802777171, 0.0 ], [ 516835.211700317682698, 6068215.090979156084359, 0.0 ], [ 516767.757653143198695, 6067987.373056149110198, 0.0 ], [ 516779.947272984485608, 6067860.260324815288186, 0.0 ], [ 516787.1167801716947, 6067859.761188143864274, 0.0 ] ] ] } },
{ "type": "Feature", "properties": { "layer": "WBK_WEG_BEST" }, "geometry": { "type": "LineString", "coordinates": [ [ 516787.1167801716947, 6067859.761188143864274 ], [ 516777.982026977813803, 6067979.146554144099355 ], [ 516847.731942623620853, 6068210.022349992766976 ], [ 516835.211697712482419, 6068215.090979548171163 ], [ 516767.757654999382794, 6067987.373055362142622 ], [ 516779.94727353710914, 6067860.260324363596737 ], [ 516787.1167801716947, 6067859.761188143864274 ] ] } },
{ "type": "Feature", "properties": { "layer": "WBK_WEG_BEST" }, "geometry": { "type": "Polygon", "coordinates": [ [ [ 517214.955370219307952, 6068623.314008423127234, 0.0 ], [ 516965.22723428189056, 6068558.57594402693212, 0.0 ], [ 516802.026028883992694, 6068486.814518040977418, 0.0 ], [ 516696.767711532185785, 6068463.389897397719324, 0.0 ], [ 516695.076264971925411, 6068471.231078481301665, 0.0 ], [ 516793.260144309082534, 6068494.740512089803815, 0.0 ], [ 516990.411672309215646, 6068579.491125546395779, 0.0 ], [ 517210.101808891573455, 6068633.521403336897492, 0.0 ], [ 517214.955370219307952, 6068623.314008423127234, 0.0 ] ] ] } },
{ "type": "Feature", "properties": { "layer": "WBK_WEG_BEST" }, "geometry": { "type": "LineString", "coordinates": [ [ 517214.955370219307952, 6068623.314008423127234 ], [ 516965.227230597811285, 6068558.575943799689412 ], [ 516802.026028865016997, 6068486.814517707563937 ], [ 516696.767714895599056, 6068463.389897521585226 ], [ 516695.076260182599071, 6068471.231078340671957 ], [ 516793.260148842295166, 6068494.740512428805232 ], [ 516990.411669844004791, 6068579.491125570610166 ], [ 517210.101806922873948, 6068633.521403778344393 ], [ 517214.955370219307952, 6068623.314008423127234 ] ] } },
{ "type": "Feature", "properties": { "layer": "WBK_WEG_BEST" }, "geometry": { "type": "Polygon", "coordinates": [ [ [ 516304.696597849077079, 6069178.309382705017924, 0.0 ], [ 516185.640081263671163, 6069488.079850303009152, 0.0 ], [ 516179.337582558917347, 6069487.821268209256232, 0.0 ], [ 516300.72356604912784, 6069174.932468735612929, 0.0 ], [ 516304.696597849077079, 6069178.309382705017924, 0.0 ] ] ] } },
{ "type": "Feature", "properties": { "layer": "WBK_WEG_BEST" }, "geometry": { "type": "LineString", "coordinates": [ [ 516304.696597849077079, 6069178.309382705017924 ], [ 516185.640082005294971, 6069488.079849854111671 ], [ 516179.337579967977945, 6069487.821267371065915 ], [ 516300.723571094102226, 6069174.932469137944281 ], [ 516304.696597849077079, 6069178.309382705017924 ] ] } },
{ "type": "Feature", "properties": { "layer": "WBK_WEG_BEST" }, "geometry": { "type": "Polygon", "coordinates": [ [ [ 516478.534830824588425, 6069901.414783040992916, 0.0 ], [ 516478.316736941109411, 6069909.028662644326687, 0.0 ], [ 516389.751108139171265, 6069907.068237747065723, 0.0 ], [ 516375.797236964805052, 6069910.682297915220261, 0.0 ], [ 516372.838282083510421, 6069914.621286441572011, 0.0 ], [ 516357.046000997419469, 6069951.885035552084446, 0.0 ], [ 516343.614965728193056, 6069958.213752673007548, 0.0 ], [ 516153.205559530120809, 6070009.562939521856606, 0.0 ], [ 516151.251530908513814, 6070002.701004068367183, 0.0 ], [ 516340.419294307823293, 6069956.31250086799264, 0.0 ], [ 516356.391953201324213, 6069944.877069533802569, 0.0 ], [ 516364.282233015983365, 6069925.832099211402237, 0.0 ], [ 516373.756207925325725, 6069903.60036482103169, 0.0 ], [ 516392.882047233521007, 6069898.95975502487272, 0.0 ], [ 516478.534830824588425, 6069901.414783040992916, 0.0 ] ] ] } },
{ "type": "Feature", "properties": { "layer": "WBK_WEG_BEST" }, "geometry": { "type": "LineString", "coordinates": [ [ 516478.534830824588425, 6069901.414783040992916 ], [ 516478.316737859277055, 6069909.028662093915045 ], [ 516389.75110747339204, 6069907.068237933330238 ], [ 516375.797234697791282, 6069910.68229800183326 ], [ 516372.838283609191421, 6069914.621286419220269 ], [ 516357.046000508591533, 6069951.885035317391157 ], [ 516343.614964941516519, 6069958.213753142394125 ], [ 516153.205559052177705, 6070009.562939281575382 ], [ 516151.251528771419544, 6070002.701004241593182 ], [ 516340.419298439112026, 6069956.312501272186637 ], [ 516356.391950084478594, 6069944.877069698646665 ], [ 516364.28223645419348, 6069925.832098297774792 ], [ 516373.756204251083545, 6069903.600365154445171 ], [ 516392.882047355582472, 6069898.959754448384047 ], [ 516478.534830824588425, 6069901.414783040992916 ] ] } },
{ "type": "Feature", "properties": { "layer": "WBK_WEG_BEST" }, "geometry": { "type": "Polygon", "coordinates": [ [ [ 515438.775393231073394, 6072137.912137971259654, 0.0 ], [ 515425.16057735029608, 6072142.17242890316993, 0.0 ], [ 515596.444503768580034, 6072983.374501070939004, 0.0 ], [ 515610.926357275806367, 6072978.565622377209365, 0.0 ], [ 515438.775393231073394, 6072137.912137971259654, 0.0 ] ] ] } },
{ "type": "Feature", "properties": { "layer": "WBK_WEG_BEST" }, "geometry": { "type": "LineString", "coordinates": [ [ 515438.775393231073394, 6072137.912137971259654 ], [ 515425.16057587711839, 6072142.172429138794541 ], [ 515596.444506789499428, 6072983.374500153586268 ], [ 515610.926356665615458, 6072978.565622108057141 ], [ 515438.775393231073394, 6072137.912137971259654 ] ] } },
{ "type": "Feature", "properties": { "layer": "WBK_WEG_BEST" }, "geometry": { "type": "Polygon", "coordinates": [ [ [ 515215.679339853173587, 6073448.978504983708262, 0.0 ], [ 515321.087942836107686, 6073484.355072187259793, 0.0 ], [ 515319.329923499200959, 6073493.249880586750805, 0.0 ], [ 515212.04691741411807, 6073457.121966685168445, 0.0 ], [ 515215.679339853173587, 6073448.978504983708262, 0.0 ] ] ] } },
{ "type": "Feature", "properties": { "layer": "WBK_WEG_BEST" }, "geometry": { "type": "LineString", "coordinates": [ [ 515215.679339853173587, 6073448.978504983708262 ], [ 515321.087939899414778, 6073484.355072327889502 ], [ 515319.329925050784368, 6073493.249881655909121 ], [ 515212.046919287298806, 6073457.121966591104865 ], [ 515215.679339853173587, 6073448.978504983708262 ] ] } },
{ "type": "Feature", "properties": { "layer": "WBK_WEG_BEST" }, "geometry": { "type": "Polygon", "coordinates": [ [ [ 513801.947696291492321, 6076241.806011247448623, 0.0 ], [ 513732.146935304219369, 6076243.352845627814531, 0.0 ], [ 513732.10880445712246, 6076250.997368869371712, 0.0 ], [ 513793.978816453425679, 6076251.305987952277064, 0.0 ], [ 513801.947696291492321, 6076241.806011247448623, 0.0 ] ] ] } },
{ "type": "Feature", "properties": { "layer": "WBK_WEG_BEST" }, "geometry": { "type": "LineString", "coordinates": [ [ 513801.947696291492321, 6076241.806011247448623 ], [ 513732.146936764474958, 6076243.352845050394535 ], [ 513732.108802451926749, 6076250.997368805110455 ], [ 513793.978821397991851, 6076251.305988683365285 ], [ 513801.947696291492321, 6076241.806011247448623 ] ] } },
{ "type": "Feature", "properties": { "layer": "WBK_WEG_BEST" }, "geometry": { "type": "Polygon", "coordinates": [ [ [ 520107.345991355890874, 6064486.335896858945489, 0.0 ], [ 520100.143027119804174, 6064498.779971279203892, 0.0 ], [ 520091.173644615919329, 6064625.913230725564063, 0.0 ], [ 520085.189715177984908, 6064625.063346947543323, 0.0 ], [ 520096.673508656327613, 6064496.805305989459157, 0.0 ], [ 520105.648082120809704, 6064482.307340892963111, 0.0 ], [ 520107.345991355890874, 6064486.335896858945489, 0.0 ] ] ] } },
{ "type": "Feature", "properties": { "layer": "WBK_WEG_BEST" }, "geometry": { "type": "LineString", "coordinates": [ [ 520107.345991355890874, 6064486.335896858945489 ], [ 520100.143028507416602, 6064498.7799715641886 ], [ 520091.173643267771695, 6064625.913230542093515 ], [ 520085.189716986904386, 6064625.06334741320461 ], [ 520096.673509452491999, 6064496.805305280722678 ], [ 520105.648080609389581, 6064482.307342329062521 ], [ 520107.345991355890874, 6064486.335896858945489 ] ] } },
{ "type": "Feature", "properties": { "layer": "WBK_WEG_BEST" }, "geometry": { "type": "Polygon", "coordinates": [ [ [ 521069.168214615783654, 6063523.64876794628799, 0.0 ], [ 521067.208069784624968, 6063505.299887899309397, 0.0 ], [ 521309.141113477875479, 6063481.955579154193401, 0.0 ], [ 521749.203382284089457, 6063583.126041919924319, 0.0 ], [ 521746.7780854004086, 6063593.946922783739865, 0.0 ], [ 521299.306253558082972, 6063492.291562433354557, 0.0 ], [ 521082.562022434023675, 6063510.013787899166346, 0.0 ], [ 521069.168214615783654, 6063523.64876794628799, 0.0 ] ] ] } },
{ "type": "Feature", "properties": { "layer": "WBK_WEG_BEST" }, "geometry": { "type": "LineString", "coordinates": [ [ 521069.168214615783654, 6063523.64876794628799 ], [ 521067.208067067316733, 6063505.299887250177562 ], [ 521309.141114724217914, 6063481.955580148845911 ], [ 521749.203382500680164, 6063583.126041693612933 ], [ 521746.77808383241063, 6063593.946922629140317 ], [ 521299.306252342881635, 6063492.291562196798623 ], [ 521082.562026599422097, 6063510.013788241893053 ], [ 521069.168214615783654, 6063523.64876794628799 ] ] } },
{ "type": "Feature", "properties": { "layer": "WBK_WEG_BEST" }, "geometry": { "type": "MultiLineString", "coordinates": [ [ [ 521749.203382500680164, 6063583.126041693612933, 0.0 ], [ 521930.014968632603996, 6063626.680178936570883, 0.0 ] ], [ [ 521930.014967798022553, 6063626.680178578943014, 0.0 ], [ 521826.365137481072452, 6063160.625290165655315, 0.0 ] ], [ [ 521826.365140978305135, 6063160.625290609896183, 0.0 ], [ 521826.585109188512433, 6063155.831825913861394, 0.0 ] ], [ [ 521826.585105891921557, 6063155.831825048662722, 0.0 ], [ 521959.762753227725625, 6063139.726968634873629, 0.0 ] ], [ [ 521959.762751748028677, 6063139.726969273760915, 0.0 ], [ 521965.421993245312478, 6063148.090012925677001, 0.0 ] ], [ [ 521965.421994425880257, 6063148.090012430213392, 0.0 ], [ 521840.540039095270913, 6063162.248688432388008, 0.0 ] ], [ [ 521840.540041783184279, 6063162.248688399791718, 0.0 ], [ 521837.621091060573235, 6063166.537673911079764, 0.0 ] ], [ [ 521837.621089593099896, 6063166.537674111314118, 0.0 ], [ 521939.659253374615218, 6063635.376445123925805, 0.0 ] ], [ [ 521939.659255131380633, 6063635.376445253379643, 0.0 ], [ 521929.134378375019878, 6063642.174459331668913, 0.0 ] ], [ [ 521929.134376846777741, 6063642.174459761939943, 0.0 ], [ 521915.395671802572906, 6063631.419212733395398, 0.0 ] ], [ [ 521915.395669315184932, 6063631.419212657026947, 0.0 ], [ 521746.778083428100217, 6063593.946922798641026, 0.0 ] ], [ [ 521746.77808383241063, 6063593.946922629140317, 0.0 ], [ 521749.486317316011991, 6063583.197323994711041, 0.0 ] ] ] } },
{ "type": "Feature", "properties": { "layer": "WBK_WEG_BEST" }, "geometry": { "type": "LineString", "coordinates": [ [ 521749.203382500680164, 6063583.126041693612933 ], [ 521930.014967798022553, 6063626.680178578943014 ], [ 521826.365140978305135, 6063160.625290609896183 ], [ 521826.585105891921557, 6063155.831825048662722 ], [ 521959.762751748028677, 6063139.726969273760915 ], [ 521965.421994425880257, 6063148.090012430213392 ], [ 521840.540041783184279, 6063162.248688399791718 ], [ 521837.621089593099896, 6063166.537674111314118 ], [ 521939.659255131380633, 6063635.376445253379643 ], [ 521929.134376846777741, 6063642.174459761939943 ], [ 521915.395669315184932, 6063631.419212657026947 ], [ 521746.77808383241063, 6063593.946922629140317 ], [ 521749.486315903195646, 6063583.197324116714299 ] ] } },
{ "type": "Feature", "properties": { "layer": "WBK_WEG_BEST" }, "geometry": { "type": "Polygon", "coordinates": [ [ [ 522708.713825726881623, 6063230.623713210225105, 0.0 ], [ 522758.523096691293176, 6063175.242824207060039, 0.0 ], [ 522846.498433451110031, 6062858.535694631747901, 0.0 ], [ 522827.139762961189263, 6062808.185202470049262, 0.0 ], [ 522824.699227243312635, 6062660.115252276882529, 0.0 ], [ 522818.784424927318469, 6062664.666352394036949, 0.0 ], [ 522816.758603963186033, 6062809.734755191020668, 0.0 ], [ 522838.411425244587008, 6062847.739827629178762, 0.0 ], [ 522838.171485342900269, 6062856.246764067560434, 0.0 ], [ 522755.508536625886336, 6063162.375440406613052, 0.0 ], [ 522704.795803086599335, 6063222.707797998562455, 0.0 ], [ 522708.713825726881623, 6063230.623713210225105, 0.0 ] ] ] } },
{ "type": "Feature", "properties": { "layer": "WBK_WEG_BEST" }, "geometry": { "type": "LineString", "coordinates": [ [ 522708.713825726881623, 6063230.623713210225105 ], [ 522758.523095921671484, 6063175.242823377251625 ], [ 522846.822884746128693, 6062851.05324993096292 ], [ 522827.139763564511668, 6062808.185201642103493 ], [ 522824.699226079799701, 6062660.115252174437046 ], [ 522818.784427309583407, 6062664.666352700442076 ], [ 522816.758602252171841, 6062809.734754485078156 ], [ 522838.411430074716918, 6062847.739827669225633 ], [ 522838.171481252415106, 6062856.246764066629112 ], [ 522755.508536037115846, 6063162.375441215932369 ], [ 522704.795804648892954, 6063222.707797319628298 ], [ 522708.713825726881623, 6063230.623713210225105 ] ] } },
{ "type": "Feature", "properties": { "layer": "WBK_WEG_BEST" }, "geometry": { "type": "Polygon", "coordinates": [ [ [ 523396.043866156891454, 6061559.664635222405195, 0.0 ], [ 523545.101015324820764, 6061592.394505470059812, 0.0 ], [ 523593.986431885394268, 6061617.052893954329193, 0.0 ], [ 523735.363672461826354, 6061750.777589716017246, 0.0 ], [ 523720.637949375202879, 6061945.875209723599255, 0.0 ], [ 523717.382560328871477, 6061946.302039597183466, 0.0 ], [ 523728.255744576686993, 6061754.315259397961199, 0.0 ], [ 523592.31909598648781, 6061625.261962603777647, 0.0 ], [ 523569.951556622807402, 6061610.549202552996576, 0.0 ], [ 523392.347507285594475, 6061567.699227789416909, 0.0 ], [ 523396.043866156891454, 6061559.664635222405195, 0.0 ] ] ] } },
{ "type": "Feature", "properties": { "layer": "WBK_WEG_BEST" }, "geometry": { "type": "LineString", "coordinates": [ [ 523396.043866156891454, 6061559.664635222405195 ], [ 523545.101016000495292, 6061592.394505793228745 ], [ 523593.986430926306639, 6061617.052894081920385 ], [ 523735.363674446882214, 6061750.777590011246502 ], [ 523722.063792602624744, 6061945.688260394148529 ], [ 523717.382560186611954, 6061946.302039545960724 ], [ 523728.255744102527387, 6061754.31525912322104 ], [ 523592.319096930383239, 6061625.261963048018515 ], [ 523569.951555394276511, 6061610.549202592112124 ], [ 523392.34751131379744, 6061567.699227071367204 ], [ 523396.043866156891454, 6061559.664635222405195 ] ] } },
{ "type": "Feature", "properties": { "layer": "WBK_WEG_BEST" }, "geometry": { "type": "MultiLineString", "coordinates": [ [ [ 526197.538952801376581, 6060540.340621742419899, 0.0 ], [ 526226.78791718906723, 6060297.144831461831927, 0.0 ] ], [ [ 526226.787915365421213, 6060297.1448312709108, 0.0 ], [ 526237.534851370262913, 6060290.511550348252058, 0.0 ] ], [ [ 526237.534851945703849, 6060290.511549443006516, 0.0 ], [ 526296.263525820453651, 6060300.905499313957989, 0.0 ] ], [ [ 526296.263526085298508, 6060300.905499421060085, 0.0 ], [ 526296.98579527658876, 6060295.35261832177639, 0.0 ] ], [ [ 526296.985794701729901, 6060295.352619212120771, 0.0 ], [ 525999.488766687456518, 6060225.750041195191443, 0.0 ] ], [ [ 525999.488766760216095, 6060225.750040959566832, 0.0 ], [ 525997.91414415766485, 6060233.677010427229106, 0.0 ] ], [ [ 525997.914142867550254, 6060233.677009467966855, 0.0 ], [ 526211.914523488259874, 6060286.848738194443285, 0.0 ] ], [ [ 526211.9145226853434, 6060286.848738893866539, 0.0 ], [ 526217.537563027814031, 6060300.123101986944675, 0.0 ] ], [ [ 526217.537565530627035, 6060300.123102364130318, 0.0 ], [ 526189.601717161829583, 6060545.92312725353986, 0.0 ] ], [ [ 526189.601717001642101, 6060545.923127698712051, 0.0 ], [ 526196.950870362459682, 6060540.754237904213369, 0.0 ] ] ] } },
{ "type": "Feature", "properties": { "layer": "WBK_WEG_BEST" }, "geometry": { "type": "LineString", "coordinates": [ [ 526197.538952801376581, 6060540.340621742419899 ], [ 526226.787915365421213, 6060297.1448312709108 ], [ 526237.534851945703849, 6060290.511549443006516 ], [ 526296.263526085298508, 6060300.905499421060085 ], [ 526296.985794701729901, 6060295.352619212120771 ], [ 525999.488766760216095, 6060225.750040959566832 ], [ 525997.914142867550254, 6060233.677009467966855 ], [ 526211.9145226853434, 6060286.848738893866539 ], [ 526217.537565530627035, 6060300.123102364130318 ], [ 526189.601717001642101, 6060545.923127698712051 ], [ 526196.95086962915957, 6060540.754236872307956 ] ] } },
{ "type": "Feature", "properties": { "layer": "WBK_WEG_BEST" }, "geometry": { "type": "Polygon", "coordinates": [ [ [ 525655.803389562061056, 6060529.935133718885481, 0.0 ], [ 525669.86554167245049, 6060425.536581479944289, 0.0 ], [ 525669.905258720857091, 6060380.383926897309721, 0.0 ], [ 525696.949922945466824, 6060200.439134664833546, 0.0 ], [ 525701.974840478971601, 6060193.910784211009741, 0.0 ], [ 525857.685712075908668, 6060203.03310521133244, 0.0 ], [ 525975.638963695149869, 6060227.919174199923873, 0.0 ], [ 525977.1572362894658, 6060220.957218991592526, 0.0 ], [ 525858.954645025776699, 6060194.616161484271288, 0.0 ], [ 525691.181340199545957, 6060183.108670644462109, 0.0 ], [ 525660.588396883453242, 6060390.529908359982073, 0.0 ], [ 525658.640762588940561, 6060446.989488778635859, 0.0 ], [ 525648.235296927043237, 6060527.713211972266436, 0.0 ], [ 525654.893682294990867, 6060529.812598469667137, 0.0 ], [ 525655.803389562061056, 6060529.935133718885481, 0.0 ] ] ] } },
{ "type": "Feature", "properties": { "layer": "WBK_WEG_BEST" }, "geometry": { "type": "LineString", "coordinates": [ [ 525655.803389562061056, 6060529.935133718885481 ], [ 525669.865542621701024, 6060425.53658158518374 ], [ 525669.905260124825872, 6060380.383927377872169 ], [ 525696.949925523018464, 6060200.439134283922613 ], [ 525701.974840877112001, 6060193.910784544423223 ], [ 525857.685710107092746, 6060203.033105500973761 ], [ 525975.638962471508421, 6060227.91917341016233 ], [ 525977.15723500715103, 6060220.957219317555428 ], [ 525858.954646981786937, 6060194.616160713136196 ], [ 525691.181341469869949, 6060183.10867174807936 ], [ 525660.588393073761836, 6060390.529908642172813 ], [ 525658.640765703981742, 6060446.989488980732858 ], [ 525648.23529741470702, 6060527.713211172260344 ], [ 525654.893678834545426, 6060529.812598133459687 ], [ 525655.803389562061056, 6060529.935133718885481 ] ] } },
{ "type": "Feature", "properties": { "layer": "WBK_WEG_BEST" }, "geometry": { "type": "Polygon", "coordinates": [ [ [ 526333.024238821701147, 6060070.835131766274571, 0.0 ], [ 526337.822696947609074, 6060070.015107901766896, 0.0 ], [ 526363.408043030649424, 6060076.431897821836174, 0.0 ], [ 526381.218141353805549, 6059957.169556704349816, 0.0 ], [ 526371.937066057696939, 6059945.408511164598167, 0.0 ], [ 526358.38399527897127, 6060062.5870356047526, 0.0 ], [ 526353.486052851076238, 6060065.506044250912964, 0.0 ], [ 526330.379596113460138, 6060061.414443923160434, 0.0 ], [ 526332.620339643443003, 6060071.140526999719441, 0.0 ], [ 526333.024238821701147, 6060070.835131766274571, 0.0 ] ] ] } },
{ "type": "Feature", "properties": { "layer": "WBK_WEG_BEST" }, "geometry": { "type": "LineString", "coordinates": [ [ 526333.024238821701147, 6060070.835131766274571 ], [ 526337.822698537027463, 6060070.015107627958059 ], [ 526363.408040236565284, 6060076.431897931732237 ], [ 526381.218145171529613, 6059957.169556420296431 ], [ 526371.937065788777545, 6059945.408511609770358 ], [ 526358.383997037191875, 6060062.587035827338696 ], [ 526353.486054439796135, 6060065.506043509580195 ], [ 526330.379592469078489, 6060061.414444347843528 ], [ 526332.620339717599563, 6060071.140527221374214 ], [ 526333.024238821701147, 6060070.835131766274571 ] ] } },
{ "type": "Feature", "properties": { "layer": "WBK_WEG_BEST" }, "geometry": { "type": "Polygon", "coordinates": [ [ [ 526940.63693528145086, 6058851.693645314313471, 0.0 ], [ 526921.01498129661195, 6058835.110895466990769, 0.0 ], [ 526916.817092215176672, 6058847.34582809638232, 0.0 ], [ 526915.237143866368569, 6058854.033786971122026, 0.0 ], [ 526924.803203142248094, 6058875.224564570002258, 0.0 ], [ 526955.88006862194743, 6058891.887242280878127, 0.0 ], [ 527077.623043096042238, 6059035.736376355402172, 0.0 ], [ 527102.515572167932987, 6059069.060019008815289, 0.0 ], [ 526885.307217754656449, 6059497.922067214734852, 0.0 ], [ 526887.637966378824785, 6059508.684950201772153, 0.0 ], [ 527110.999785763444379, 6059068.725016706623137, 0.0 ], [ 527077.041926207602955, 6059016.958023318089545, 0.0 ], [ 526960.717973695369437, 6058881.821289206854999, 0.0 ], [ 526932.610073293326423, 6058864.088601027615368, 0.0 ], [ 526930.411052143550478, 6058858.481657867319882, 0.0 ], [ 526930.163860517321154, 6058852.107455964200199, 0.0 ], [ 526940.63693528145086, 6058851.693645314313471, 0.0 ] ] ] } },
{ "type": "Feature", "properties": { "layer": "WBK_WEG_BEST" }, "geometry": { "type": "LineString", "coordinates": [ [ 526940.63693528145086, 6058851.693645314313471 ], [ 526921.014983241795562, 6058835.110895366407931 ], [ 526916.817089770920575, 6058847.345828232355416 ], [ 526915.237143257749267, 6058854.03378683142364 ], [ 526924.803201803937554, 6058875.224564991891384 ], [ 526955.880071324063465, 6058891.887241902761161 ], [ 527077.62304205505643, 6059035.736376919783652 ], [ 527102.515571908443235, 6059069.060018690302968 ], [ 526885.307217843248509, 6059497.922067110426724 ], [ 526887.637966336566024, 6059508.684949970804155 ], [ 527110.999783625127748, 6059068.725016397424042 ], [ 527077.04193222138565, 6059016.958024373278022 ], [ 526960.717969553661533, 6058881.821288775652647 ], [ 526932.610070531023666, 6058864.088601142168045 ], [ 526930.411058490746655, 6058858.481657670810819 ], [ 526930.163855917751789, 6058852.107455293647945 ], [ 526940.63693528145086, 6058851.693645314313471 ], [ 526921.014983241795562, 6058835.110895366407931 ] ] } },
{ "type": "Feature", "properties": { "layer": "WBK_WEG_BEST" }, "geometry": { "type": "Polygon", "coordinates": [ [ [ 527455.214914960903116, 6032650.112301925197244, 0.0 ], [ 527457.902078354149126, 6032640.94522466044873, 0.0 ], [ 528099.774024283746257, 6032829.098410707898438, 0.0 ], [ 528099.774195890291594, 6032856.13339164480567, 0.0 ], [ 527852.099848683224991, 6033041.209452047012746, 0.0 ], [ 527341.597561982809566, 6033184.396280617453158, 0.0 ], [ 527341.597492195433006, 6033173.331481379456818, 0.0 ], [ 527848.667104589869268, 6033030.824244717136025, 0.0 ], [ 528093.477410148829222, 6032860.838703379966319, 0.0 ], [ 528089.244055922143161, 6032841.93269812501967, 0.0 ], [ 527455.214914960903116, 6032650.112301925197244, 0.0 ] ] ] } },
{ "type": "Feature", "properties": { "layer": "WBK_WEG_BEST" }, "geometry": { "type": "LineString", "coordinates": [ [ 527455.214914960903116, 6032650.112301925197244 ], [ 527457.90207876265049, 6032640.945224525406957 ], [ 528099.774026089231484, 6032829.0984095800668 ], [ 528102.588754674536176, 6032859.836006933823228 ], [ 527852.099847381818108, 6033041.209452919661999 ], [ 527341.597561690956354, 6033184.396280894055963 ], [ 527341.597492194618098, 6033173.331481004133821 ], [ 527848.667108045425266, 6033030.824245393276215 ], [ 528092.973911920096725, 6032858.590105094946921 ], [ 528089.244052272406407, 6032841.932698553428054 ], [ 527455.214914960903116, 6032650.112301925197244 ] ] } },
{ "type": "Feature", "properties": { "layer": "WBK_WEG_BEST" }, "geometry": { "type": "Polygon", "coordinates": [ [ [ 527427.552314821514301, 6033712.955977745354176, 0.0 ], [ 527427.552395121660084, 6033725.741000056266785, 0.0 ], [ 527571.946165263769217, 6033705.873125170357525, 0.0 ], [ 527671.568260831874795, 6033683.028674296103418, 0.0 ], [ 527675.996329417685047, 6033699.511520784348249, 0.0 ], [ 527689.157698620343581, 6033881.366342384368181, 0.0 ], [ 527701.69183599401731, 6033880.414206423796713, 0.0 ], [ 527690.060633232933469, 6033685.092042961157858, 0.0 ], [ 527676.402593442122452, 6033668.169657524675131, 0.0 ], [ 527557.592213161056861, 6033695.958291428163648, 0.0 ], [ 527427.552314821514301, 6033712.955977745354176, 0.0 ] ] ] } },
{ "type": "Feature", "properties": { "layer": "WBK_WEG_BEST" }, "geometry": { "type": "LineString", "coordinates": [ [ 527427.552314821514301, 6033712.955977745354176 ], [ 527427.552395120961592, 6033725.741000187583268 ], [ 527571.946166738751344, 6033705.87312517222017 ], [ 527671.568259781342931, 6033683.028674742206931 ], [ 527675.996329971007071, 6033699.511520662344992 ], [ 527689.157695851172321, 6033881.366342166438699 ], [ 527701.691840227111243, 6033880.414206922054291 ], [ 527690.060632507200353, 6033685.09204214066267 ], [ 527676.402592045604251, 6033668.169657962396741 ], [ 527557.592211137874983, 6033695.958291361108422 ], [ 527427.552314821514301, 6033712.955977745354176 ] ] } },
{ "type": "Feature", "properties": { "layer": "WBK_WEG_BEST" }, "geometry": { "type": "Polygon", "coordinates": [ [ [ 527545.796844146447256, 6034418.821832835674286, 0.0 ], [ 527548.276511200238019, 6034426.010413516312838, 0.0 ], [ 527481.361997506814077, 6034444.334543633274734, 0.0 ], [ 527110.179251772235148, 6034669.744149474427104, 0.0 ], [ 526730.606734844157472, 6034652.942913471721113, 0.0 ], [ 526730.606670789653435, 6034642.181961759924889, 0.0 ], [ 527097.663810624042526, 6034663.252777528017759, 0.0 ], [ 527475.173509120126255, 6034438.977123003453016, 0.0 ], [ 527545.796844146447256, 6034418.821832835674286, 0.0 ] ] ] } },
{ "type": "Feature", "properties": { "layer": "WBK_WEG_BEST" }, "geometry": { "type": "LineString", "coordinates": [ [ 527545.796844146447256, 6034418.821832835674286 ], [ 527548.276511189644225, 6034426.010414862073958 ], [ 527481.361995289684273, 6034444.334543239325285 ], [ 527110.179252080852166, 6034669.744149294681847 ], [ 526730.606738376547582, 6034652.942913857288659 ], [ 526730.606670788605697, 6034642.181961319409311 ], [ 527097.663806901895441, 6034663.252777653746307 ], [ 527475.173512417008169, 6034438.977122846990824 ], [ 527545.796844146447256, 6034418.821832835674286 ] ] } },
{ "type": "Feature", "properties": { "layer": "WBK_WEG_BEST" }, "geometry": { "type": "Polygon", "coordinates": [ [ [ 526747.950125842122361, 6035242.824539155699313, 0.0 ], [ 527091.219436110462993, 6035232.85245945956558, 0.0 ], [ 527304.600228738738224, 6035140.330826094374061, 0.0 ], [ 527449.334996285615489, 6035138.548476908355951, 0.0 ], [ 527449.397777228150517, 6035145.680855707265437, 0.0 ], [ 527316.099170499714091, 6035146.537707370705903, 0.0 ], [ 527099.376431912882254, 6035241.953337164595723, 0.0 ], [ 526746.261207645991817, 6035253.880464357323945, 0.0 ], [ 526747.950125842122361, 6035242.824539155699313, 0.0 ] ] ] } },
{ "type": "Feature", "properties": { "layer": "WBK_WEG_BEST" }, "geometry": { "type": "LineString", "coordinates": [ [ 526747.950125842122361, 6035242.824539155699313 ], [ 527091.219439146458171, 6035232.852458218112588 ], [ 527304.600225280621089, 6035140.33082661498338 ], [ 527449.334998383536004, 6035138.548477480188012 ], [ 527449.397773107863031, 6035145.680855616927147 ], [ 527316.099174009053968, 6035146.537706199102104 ], [ 527099.376430283533409, 6035241.953337782993913 ], [ 526746.26120491034817, 6035253.880464575253427 ], [ 526747.950125842122361, 6035242.824539155699313 ] ] } },
{ "type": "Feature", "properties": { "layer": "WBK_WEG_BEST" }, "geometry": { "type": "Polygon", "coordinates": [ [ [ 527644.442528263782151, 6035762.263932560570538, 0.0 ], [ 527643.622484384803101, 6035754.277998830191791, 0.0 ], [ 527683.410681539447978, 6035436.162183279171586, 0.0 ], [ 527702.742830915143713, 6035403.773809530772269, 0.0 ], [ 527722.622886198456399, 6035278.283145564608276, 0.0 ], [ 527736.956539746257477, 6035240.508343634195626, 0.0 ], [ 527825.470113995019346, 6035121.321700285188854, 0.0 ], [ 527905.14813157916069, 6035061.161660633049905, 0.0 ], [ 527890.243224974023178, 6035058.883771004155278, 0.0 ], [ 527823.900059491512366, 6035110.125795840285718, 0.0 ], [ 527792.423519786447287, 6035144.703728210180998, 0.0 ], [ 527744.923286801204085, 6035209.510531214997172, 0.0 ], [ 527712.606924444669858, 6035271.397260621190071, 0.0 ], [ 527695.865825045388192, 6035394.758421204984188, 0.0 ], [ 527671.040724763879552, 6035428.511319695040584, 0.0 ], [ 527633.702500465209596, 6035761.058045713230968, 0.0 ], [ 527644.442528263782151, 6035762.263932560570538, 0.0 ] ] ] } },
{ "type": "Feature", "properties": { "layer": "WBK_WEG_BEST" }, "geometry": { "type": "LineString", "coordinates": [ [ 527644.442528263782151, 6035762.263932560570538 ], [ 527643.622484076884575, 6035754.277998588047922 ], [ 527683.410682293237187, 6035436.162183078937232 ], [ 527702.742826530011371, 6035403.773810027167201 ], [ 527722.622886698343791, 6035278.283144566230476 ], [ 527736.956539994454943, 6035240.508344068191946 ], [ 527825.470119225559756, 6035121.321700661443174 ], [ 527905.148125212057494, 6035061.161659955047071 ], [ 527890.243229910847731, 6035058.883771315217018 ], [ 527823.900061714812182, 6035110.125795140862465 ], [ 527792.423516232171096, 6035144.703728850930929 ], [ 527744.923288424150087, 6035209.510531277395785 ], [ 527712.606922111823224, 6035271.397260162048042 ], [ 527695.865822777384892, 6035394.758422088809311 ], [ 527671.040727864950895, 6035428.511319329962134 ], [ 527633.702503576059826, 6035761.05804552976042 ], [ 527644.442528263782151, 6035762.263932560570538 ] ] } },
{ "type": "Feature", "properties": { "layer": "WBK_WEG_BEST" }, "geometry": { "type": "Polygon", "coordinates": [ [ [ 527375.287296685390174, 6036511.864886253140867, 0.0 ], [ 527356.819949393393472, 6036513.675988380797207, 0.0 ], [ 527566.418469788390212, 6036135.781564097851515, 0.0 ], [ 527551.961815000278875, 6036132.773142359219491, 0.0 ], [ 527552.525116901379079, 6036130.066251644864678, 0.0 ], [ 527575.054403715301305, 6036135.991508571431041, 0.0 ], [ 527374.24828768579755, 6036509.266913125291467, 0.0 ], [ 527375.287296685390174, 6036511.864886253140867, 0.0 ] ] ] } },
{ "type": "Feature", "properties": { "layer": "WBK_WEG_BEST" }, "geometry": { "type": "LineString", "coordinates": [ [ 527375.287296685390174, 6036511.864886253140867 ], [ 527356.819947371259332, 6036513.675988458096981 ], [ 527566.418471174314618, 6036135.781563691794872 ], [ 527551.961814680253156, 6036132.773141947574914 ], [ 527552.525114535586908, 6036130.066252781078219 ], [ 527575.054406403680332, 6036135.991508639417589 ], [ 527374.248287037480623, 6036509.266911608166993 ], [ 527375.287296685390174, 6036511.864886253140867 ], [ 527375.287296685390174, 6036511.864886253140867 ] ] } },
{ "type": "Feature", "properties": { "layer": "WBK_WEG_BEST" }, "geometry": { "type": "Polygon", "coordinates": [ [ [ 528025.813553975545801, 6036549.515512008219957, 0.0 ], [ 528029.547064885380678, 6036765.085750387050211, 0.0 ], [ 527913.458709410042502, 6036893.556704955175519, 0.0 ], [ 527904.092091972706839, 6036892.469101169146597, 0.0 ], [ 527904.092054707696661, 6036886.820200873538852, 0.0 ], [ 528023.663897520978935, 6036761.262440582737327, 0.0 ], [ 528017.886626565363258, 6036551.404547354206443, 0.0 ], [ 528014.957625454175286, 6036548.096591455861926, 0.0 ], [ 528025.813553975545801, 6036549.515512008219957, 0.0 ] ] ] } },
{ "type": "Feature", "properties": { "layer": "WBK_WEG_BEST" }, "geometry": { "type": "LineString", "coordinates": [ [ 528025.813553975545801, 6036549.515512008219957 ], [ 528029.547065947437659, 6036765.08575055655092 ], [ 527913.458707283716649, 6036893.556704723276198 ], [ 527904.092090187012218, 6036892.469100878573954 ], [ 527904.092054707347415, 6036886.820200849324465 ], [ 528023.663900432526134, 6036761.262440973892808 ], [ 528017.886623816331849, 6036551.404547742567956 ], [ 528014.957626919960603, 6036548.096591806039214 ], [ 528025.813553975545801, 6036549.515512008219957 ] ] } },
{ "type": "Feature", "properties": { "layer": "WBK_WEG_BEST" }, "geometry": { "type": "Polygon", "coordinates": [ [ [ 527454.636202201596461, 6037708.394230580888689, 0.0 ], [ 527453.328037428320386, 6037700.641090178862214, 0.0 ], [ 527803.404103113687597, 6037639.724565029144287, 0.0 ], [ 527788.641371687524952, 6037664.614466987550259, 0.0 ], [ 527627.247945384006016, 6038037.088630824349821, 0.0 ], [ 527626.085894761723466, 6038027.207713612355292, 0.0 ], [ 527783.692375073907897, 6037659.107540437951684, 0.0 ], [ 527783.122364991460927, 6037657.193559242412448, 0.0 ], [ 527777.568884430453181, 6037653.395623560994864, 0.0 ], [ 527454.636202201596461, 6037708.394230580888689, 0.0 ] ] ] } },
{ "type": "Feature", "properties": { "layer": "WBK_WEG_BEST" }, "geometry": { "type": "LineString", "coordinates": [ [ 527454.636202201596461, 6037708.394230580888689 ], [ 527453.328038822626695, 6037700.641089634969831 ], [ 527803.404102377477102, 6037639.724564752541482 ], [ 527788.641370767261833, 6037664.614467749372125 ], [ 527627.247947929077782, 6038037.088630693033338 ], [ 527626.085893235984258, 6038027.207713202573359 ], [ 527783.692372648394667, 6037659.107541012577713 ], [ 527783.122365782852285, 6037657.193559614010155 ], [ 527777.568883206811734, 6037653.395623154938221 ], [ 527454.636202201596461, 6037708.394230580888689 ] ] } },
{ "type": "Feature", "properties": { "layer": "WBK_WEG_BEST" }, "geometry": { "type": "Polygon", "coordinates": [ [ [ 527279.667803146527149, 6039182.793045778758824, 0.0 ], [ 527456.841417391900904, 6039178.045969312079251, 0.0 ], [ 527481.252167403348722, 6039167.887893167324364, 0.0 ], [ 527702.774780657724477, 6039217.292123796418309, 0.0 ], [ 527702.442254926310852, 6039212.267664331011474, 0.0 ], [ 527483.950029260711744, 6039160.143943175673485, 0.0 ], [ 527454.34938283986412, 6039172.100645503029227, 0.0 ], [ 527279.257771398872137, 6039177.725086892955005, 0.0 ], [ 527279.667803146527149, 6039182.793045778758824, 0.0 ] ] ] } },
{ "type": "Feature", "properties": { "layer": "WBK_WEG_BEST" }, "geometry": { "type": "LineString", "coordinates": [ [ 527279.667803146527149, 6039182.793045778758824 ], [ 527456.841418025782332, 6039178.045968744903803 ], [ 527481.252165708574466, 6039167.887893239036202 ], [ 527702.774783938657492, 6039217.292123788967729 ], [ 527702.442255049012601, 6039212.267665137536824 ], [ 527483.950025745551102, 6039160.143943004310131 ], [ 527454.349380956613459, 6039172.100645123049617 ], [ 527279.25777652731631, 6039177.725087122060359 ], [ 527279.667803146527149, 6039182.793045778758824 ] ] } },
{ "type": "Feature", "properties": { "layer": "WBK_WEG_BEST" }, "geometry": { "type": "Polygon", "coordinates": [ [ [ 528015.25090897618793, 6041051.550123515538871, 0.0 ], [ 528013.834964610054158, 6041058.682077825069427, 0.0 ], [ 528000.122233088128269, 6041084.534966627135873, 0.0 ], [ 527923.058585796621628, 6041524.823080841451883, 0.0 ], [ 527910.504955601645634, 6041576.695787731558084, 0.0 ], [ 527904.21514286659658, 6041749.267481550574303, 0.0 ], [ 527919.767790584010072, 6042030.565230675972998, 0.0 ], [ 527909.224347351700999, 6042032.145284700207412, 0.0 ], [ 527896.710985107929446, 6041605.756674854084849, 0.0 ], [ 527876.342399599147029, 6041597.381818791851401, 0.0 ], [ 527876.342350367689505, 6041589.718113209120929, 0.0 ], [ 527898.805178455775604, 6041589.717972936108708, 0.0 ], [ 527993.62806321552489, 6041049.827272972092032, 0.0 ], [ 528015.25090897618793, 6041051.550123515538871, 0.0 ] ] ] } },
{ "type": "Feature", "properties": { "layer": "WBK_WEG_BEST" }, "geometry": { "type": "LineString", "coordinates": [ [ 528015.25090897618793, 6041051.550123515538871 ], [ 528013.834965767688118, 6041058.682078355923295 ], [ 528000.122230641311035, 6041084.534966417588294 ], [ 527923.058588564861566, 6041524.823080855421722 ], [ 527910.504955994430929, 6041576.695787787437439 ], [ 527904.215142829925753, 6041749.267481178976595 ], [ 527919.767787113902159, 6042030.565230569802225 ], [ 527909.224351355573162, 6042032.14528533257544 ], [ 527896.710981996846385, 6041605.756674466654658 ], [ 527876.342398502165452, 6041597.381818287074566 ], [ 527876.342350368620828, 6041589.718114019371569 ], [ 527898.805179870454594, 6041589.717972934246063 ], [ 527993.628065398777835, 6041049.827272012829781 ], [ 528015.25090897618793, 6041051.550123515538871 ] ] } },
{ "type": "Feature", "properties": { "layer": "WBK_WEG_BEST" }, "geometry": { "type": "Polygon", "coordinates": [ [ [ 527919.767787113902159, 6042030.565230569802225, 0.0 ], [ 527826.287560582626611, 6042039.807246972806752, 0.0 ], [ 527826.124128818861209, 6042049.809671397320926, 0.0 ], [ 527908.490975267486647, 6042045.700185973197222, 0.0 ], [ 527930.712082660757005, 6042727.932824694551528, 0.0 ], [ 527943.435168968280777, 6042726.938494685105979, 0.0 ], [ 527919.767787113902159, 6042030.565230569802225, 0.0 ] ] ] } },
{ "type": "Feature", "properties": { "layer": "WBK_WEG_BEST" }, "geometry": { "type": "LineString", "coordinates": [ [ 527919.767787113902159, 6042030.565230569802225 ], [ 527826.287564747850411, 6042039.807246924377978 ], [ 527826.124131446005777, 6042049.809671853668988 ], [ 527908.49096773925703, 6042045.700185504741967 ], [ 527930.712087981402874, 6042727.932824707590044 ], [ 527943.435165339848027, 6042726.938494387082756 ], [ 527919.767787113902159, 6042030.565230569802225 ] ] } },
{ "type": "Feature", "properties": { "layer": "WBK_WEG_BEST" }, "geometry": { "type": "Polygon", "coordinates": [ [ [ 527952.075012707151473, 6042741.957583654671907, 0.0 ], [ 527946.017090155277401, 6042746.906583827920258, 0.0 ], [ 527932.318070080014877, 6043204.615166176110506, 0.0 ], [ 527701.44792844937183, 6043219.316503432579339, 0.0 ], [ 527702.257858657394536, 6043209.365575076080859, 0.0 ], [ 527910.106185174779966, 6043195.669374864548445, 0.0 ], [ 527919.173054673941806, 6043186.30338975880295, 0.0 ], [ 527933.877484009717591, 6042740.996857759542763, 0.0 ], [ 527952.075012707151473, 6042741.957583654671907, 0.0 ] ] ] } },
{ "type": "Feature", "properties": { "layer": "WBK_WEG_BEST" }, "geometry": { "type": "LineString", "coordinates": [ [ 527952.075012707151473, 6042741.957583654671907 ], [ 527946.017090455628932, 6042746.906583057716489 ], [ 527932.318069222266786, 6043204.615165890194476 ], [ 527701.447927357628942, 6043219.316504005342722 ], [ 527702.257861895253882, 6043209.365575505420566 ], [ 527910.106182892690413, 6043195.669375026598573 ], [ 527919.173055657884106, 6043186.303389325737953 ], [ 527933.877484189579263, 6042740.996857028454542 ], [ 527952.075012707151473, 6042741.957583654671907 ] ] } },
{ "type": "Feature", "properties": { "layer": "WBK_WEG_BEST" }, "geometry": { "type": "Polygon", "coordinates": [ [ [ 527933.908055551582947, 6043204.745155084878206, 0.0 ], [ 527924.985523405019194, 6043347.9696150040254, 0.0 ], [ 527906.350700783310458, 6043359.199129414744675, 0.0 ], [ 527853.883627689792775, 6043357.467489277943969, 0.0 ], [ 527836.179793112445623, 6043361.615569102577865, 0.0 ], [ 527789.25534575630445, 6043393.322620689868927, 0.0 ], [ 527750.509098571492359, 6043465.701309664174914, 0.0 ], [ 527629.056991774006747, 6043634.145043300464749, 0.0 ], [ 527528.747303444542922, 6043706.022863590158522, 0.0 ], [ 527392.081631256849505, 6043989.752551443874836, 0.0 ], [ 527391.292186954291537, 6043997.193499250337481, 0.0 ], [ 527377.465767489047721, 6043993.206615798175335, 0.0 ], [ 527520.971477618906647, 6043702.189059612341225, 0.0 ], [ 527621.254099133890122, 6043626.123893812298775, 0.0 ], [ 527742.131113575189374, 6043457.515425785444677, 0.0 ], [ 527781.358354335883632, 6043384.956733859144151, 0.0 ], [ 527838.478671268210746, 6043345.372678722254932, 0.0 ], [ 527906.017172037390992, 6043348.810227760113776, 0.0 ], [ 527912.325100191752426, 6043344.411221634596586, 0.0 ], [ 527915.154001184157096, 6043332.677293992601335, 0.0 ], [ 527921.66573203029111, 6043205.293486274778843, 0.0 ], [ 527933.908055551582947, 6043204.745155084878206, 0.0 ] ] ] } },
{ "type": "Feature", "properties": { "layer": "WBK_WEG_BEST" }, "geometry": { "type": "LineString", "coordinates": [ [ 527933.908055551582947, 6043204.745155084878206 ], [ 527924.985521204187535, 6043347.969614936038852 ], [ 527906.350703455973417, 6043359.199129867367446 ], [ 527853.883631569100544, 6043357.467489654198289 ], [ 527836.179787489469163, 6043361.615568624809384 ], [ 527789.255347443162464, 6043393.32262023165822 ], [ 527750.509099774528295, 6043465.701310348697007 ], [ 527629.056988846859895, 6043634.145042915828526 ], [ 527528.747303273295984, 6043706.022864502854645 ], [ 527392.081634179572575, 6043989.752551238052547 ], [ 527391.292186712729745, 6043997.193498444743454 ], [ 527377.465766137931496, 6043993.20661655254662 ], [ 527520.971481950255111, 6043702.189058714546263 ], [ 527621.254097667289898, 6043626.123894603922963 ], [ 527742.131110277143307, 6043457.515424933284521 ], [ 527781.358357040793635, 6043384.956734540872276 ], [ 527838.478667329414748, 6043345.37267826590687 ], [ 527906.017176098539494, 6043348.810227587819099 ], [ 527912.325096533400938, 6043344.411221959628165 ], [ 527915.154002833645791, 6043332.677295125089586 ], [ 527921.665732211316936, 6043205.293485936708748 ], [ 527933.908055551582947, 6043204.745155084878206 ] ] } },
{ "type": "Feature", "properties": { "layer": "WBK_WEG_BEST" }, "geometry": { "type": "Polygon", "coordinates": [ [ [ 527153.909753134008497, 6045708.371894683688879, 0.0 ], [ 527201.640680168406107, 6045436.484675693325698, 0.0 ], [ 527279.793766151648015, 6045147.86939300596714, 0.0 ], [ 527287.591165669378825, 6045141.161895584315062, 0.0 ], [ 527294.983100016019307, 6045140.191357200033963, 0.0 ], [ 527531.743166355183348, 6045173.601514814421535, 0.0 ], [ 527536.586754484334961, 6045163.703839502297342, 0.0 ], [ 527273.551182598224841, 6045126.184597859159112, 0.0 ], [ 527192.480443855747581, 6045415.845387581735849, 0.0 ], [ 527144.693821199936792, 6045708.322951952926815, 0.0 ], [ 527153.909753134008497, 6045708.371894683688879, 0.0 ] ] ] } },
{ "type": "Feature", "properties": { "layer": "WBK_WEG_BEST" }, "geometry": { "type": "LineString", "coordinates": [ [ 527153.909753134008497, 6045708.371894683688879 ], [ 527201.640677013900131, 6045436.484675049781799 ], [ 527279.793767473660409, 6045147.869393224827945 ], [ 527287.591162682860158, 6045141.161896198987961 ], [ 527294.983104229904711, 6045140.19135706871748 ], [ 527531.743168605607934, 6045173.601513270288706 ], [ 527536.586754553602077, 6045163.703840032219887 ], [ 527273.551178985857405, 6045126.184597724117339 ], [ 527192.480443593580276, 6045415.845387686043978 ], [ 527144.693818286643364, 6045708.322952424176037 ], [ 527153.909753134008497, 6045708.371894683688879 ] ] } },
{ "type": "Feature", "properties": { "layer": "WBK_WEG_BEST" }, "geometry": { "type": "Polygon", "coordinates": [ [ [ 526979.763259870931506, 6045736.23877468612045, 0.0 ], [ 526809.975872366223484, 6046104.516022601164877, 0.0 ], [ 527046.969490313902497, 6046253.1703962367028, 0.0 ], [ 527041.969402166083455, 6046261.599666020832956, 0.0 ], [ 526804.528999950620346, 6046118.415950049646199, 0.0 ], [ 526801.651109316851944, 6046098.521319695748389, 0.0 ], [ 526970.865303626516834, 6045732.493408303707838, 0.0 ], [ 526979.763259870931506, 6045736.23877468612045, 0.0 ] ] ] } },
{ "type": "Feature", "properties": { "layer": "WBK_WEG_BEST" }, "geometry": { "type": "LineString", "coordinates": [ [ 526979.763259870931506, 6045736.23877468612045 ], [ 526809.975870394264348, 6046104.516022428870201 ], [ 527046.9694916496519, 6046253.170396172441542 ], [ 527041.969401398207992, 6046261.599665872752666 ], [ 526804.529000416514464, 6046118.415950169786811 ], [ 526801.65111000998877, 6046098.521320412866771 ], [ 526970.865301571669988, 6045732.493407435715199 ], [ 526979.763259870931506, 6045736.23877468612045 ] ] } },
{ "type": "Feature", "properties": { "layer": "WBK_WEG_BEST" }, "geometry": { "type": "Polygon", "coordinates": [ [ [ 526569.448984711780213, 6046466.503763355314732, 0.0 ], [ 526572.808051671599969, 6046481.257629343308508, 0.0 ], [ 526610.289464323315769, 6046512.428654981777072, 0.0 ], [ 526773.742230616044253, 6046595.504492449574172, 0.0 ], [ 526915.736495326156728, 6046651.23817397095263, 0.0 ], [ 526915.821578513248824, 6046664.498072487302125, 0.0 ], [ 526733.560774873942137, 6046588.913795061409473, 0.0 ], [ 526550.940300938906148, 6046494.009668418206275, 0.0 ], [ 526569.448984711780213, 6046466.503763355314732, 0.0 ] ] ] } },
{ "type": "Feature", "properties": { "layer": "WBK_WEG_BEST" }, "geometry": { "type": "LineString", "coordinates": [ [ 526569.448984711780213, 6046466.503763355314732 ], [ 526572.808055395376869, 6046481.257628954015672 ], [ 526610.28945976390969, 6046512.428654859773815 ], [ 526773.742231978336349, 6046595.504492352716625 ], [ 526915.73649588227272, 6046651.23817450273782 ], [ 526915.821577660855837, 6046664.498071853071451 ], [ 526733.560776461032219, 6046588.913795093074441 ], [ 526550.9402998451842, 6046494.009668004699051 ], [ 526569.448984711780213, 6046466.503763355314732 ] ] } },
{ "type": "Feature", "properties": { "layer": "WBK_WEG_BEST" }, "geometry": { "type": "Polygon", "coordinates": [ [ [ 526609.32297568465583, 6047374.015949197113514, 0.0 ], [ 526608.427497341064736, 6047385.357757456600666, 0.0 ], [ 526282.033793218084611, 6047359.164209474809468, 0.0 ], [ 526273.838407572126016, 6047367.421224838122725, 0.0 ], [ 526271.661674192990176, 6047347.256518324837089, 0.0 ], [ 526280.437758191605099, 6047351.597803942859173, 0.0 ], [ 526609.32297568465583, 6047374.015949197113514, 0.0 ] ] ] } },
{ "type": "Feature", "properties": { "layer": "WBK_WEG_BEST" }, "geometry": { "type": "LineString", "coordinates": [ [ 526609.32297568465583, 6047374.015949197113514 ], [ 526608.427498230943456, 6047385.357757644727826 ], [ 526282.033792989561334, 6047359.164210502058268 ], [ 526273.838405491085723, 6047367.421224215999246 ], [ 526271.661676784860902, 6047347.25651840120554 ], [ 526280.437754689599387, 6047351.597804057411849 ], [ 526609.32297568465583, 6047374.015949197113514 ] ] } },
{ "type": "Feature", "properties": { "layer": "WBK_WEG_BEST" }, "geometry": { "type": "Polygon", "coordinates": [ [ [ 526389.477124216617085, 6048816.840906181372702, 0.0 ], [ 526383.34717261325568, 6048817.076942875981331, 0.0 ], [ 526236.697728202212602, 6048726.347558490931988, 0.0 ], [ 526235.178313747863285, 6048735.036955374293029, 0.0 ], [ 526389.1612261304399, 6048832.918784553185105, 0.0 ], [ 526389.477124216617085, 6048816.840906181372702, 0.0 ] ] ] } },
{ "type": "Feature", "properties": { "layer": "WBK_WEG_BEST" }, "geometry": { "type": "LineString", "coordinates": [ [ 526389.477124216617085, 6048816.840906181372702 ], [ 526383.347175723058172, 6048817.076943043619394 ], [ 526236.697724832454696, 6048726.347557125613093 ], [ 526235.178312522592023, 6048735.036956005729735 ], [ 526389.161225724848919, 6048832.91878448612988 ], [ 526389.477124216617085, 6048816.840906181372702 ] ] } },
{ "type": "Feature", "properties": { "layer": "WBK_WEG_BEST" }, "geometry": { "type": "MultiLineString", "coordinates": [ [ [ 526345.02786146919243, 6050153.218956909142435, 0.0 ], [ 526642.79027788573876, 6050266.852846438065171, 0.0 ] ], [ [ 526642.79027788573876, 6050266.852846438065171, 0.0 ], [ 526592.940938133746386, 6050628.325387255288661, 0.0 ] ], [ [ 526592.940938133746386, 6050628.325387255288661, 0.0 ], [ 526580.24312042654492, 6050640.594749907031655, 0.0 ] ], [ [ 526580.24312042654492, 6050640.594749907031655, 0.0 ], [ 526631.326396326185204, 6050269.16727187577635, 0.0 ] ], [ [ 526631.326396326185204, 6050269.16727187577635, 0.0 ], [ 526343.427890893188305, 6050156.517942255362868, 0.0 ] ], [ [ 526343.427890893188305, 6050156.517942255362868, 0.0 ], [ 526344.99435609113425, 6050153.289610443636775, 0.0 ] ] ] } },
{ "type": "Feature", "properties": { "layer": "WBK_WEG_BEST" }, "geometry": { "type": "LineString", "coordinates": [ [ 526345.02786146919243, 6050153.218956909142435 ], [ 526642.79027788573876, 6050266.852846438065171 ], [ 526593.44094893662259, 6050630.654366289265454 ], [ 526580.24312042654492, 6050640.594749907031655 ], [ 526631.326396326185204, 6050269.16727187577635 ], [ 526343.427890893188305, 6050156.517942255362868 ], [ 526344.99435728660319, 6050153.289609593339264 ] ] } },
{ "type": "Feature", "properties": { "layer": "WBK_WEG_BEST" }, "geometry": { "type": "MultiLineString", "coordinates": [ [ [ 526883.346011097775772, 6051573.797733669169247, 0.0 ], [ 527138.334901755908504, 6051127.016522221267223, 0.0 ] ], [ [ 527138.334905327646993, 6051127.016522642225027, 0.0 ], [ 527212.770646514953114, 6051017.294894843362272, 0.0 ] ], [ [ 527212.770644599338993, 6051017.294894613325596, 0.0 ], [ 527234.423080001608469, 6050953.786244661547244, 0.0 ] ], [ [ 527234.423082638182677, 6050953.786244988441467, 0.0 ], [ 527252.386469554738142, 6050878.062711687758565, 0.0 ] ], [ [ 527252.386468892451376, 6050878.062711475417018, 0.0 ], [ 527275.645606843172573, 6050848.760289643891156, 0.0 ] ], [ [ 527275.645605145255104, 6050848.760288349352777, 0.0 ], [ 527338.688392226118594, 6050812.070673180744052, 0.0 ] ], [ [ 527338.688390303752385, 6050812.070673940703273, 0.0 ], [ 527388.462871822179295, 6050790.170528921298683, 0.0 ] ], [ [ 527388.462874774122611, 6050790.170528941787779, 0.0 ], [ 527417.304444982204586, 6050756.884602534584701, 0.0 ] ], [ [ 527417.304444325040095, 6050756.884602512232959, 0.0 ], [ 527402.395401146844961, 6050750.846398626454175, 0.0 ] ], [ [ 527402.39540086442139, 6050750.846399321220815, 0.0 ], [ 527387.561790607636794, 6050775.821645087562501, 0.0 ] ], [ [ 527387.561788313556463, 6050775.821644211187959, 0.0 ], [ 527376.361928803496994, 6050784.542647809721529, 0.0 ] ], [ [ 527376.361930506071076, 6050784.542648082599044, 0.0 ], [ 527310.339622026542202, 6050814.19483582302928, 0.0 ] ], [ [ 527310.339622482541017, 6050814.19483616668731, 0.0 ], [ 527265.919140515732579, 6050842.547398176975548, 0.0 ] ], [ [ 527265.91914055577945, 6050842.547397914342582, 0.0 ], [ 527240.59156248474028, 6050878.862779065035284, 0.0 ] ], [ [ 527240.59156308171805, 6050878.862778999842703, 0.0 ], [ 527220.384250750183128, 6050963.727256435900927, 0.0 ] ], [ [ 527220.384251167066395, 6050963.727256301790476, 0.0 ], [ 527209.046068601543084, 6051000.452046452090144, 0.0 ] ], [ [ 527209.046067742048763, 6051000.452046450227499, 0.0 ], [ 527160.018931141239591, 6051078.178259529173374, 0.0 ] ], [ [ 527160.018930995254777, 6051078.178260123357177, 0.0 ], [ 527103.190404257387854, 6051163.890461082570255, 0.0 ] ], [ [ 527103.190402091946453, 6051163.890460810624063, 0.0 ], [ 526879.712614628835581, 6051559.81031103618443, 0.0 ] ], [ [ 526879.712619629804976, 6051559.810309921391308, 0.0 ], [ 526883.337775078020059, 6051573.767030852846801, 0.0 ] ] ] } },
{ "type": "Feature", "properties": { "layer": "WBK_WEG_BEST" }, "geometry": { "type": "LineString", "coordinates": [ [ 526883.346011097775772, 6051573.797733669169247 ], [ 527138.334905327646993, 6051127.016522642225027 ], [ 527212.770644599338993, 6051017.294894613325596 ], [ 527234.423082638182677, 6050953.786244988441467 ], [ 527252.386468892451376, 6050878.062711475417018 ], [ 527275.645605145255104, 6050848.760288349352777 ], [ 527338.688390303752385, 6050812.070673940703273 ], [ 527388.462874774122611, 6050790.170528941787779 ], [ 527417.304444325040095, 6050756.884602512232959 ], [ 527402.39540086442139, 6050750.846399321220815 ], [ 527387.561788313556463, 6050775.821644211187959 ], [ 527376.361930506071076, 6050784.542648082599044 ], [ 527310.339622482541017, 6050814.19483616668731 ], [ 527265.91914055577945, 6050842.547397914342582 ], [ 527240.59156308171805, 6050878.862778999842703 ], [ 527220.384251167066395, 6050963.727256301790476 ], [ 527209.046067742048763, 6051000.452046450227499 ], [ 527160.018930995254777, 6051078.178260123357177 ], [ 527103.190402091946453, 6051163.890460810624063 ], [ 526879.712619629804976, 6051559.810309921391308 ], [ 526883.337775311432779, 6051573.767031465657055 ] ] } },
{ "type": "Feature", "properties": { "layer": "WBK_WEG_BEST" }, "geometry": { "type": "Polygon", "coordinates": [ [ [ 526905.637230521067977, 6052010.277223708108068, 0.0 ], [ 527207.300788020249456, 6052109.78014475479722, 0.0 ], [ 527134.967543311300687, 6052339.475263594649732, 0.0 ], [ 527129.456498950603418, 6052325.487404870800674, 0.0 ], [ 527187.88180585205555, 6052127.025557296350598, 0.0 ], [ 527178.009808073285967, 6052115.199710088782012, 0.0 ], [ 526900.807323783403262, 6052017.440116742625833, 0.0 ], [ 526905.637230521067977, 6052010.277223708108068, 0.0 ] ] ] } },
{ "type": "Feature", "properties": { "layer": "WBK_WEG_BEST" }, "geometry": { "type": "LineString", "coordinates": [ [ 526905.637230521067977, 6052010.277223708108068 ], [ 527207.300788277643733, 6052109.7801444362849 ], [ 527134.967544628656469, 6052339.475263206288218 ], [ 527129.456499495427124, 6052325.487405392341316 ], [ 527187.881806796765886, 6052127.025557580403984 ], [ 527178.009804589673877, 6052115.199709951877594 ], [ 526900.807324007153511, 6052017.440116884186864 ], [ 526905.637230521067977, 6052010.277223708108068 ] ] } },
{ "type": "Feature", "properties": { "layer": "WBK_WEG_BEST" }, "geometry": { "type": "Polygon", "coordinates": [ [ [ 527485.112038509687409, 6052685.186419712379575, 0.0 ], [ 527179.695846959832124, 6052929.855462726205587, 0.0 ], [ 527172.280914067756385, 6052921.499574684537947, 0.0 ], [ 527475.761077355244197, 6052680.11801641061902, 0.0 ], [ 527485.112038509687409, 6052685.186419712379575, 0.0 ] ] ] } },
{ "type": "Feature", "properties": { "layer": "WBK_WEG_BEST" }, "geometry": { "type": "LineString", "coordinates": [ [ 527485.112038509687409, 6052685.186419712379575 ], [ 527179.695844126632437, 6052929.855461405590177 ], [ 527172.280916014919057, 6052921.499575180932879 ], [ 527475.761075549991801, 6052680.118016039952636 ], [ 527485.112038509687409, 6052685.186419712379575 ] ] } },
{ "type": "Feature", "properties": { "layer": "WBK_WEG_BEST" }, "geometry": { "type": "Polygon", "coordinates": [ [ [ 526919.724095220910385, 6054712.30745599232614, 0.0 ], [ 526934.547749026678503, 6054675.25064648874104, 0.0 ], [ 526952.985345788067207, 6054633.358851479366422, 0.0 ], [ 526978.568273684359156, 6054494.194755745120347, 0.0 ], [ 526973.070993958273903, 6054494.194790366105735, 0.0 ], [ 526945.7629072208656, 6054634.739386271685362, 0.0 ], [ 526910.72712750127539, 6054706.239559298381209, 0.0 ], [ 526919.724095220910385, 6054712.30745599232614, 0.0 ] ] ] } },
{ "type": "Feature", "properties": { "layer": "WBK_WEG_BEST" }, "geometry": { "type": "LineString", "coordinates": [ [ 526919.724095220910385, 6054712.30745599232614 ], [ 526934.547750010155141, 6054675.2506466768682 ], [ 526952.98534353915602, 6054633.358851380646229 ], [ 526978.568275099620223, 6054494.194755839183927 ], [ 526973.07099227886647, 6054494.194790366105735 ], [ 526945.762910287943669, 6054634.739386446774006 ], [ 526910.72712626575958, 6054706.239558911882341 ], [ 526919.724095220910385, 6054712.30745599232614 ] ] } },
{ "type": "Feature", "properties": { "layer": "WBK_WEG_BEST" }, "geometry": { "type": "MultiLineString", "coordinates": [ [ [ 527281.666878785006702, 6056074.406758250668645, 0.0 ], [ 527232.086530713946559, 6056277.004519142210484, 0.0 ] ], [ [ 527232.086533801630139, 6056277.004519950598478, 0.0 ], [ 527117.630492750555277, 6056607.137968122027814, 0.0 ] ], [ [ 527117.630490409093909, 6056607.137967305257916, 0.0 ], [ 527105.837024846114218, 6056599.760841972194612, 0.0 ] ], [ [ 527105.83702456112951, 6056599.760841354727745, 0.0 ], [ 527220.391627336968668, 6056278.064583854749799, 0.0 ] ], [ [ 527220.391625683987513, 6056278.064584103412926, 0.0 ], [ 527262.936066531692632, 6056081.664819968864322, 0.0 ] ], [ [ 527262.936067041940987, 6056081.664820476435125, 0.0 ], [ 527266.832156808348373, 6056069.39827988576144, 0.0 ] ], [ [ 527266.83216184109915, 6056069.398280051536858, 0.0 ], [ 527280.837885961751454, 6056073.846768033690751, 0.0 ] ] ] } },
{ "type": "Feature", "properties": { "layer": "WBK_WEG_BEST" }, "geometry": { "type": "LineString", "coordinates": [ [ 527281.666878785006702, 6056074.406758250668645 ], [ 527232.086533801630139, 6056277.004519950598478 ], [ 527117.630490409093909, 6056607.137967305257916 ], [ 527105.83702456112951, 6056599.760841354727745 ], [ 527220.391625683987513, 6056278.064584103412926 ], [ 527262.936067041940987, 6056081.664820476435125 ], [ 527266.83216184109915, 6056069.398280051536858 ], [ 527280.837884480715729, 6056073.846767826937139 ] ] } },
{ "type": "Feature", "properties": { "layer": "WBK_WEG_BEST" }, "geometry": { "type": "LineString", "coordinates": [ [ 513994.865747581294272, 6075734.95623188931495 ], [ 514055.13951100979466, 6075762.400417436845601 ], [ 514059.482510844012722, 6075755.325818719342351 ], [ 513997.011983193573542, 6075728.916413188911974 ], [ 513994.865747581294272, 6075734.95623188931495 ] ] } },
{ "type": "Feature", "properties": { "layer": "WBK_WEG_BEST" }, "geometry": { "type": "Polygon", "coordinates": [ [ [ 513994.865747581294272, 6075734.95623188931495, 0.0 ], [ 514055.13951100979466, 6075762.400417436845601, 0.0 ], [ 514059.482510844012722, 6075755.325818719342351, 0.0 ], [ 513997.011983193573542, 6075728.916413188911974, 0.0 ], [ 513994.865747581294272, 6075734.95623188931495, 0.0 ] ] ] } }
]
}
